{
  "4": {
    "name": "MINNETONKA MN",
    "city": "Hopkins",
    "state": "MN",
    "zip": "55305",
    "type": "Big Box"
  },
  "7": {
    "name": "ROSEVILLE MN",
    "city": "Roseville",
    "state": "MN",
    "zip": "55113",
    "type": "Big Box"
  },
  "8": {
    "name": "BURNSVILLE MN",
    "city": "Burnsville",
    "state": "MN",
    "zip": "55337",
    "type": "Big Box"
  },
  "10": {
    "name": "MAPLEWOOD MN",
    "city": "Maplewood",
    "state": "MN",
    "zip": "55109",
    "type": "Big Box"
  },
  "12": {
    "name": "ST CLOUD MN",
    "city": "Saint Cloud",
    "state": "MN",
    "zip": "56301",
    "type": "Big Box"
  },
  "13": {
    "name": "FARGO ND",
    "city": "Fargo",
    "state": "ND",
    "zip": "58103",
    "type": "Big Box"
  },
  "14": {
    "name": "ROCHESTER MN",
    "city": "Rochester",
    "state": "MN",
    "zip": "55901",
    "type": "Big Box"
  },
  "15": {
    "name": "OAKDALE MN",
    "city": "Oakdale",
    "state": "MN",
    "zip": "55128",
    "type": "Big Box"
  },
  "16": {
    "name": "UNIVERSITY AV WDM IA",
    "city": "West Des Moines",
    "state": "IA",
    "zip": "50266",
    "type": "Big Box"
  },
  "17": {
    "name": "SIOUX FALLS SD",
    "city": "Sioux Falls",
    "state": "SD",
    "zip": "57105",
    "type": "Big Box"
  },
  "18": {
    "name": "LA CROSSE WI",
    "city": "Onalaska",
    "state": "WI",
    "zip": "54650",
    "type": "Big Box"
  },
  "20": {
    "name": "CEDAR RAPIDS IA",
    "city": "Cedar Rapids",
    "state": "IA",
    "zip": "52402",
    "type": "Big Box"
  },
  "21": {
    "name": "CORALVILLE IA",
    "city": "Coralville",
    "state": "IA",
    "zip": "52241",
    "type": "Big Box"
  },
  "22": {
    "name": "DAVENPORT IA",
    "city": "Davenport",
    "state": "IA",
    "zip": "52807",
    "type": "Big Box"
  },
  "25": {
    "name": "SOUTHRIDGE WI",
    "city": "Greenfield",
    "state": "WI",
    "zip": "53220",
    "type": "Big Box"
  },
  "26": {
    "name": "MAYFAIR WI",
    "city": "Wauwatosa",
    "state": "WI",
    "zip": "53226",
    "type": "Big Box"
  },
  "27": {
    "name": "APPLETON WI",
    "city": "Appleton",
    "state": "WI",
    "zip": "54913",
    "type": "Big Box"
  },
  "28": {
    "name": "GREEN BAY WI",
    "city": "Green Bay",
    "state": "WI",
    "zip": "54304",
    "type": "Big Box"
  },
  "29": {
    "name": "RACINE WI",
    "city": "Racine",
    "state": "WI",
    "zip": "53406",
    "type": "Big Box"
  },
  "30": {
    "name": "SOUTH COUNTY MO",
    "city": "Saint Louis",
    "state": "MO",
    "zip": "63125",
    "type": "Big Box"
  },
  "31": {
    "name": "FAIRVIEW HEIGHTS IL",
    "city": "Fairview Heights",
    "state": "IL",
    "zip": "62208",
    "type": "Big Box"
  },
  "32": {
    "name": "MID RIVERS MALL MO",
    "city": "Saint Peters",
    "state": "MO",
    "zip": "63376",
    "type": "Big Box"
  },
  "36": {
    "name": "INDEPENDENCE MO",
    "city": "Independence",
    "state": "MO",
    "zip": "64057",
    "type": "Big Box"
  },
  "39": {
    "name": "OAK PARK KS",
    "city": "Overland Park",
    "state": "KS",
    "zip": "66215",
    "type": "Big Box"
  },
  "40": {
    "name": "EAU CLAIRE WI",
    "city": "Eau Claire",
    "state": "WI",
    "zip": "54701",
    "type": "Big Box"
  },
  "43": {
    "name": "DULUTH MN",
    "city": "Duluth",
    "state": "MN",
    "zip": "55811",
    "type": "Big Box"
  },
  "44": {
    "name": "BROOKFIELD WI",
    "city": "Brookfield",
    "state": "WI",
    "zip": "53045",
    "type": "Big Box"
  },
  "45": {
    "name": "ROCKFORD IL",
    "city": "Rockford",
    "state": "IL",
    "zip": "61107",
    "type": "Big Box"
  },
  "46": {
    "name": "CHAMPAIGN IL",
    "city": "Champaign",
    "state": "IL",
    "zip": "61822",
    "type": "Big Box"
  },
  "47": {
    "name": "SPRINGFIELD IL",
    "city": "Springfield",
    "state": "IL",
    "zip": "62704",
    "type": "Big Box"
  },
  "48": {
    "name": "TOPEKA KS",
    "city": "Topeka",
    "state": "KS",
    "zip": "66604",
    "type": "Big Box"
  },
  "49": {
    "name": "BLOOMINGTON IL",
    "city": "Bloomington",
    "state": "IL",
    "zip": "61704",
    "type": "Big Box"
  },
  "50": {
    "name": "LINCOLN NE",
    "city": "Lincoln",
    "state": "NE",
    "zip": "68510",
    "type": "Big Box"
  },
  "51": {
    "name": "EAST WICHITA KS",
    "city": "Wichita",
    "state": "KS",
    "zip": "67206",
    "type": "Big Box"
  },
  "52": {
    "name": "BATTLEFIELD MO",
    "city": "Springfield",
    "state": "MO",
    "zip": "65804",
    "type": "Big Box"
  },
  "54": {
    "name": "MESQUITE TX",
    "city": "Mesquite",
    "state": "TX",
    "zip": "75150",
    "type": "Big Box"
  },
  "55": {
    "name": "HURST TX",
    "city": "Hurst",
    "state": "TX",
    "zip": "76053",
    "type": "Big Box"
  },
  "56": {
    "name": "CEDAR HILL TX",
    "city": "Cedar Hill",
    "state": "TX",
    "zip": "75104",
    "type": "Big Box"
  },
  "57": {
    "name": "ARLINGTON TX",
    "city": "Arlington",
    "state": "TX",
    "zip": "76015",
    "type": "Big Box"
  },
  "58": {
    "name": "PARK LANE TX",
    "city": "Dallas",
    "state": "TX",
    "zip": "75231",
    "type": "Big Box"
  },
  "59": {
    "name": "EAST MADISON WI",
    "city": "Madison",
    "state": "WI",
    "zip": "53704",
    "type": "Big Box"
  },
  "60": {
    "name": "MPLS SERVICE",
    "city": "Bloomington",
    "state": "MN",
    "zip": "55438",
    "type": "Repair Depot"
  },
  "63": {
    "name": "ST.LOUIS SERVICE",
    "city": "Saint Peters",
    "state": "MO",
    "zip": "63376",
    "type": "Repair Depot"
  },
  "67": {
    "name": "FLOWER MOUND SERVICE",
    "city": "Flower Mound",
    "state": "TX",
    "zip": "75028",
    "type": "Repair Depot"
  },
  "68": {
    "name": "HOUSTON SERVICE",
    "city": "Missouri City",
    "state": "TX",
    "zip": "77489",
    "type": "Repair Depot"
  },
  "69": {
    "name": "DENVER SERVICE",
    "city": "Aurora",
    "state": "CO",
    "zip": "80019",
    "type": "Repair Depot"
  },
  "74": {
    "name": "DDC-ST. LOUIS",
    "city": "Saint Peters",
    "state": "MO",
    "zip": "63376",
    "type": null
  },
  "75": {
    "name": "DDC-FLOWER MOUND",
    "city": "Flower Mound",
    "state": "TX",
    "zip": "75028",
    "type": null
  },
  "78": {
    "name": "DDC-MINNEAPOLIS",
    "city": "Bloomington",
    "state": "MN",
    "zip": "55438",
    "type": null
  },
  "79": {
    "name": "DDC-DENVER",
    "city": "Aurora",
    "state": "CO",
    "zip": "80019",
    "type": null
  },
  "101": {
    "name": "MISSION VIEJO CA",
    "city": "Mission Viejo",
    "state": "CA",
    "zip": "92691",
    "type": "Big Box"
  },
  "102": {
    "name": "WEST COVINA CA",
    "city": "West Covina",
    "state": "CA",
    "zip": "91790",
    "type": "Big Box"
  },
  "103": {
    "name": "CITY OF INDUSTRY CA",
    "city": "City of Industry",
    "state": "CA",
    "zip": "91748",
    "type": "Big Box"
  },
  "104": {
    "name": "HAWTHORNE CA",
    "city": "Hawthorne",
    "state": "CA",
    "zip": "90250",
    "type": "Big Box"
  },
  "105": {
    "name": "RANCHO CUCAMONGA CA",
    "city": "Rancho Cucamonga",
    "state": "CA",
    "zip": "91739",
    "type": "Big Box"
  },
  "106": {
    "name": "PALMDALE CA",
    "city": "Palmdale",
    "state": "CA",
    "zip": "93551",
    "type": "Big Box"
  },
  "107": {
    "name": "TORRANCE CA",
    "city": "Torrance",
    "state": "CA",
    "zip": "90505",
    "type": "Big Box"
  },
  "108": {
    "name": "VICTORVILLE CA",
    "city": "Victorville",
    "state": "CA",
    "zip": "92392",
    "type": "Big Box"
  },
  "109": {
    "name": "WEST LA CA",
    "city": "Los Angeles",
    "state": "CA",
    "zip": "90064",
    "type": "Big Box"
  },
  "110": {
    "name": "RIVERSIDE CA",
    "city": "Riverside",
    "state": "CA",
    "zip": "92503",
    "type": "Big Box"
  },
  "111": {
    "name": "WESTMINSTER MALL CA",
    "city": "Westminster",
    "state": "CA",
    "zip": "92683",
    "type": "Big Box"
  },
  "112": {
    "name": "THOUSAND OAKS CA",
    "city": "Thousand Oaks",
    "state": "CA",
    "zip": "91360",
    "type": "Big Box"
  },
  "113": {
    "name": "SANTA CLARITA CA",
    "city": "Santa Clarita",
    "state": "CA",
    "zip": "91350",
    "type": "Big Box"
  },
  "114": {
    "name": "FULLERTON CA",
    "city": "Fullerton",
    "state": "CA",
    "zip": "92835",
    "type": "Big Box"
  },
  "115": {
    "name": "MURRIETA CA",
    "city": "Murrieta",
    "state": "CA",
    "zip": "92562",
    "type": "Big Box"
  },
  "116": {
    "name": "WOODLAND HILLS CA",
    "city": "Canoga Park",
    "state": "CA",
    "zip": "91303",
    "type": "Big Box"
  },
  "117": {
    "name": "CERRITOS CA",
    "city": "Cerritos",
    "state": "CA",
    "zip": "90703",
    "type": "Big Box"
  },
  "118": {
    "name": "OXNARD CA",
    "city": "Oxnard",
    "state": "CA",
    "zip": "93036",
    "type": "Big Box"
  },
  "119": {
    "name": "COSTA MESA CA",
    "city": "Costa Mesa",
    "state": "CA",
    "zip": "92626",
    "type": "Big Box"
  },
  "120": {
    "name": "SANTA ROSA CA",
    "city": "Santa Rosa",
    "state": "CA",
    "zip": "95407",
    "type": "Big Box"
  },
  "121": {
    "name": "FRESNO CA",
    "city": "Fresno",
    "state": "CA",
    "zip": "93720",
    "type": "Big Box"
  },
  "122": {
    "name": "LAS VEGAS II NV",
    "city": "Las Vegas",
    "state": "NV",
    "zip": "89108",
    "type": "Big Box"
  },
  "123": {
    "name": "TUCSON AZ",
    "city": "Tucson",
    "state": "AZ",
    "zip": "85705",
    "type": "Big Box"
  },
  "124": {
    "name": "PALM DESERT CA",
    "city": "Palm Desert",
    "state": "CA",
    "zip": "92260",
    "type": "Big Box"
  },
  "125": {
    "name": "PASADENA CA",
    "city": "Pasadena",
    "state": "CA",
    "zip": "91107",
    "type": "Big Box"
  },
  "126": {
    "name": "YORBA LINDA CA",
    "city": "Yorba Linda",
    "state": "CA",
    "zip": "92887",
    "type": "Big Box"
  },
  "127": {
    "name": "LAKEWOOD CA",
    "city": "Lakewood",
    "state": "CA",
    "zip": "90712",
    "type": "Big Box"
  },
  "128": {
    "name": "RENO NV",
    "city": "Reno",
    "state": "NV",
    "zip": "89502",
    "type": "Big Box"
  },
  "129": {
    "name": "ROSEVILLE CA",
    "city": "Roseville",
    "state": "CA",
    "zip": "95678",
    "type": "Big Box"
  },
  "130": {
    "name": "PORTER RANCH CA",
    "city": "Northridge",
    "state": "CA",
    "zip": "91326",
    "type": "Big Box"
  },
  "131": {
    "name": "MONTCLAIR CA",
    "city": "Montclair",
    "state": "CA",
    "zip": "91763",
    "type": "Big Box"
  },
  "133": {
    "name": "ARDEN FAIR CA",
    "city": "Sacramento",
    "state": "CA",
    "zip": "95815",
    "type": "Big Box"
  },
  "134": {
    "name": "DUBLIN CA",
    "city": "Dublin",
    "state": "CA",
    "zip": "94568",
    "type": "Big Box"
  },
  "135": {
    "name": "PLEASANT HILL CA",
    "city": "Pleasant Hill",
    "state": "CA",
    "zip": "94523",
    "type": "Big Box"
  },
  "137": {
    "name": "BURBANK CA",
    "city": "Burbank",
    "state": "CA",
    "zip": "91502",
    "type": "Big Box"
  },
  "138": {
    "name": "PINOLE CA",
    "city": "Pinole",
    "state": "CA",
    "zip": "94564",
    "type": "Big Box"
  },
  "140": {
    "name": "SAN CARLOS CA",
    "city": "San Carlos",
    "state": "CA",
    "zip": "94070",
    "type": "Big Box"
  },
  "141": {
    "name": "MODESTO CA",
    "city": "Modesto",
    "state": "CA",
    "zip": "95356",
    "type": "Big Box"
  },
  "142": {
    "name": "MILPITAS CA",
    "city": "Milpitas",
    "state": "CA",
    "zip": "95035",
    "type": "Big Box"
  },
  "143": {
    "name": "CHESTERFIELD MO",
    "city": "Chesterfield",
    "state": "MO",
    "zip": "63005",
    "type": "Big Box"
  },
  "144": {
    "name": "UNION CITY CA",
    "city": "Union City",
    "state": "CA",
    "zip": "94587",
    "type": "Big Box"
  },
  "145": {
    "name": "HEATH OH",
    "city": "Heath",
    "state": "OH",
    "zip": "43056",
    "type": "Big Box"
  },
  "146": {
    "name": "STERLING VA",
    "city": "Sterling",
    "state": "VA",
    "zip": "20166",
    "type": "Big Box"
  },
  "147": {
    "name": "CARY NC",
    "city": "Cary",
    "state": "NC",
    "zip": "27518",
    "type": "Big Box"
  },
  "148": {
    "name": "GRAPEVINE TX",
    "city": "Grapevine",
    "state": "TX",
    "zip": "76051",
    "type": "Big Box"
  },
  "149": {
    "name": "TOWSON MD",
    "city": "Timonium",
    "state": "MD",
    "zip": "21093",
    "type": "Big Box"
  },
  "150": {
    "name": "SAN BERNARDINO CA",
    "city": "San Bernardino",
    "state": "CA",
    "zip": "92408",
    "type": "Big Box"
  },
  "152": {
    "name": "INGRAM TX",
    "city": "San Antonio",
    "state": "TX",
    "zip": "78238",
    "type": "Big Box"
  },
  "154": {
    "name": "EASTGATE OH",
    "city": "Cincinnati",
    "state": "OH",
    "zip": "45245",
    "type": "Big Box"
  },
  "155": {
    "name": "GREENSBORO NC",
    "city": "Greensboro",
    "state": "NC",
    "zip": "27407",
    "type": "Big Box"
  },
  "156": {
    "name": "TUTTLE CROSSING OH",
    "city": "Dublin",
    "state": "OH",
    "zip": "43016",
    "type": "Big Box"
  },
  "157": {
    "name": "EAST COLONIAL FL",
    "city": "Orlando",
    "state": "FL",
    "zip": "32803",
    "type": "Big Box"
  },
  "158": {
    "name": "WINSTON-SALEM NC",
    "city": "Winston-Salem",
    "state": "NC",
    "zip": "27103",
    "type": "Big Box"
  },
  "159": {
    "name": "WHITE MARSH MD",
    "city": "Nottingham",
    "state": "MD",
    "zip": "21236",
    "type": "Big Box"
  },
  "160": {
    "name": "DURHAM NC",
    "city": "Durham",
    "state": "NC",
    "zip": "27707",
    "type": "Big Box"
  },
  "161": {
    "name": "FLORENCE KY",
    "city": "Florence",
    "state": "KY",
    "zip": "41042",
    "type": "Big Box"
  },
  "162": {
    "name": "PARMA OH",
    "city": "Cleveland",
    "state": "OH",
    "zip": "44129",
    "type": "Big Box"
  },
  "163": {
    "name": "ANNAPOLIS MD",
    "city": "Annapolis",
    "state": "MD",
    "zip": "21401",
    "type": "Big Box"
  },
  "164": {
    "name": "SE DENVER CO",
    "city": "Lone Tree",
    "state": "CO",
    "zip": "80124",
    "type": "Big Box"
  },
  "165": {
    "name": "MEMPHIS TN",
    "city": "Memphis",
    "state": "TN",
    "zip": "38133",
    "type": "Big Box"
  },
  "166": {
    "name": "FREDERICKSBURG VA",
    "city": "Fredericksburg",
    "state": "VA",
    "zip": "22401",
    "type": "Big Box"
  },
  "167": {
    "name": "THE WOODLANDS TX",
    "city": "The Woodlands",
    "state": "TX",
    "zip": "77380",
    "type": "Big Box"
  },
  "168": {
    "name": "MENTOR OH",
    "city": "Mentor",
    "state": "OH",
    "zip": "44060",
    "type": "Big Box"
  },
  "169": {
    "name": "KNOXVILLE TN",
    "city": "Knoxville",
    "state": "TN",
    "zip": "37923",
    "type": "Big Box"
  },
  "170": {
    "name": "BRENTWOOD TN",
    "city": "Brentwood",
    "state": "TN",
    "zip": "37027",
    "type": "Big Box"
  },
  "172": {
    "name": "HENDERSONVILLE TN",
    "city": "Hendersonville",
    "state": "TN",
    "zip": "37075",
    "type": "Big Box"
  },
  "174": {
    "name": "FAYETTEVILLE NC",
    "city": "Fayetteville",
    "state": "NC",
    "zip": "28314",
    "type": "Big Box"
  },
  "175": {
    "name": "GASTONIA NC",
    "city": "Gastonia",
    "state": "NC",
    "zip": "28056",
    "type": "Big Box"
  },
  "176": {
    "name": "HULEN TX",
    "city": "Fort Worth",
    "state": "TX",
    "zip": "76132",
    "type": "Big Box"
  },
  "177": {
    "name": "AHWATUKEE AZ",
    "city": "Phoenix",
    "state": "AZ",
    "zip": "85044",
    "type": "Big Box"
  },
  "178": {
    "name": "CEDAR PARK TX",
    "city": "Cedar Park",
    "state": "TX",
    "zip": "78613",
    "type": "Big Box"
  },
  "179": {
    "name": "CULVER CITY CA",
    "city": "Culver City",
    "state": "CA",
    "zip": "90232",
    "type": "Big Box"
  },
  "180": {
    "name": "FRISCO TX",
    "city": "Frisco",
    "state": "TX",
    "zip": "75034",
    "type": "Big Box"
  },
  "181": {
    "name": "FORUM TX",
    "city": "Selma",
    "state": "TX",
    "zip": "78154",
    "type": "Big Box"
  },
  "182": {
    "name": "KILLEEN TX",
    "city": "Killeen",
    "state": "TX",
    "zip": "76543",
    "type": "Big Box"
  },
  "183": {
    "name": "GLENDALE CA",
    "city": "Los Angeles",
    "state": "CA",
    "zip": "90039",
    "type": "Big Box"
  },
  "184": {
    "name": "EL CAJON CA",
    "city": "El Cajon",
    "state": "CA",
    "zip": "92020",
    "type": "Big Box"
  },
  "187": {
    "name": "SAN FRANCISCO CA",
    "city": "San Francisco",
    "state": "CA",
    "zip": "94103",
    "type": "Big Box"
  },
  "188": {
    "name": "CHULA VISTA CA",
    "city": "Chula Vista",
    "state": "CA",
    "zip": "91910",
    "type": "Big Box"
  },
  "190": {
    "name": "BLOSSOM HILL CA",
    "city": "San Jose",
    "state": "CA",
    "zip": "95118",
    "type": "Big Box"
  },
  "191": {
    "name": "CHICO CA",
    "city": "Chico",
    "state": "CA",
    "zip": "95928",
    "type": "Big Box"
  },
  "192": {
    "name": "SANTA MARIA CA",
    "city": "Santa Maria",
    "state": "CA",
    "zip": "93455",
    "type": "Big Box"
  },
  "195": {
    "name": "WICHITA FALLS TX",
    "city": "Wichita Falls",
    "state": "TX",
    "zip": "76308",
    "type": "Big Box"
  },
  "196": {
    "name": "MCKINNEY TX",
    "city": "McKinney",
    "state": "TX",
    "zip": "75070",
    "type": "Big Box"
  },
  "198": {
    "name": "EAST TUCSON AZ",
    "city": "Tucson",
    "state": "AZ",
    "zip": "85711",
    "type": "Big Box"
  },
  "199": {
    "name": "SUGAR LAND TX",
    "city": "Sugar Land",
    "state": "TX",
    "zip": "77479",
    "type": "Big Box"
  },
  "201": {
    "name": "NORTH STAR TX",
    "city": "San Antonio",
    "state": "TX",
    "zip": "78216",
    "type": "Big Box"
  },
  "202": {
    "name": "PLANO TX",
    "city": "Plano",
    "state": "TX",
    "zip": "75074",
    "type": "Big Box"
  },
  "203": {
    "name": "NORTH AUSTIN TX",
    "city": "Austin",
    "state": "TX",
    "zip": "78759",
    "type": "Big Box"
  },
  "204": {
    "name": "SOUTH AUSTIN TX",
    "city": "Austin",
    "state": "TX",
    "zip": "78735",
    "type": "Big Box"
  },
  "205": {
    "name": "IRVING TX",
    "city": "Irving",
    "state": "TX",
    "zip": "75062",
    "type": "Big Box"
  },
  "206": {
    "name": "OMAHA EAST NE",
    "city": "Omaha",
    "state": "NE",
    "zip": "68114",
    "type": "Big Box"
  },
  "207": {
    "name": "PEORIA IL",
    "city": "Peoria",
    "state": "IL",
    "zip": "61611",
    "type": "Big Box"
  },
  "208": {
    "name": "WEST MADISON WI",
    "city": "Madison",
    "state": "WI",
    "zip": "53719",
    "type": "Big Box"
  },
  "209": {
    "name": "WESTMINSTER CO",
    "city": "Westminster",
    "state": "CO",
    "zip": "80031",
    "type": "Big Box"
  },
  "210": {
    "name": "LITTLETON CO",
    "city": "Lakewood",
    "state": "CO",
    "zip": "80123",
    "type": "Big Box"
  },
  "211": {
    "name": "COLORADO BLVD CO",
    "city": "Denver",
    "state": "CO",
    "zip": "80222",
    "type": "Big Box"
  },
  "212": {
    "name": "FIRST AND MAIN CO",
    "city": "Colorado Springs",
    "state": "CO",
    "zip": "80922",
    "type": "Big Box"
  },
  "213": {
    "name": "SHARPSTOWN TX",
    "city": "Houston",
    "state": "TX",
    "zip": "77036",
    "type": "Big Box"
  },
  "214": {
    "name": "WILLOWBROOK TX",
    "city": "Houston",
    "state": "TX",
    "zip": "77070",
    "type": "Big Box"
  },
  "215": {
    "name": "GREENSPOINT TX",
    "city": "Houston",
    "state": "TX",
    "zip": "77037",
    "type": "Big Box"
  },
  "216": {
    "name": "BUNKER HILL RD TX",
    "city": "Houston",
    "state": "TX",
    "zip": "77055",
    "type": "Big Box"
  },
  "217": {
    "name": "AURORA CO",
    "city": "Aurora",
    "state": "CO",
    "zip": "80012",
    "type": "Big Box"
  },
  "218": {
    "name": "AMARILLO TX",
    "city": "Amarillo",
    "state": "TX",
    "zip": "79121",
    "type": "Big Box"
  },
  "219": {
    "name": "OKLAHOMA CITY S OK",
    "city": "Oklahoma City",
    "state": "OK",
    "zip": "73159",
    "type": "Big Box"
  },
  "220": {
    "name": "OKLAHOMA CTY CENT OK",
    "city": "Oklahoma City",
    "state": "OK",
    "zip": "73112",
    "type": "Big Box"
  },
  "221": {
    "name": "TULSA OK",
    "city": "Tulsa",
    "state": "OK",
    "zip": "74133",
    "type": "Big Box"
  },
  "222": {
    "name": "NORTH LITTLE ROCK AR",
    "city": "North Little Rock",
    "state": "AR",
    "zip": "72117",
    "type": "Big Box"
  },
  "223": {
    "name": "ALBUQUERQUE NM",
    "city": "Albuquerque",
    "state": "NM",
    "zip": "87123",
    "type": "Big Box"
  },
  "225": {
    "name": "FORT COLLINS CO",
    "city": "Fort Collins",
    "state": "CO",
    "zip": "80525",
    "type": "Big Box"
  },
  "226": {
    "name": "LUBBOCK TX",
    "city": "Lubbock",
    "state": "TX",
    "zip": "79407",
    "type": "Big Box"
  },
  "227": {
    "name": "EVANSVILLE IN",
    "city": "Evansville",
    "state": "IN",
    "zip": "47715",
    "type": "Big Box"
  },
  "228": {
    "name": "FORT WAYNE IN",
    "city": "Fort Wayne",
    "state": "IN",
    "zip": "46805",
    "type": "Big Box"
  },
  "229": {
    "name": "CASTLETON IN",
    "city": "Indianapolis",
    "state": "IN",
    "zip": "46250",
    "type": "Big Box"
  },
  "230": {
    "name": "GREENWOOD IN",
    "city": "Greenwood",
    "state": "IN",
    "zip": "46142",
    "type": "Big Box"
  },
  "232": {
    "name": "WASHINGTON SQUARE IN",
    "city": "Indianapolis",
    "state": "IN",
    "zip": "46229",
    "type": "Big Box"
  },
  "233": {
    "name": "GULFGATE TX",
    "city": "Houston",
    "state": "TX",
    "zip": "77087",
    "type": "Big Box"
  },
  "235": {
    "name": "CORPUS CHRISTI TX",
    "city": "Corpus Christi",
    "state": "TX",
    "zip": "78411",
    "type": "Big Box"
  },
  "236": {
    "name": "MCALLEN TX",
    "city": "McAllen",
    "state": "TX",
    "zip": "78503",
    "type": "Big Box"
  },
  "237": {
    "name": "EL PASO TX",
    "city": "El Paso",
    "state": "TX",
    "zip": "79925",
    "type": "Big Box"
  },
  "238": {
    "name": "BEAUMONT TX",
    "city": "Beaumont",
    "state": "TX",
    "zip": "77706",
    "type": "Big Box"
  },
  "239": {
    "name": "WEST OAKS TX",
    "city": "Houston",
    "state": "TX",
    "zip": "77077",
    "type": "Big Box"
  },
  "240": {
    "name": "WEST OMAHA NE",
    "city": "Omaha",
    "state": "NE",
    "zip": "68118",
    "type": "Big Box"
  },
  "241": {
    "name": "LAREDO TX",
    "city": "Laredo",
    "state": "TX",
    "zip": "78045",
    "type": "Big Box"
  },
  "242": {
    "name": "BAYBROOK TX",
    "city": "Webster",
    "state": "TX",
    "zip": "77598",
    "type": "Big Box"
  },
  "243": {
    "name": "TOLEDO OH",
    "city": "Toledo",
    "state": "OH",
    "zip": "43613",
    "type": "Big Box"
  },
  "244": {
    "name": "WACO TX",
    "city": "Waco",
    "state": "TX",
    "zip": "76706",
    "type": "Big Box"
  },
  "246": {
    "name": "TYLER TX",
    "city": "Tyler",
    "state": "TX",
    "zip": "75703",
    "type": "Big Box"
  },
  "247": {
    "name": "SPRING MEADOWS OH",
    "city": "Holland",
    "state": "OH",
    "zip": "43528",
    "type": "Big Box"
  },
  "248": {
    "name": "FORT SMITH AR",
    "city": "Fort Smith",
    "state": "AR",
    "zip": "72903",
    "type": "Big Box"
  },
  "249": {
    "name": "THUNDERBIRD RD AZ",
    "city": "Phoenix",
    "state": "AZ",
    "zip": "85053",
    "type": "Big Box"
  },
  "251": {
    "name": "ARROWHEAD AZ",
    "city": "Glendale",
    "state": "AZ",
    "zip": "85308",
    "type": "Big Box"
  },
  "253": {
    "name": "CAMELBACK AZ",
    "city": "Phoenix",
    "state": "AZ",
    "zip": "85016",
    "type": "Big Box"
  },
  "254": {
    "name": "SUPERSTITION SPRG AZ",
    "city": "Mesa",
    "state": "AZ",
    "zip": "85206",
    "type": "Big Box"
  },
  "255": {
    "name": "HUMBLE TX",
    "city": "Humble",
    "state": "TX",
    "zip": "77338",
    "type": "Big Box"
  },
  "256": {
    "name": "MIDWAY/LBJ TX",
    "city": "Farmers Branch",
    "state": "TX",
    "zip": "75244",
    "type": "Big Box"
  },
  "257": {
    "name": "YOUNGSTOWN OH",
    "city": "Boardman",
    "state": "OH",
    "zip": "44512",
    "type": "Big Box"
  },
  "258": {
    "name": "LEWISVILLE TX",
    "city": "Lewisville",
    "state": "TX",
    "zip": "75067",
    "type": "Big Box"
  },
  "259": {
    "name": "LEXINGTON KY",
    "city": "Lexington",
    "state": "KY",
    "zip": "40503",
    "type": "Big Box"
  },
  "261": {
    "name": "MATTHEWS NC",
    "city": "Matthews",
    "state": "NC",
    "zip": "28105",
    "type": "Big Box"
  },
  "263": {
    "name": "COLUMBIA MD",
    "city": "Elkridge",
    "state": "MD",
    "zip": "21075",
    "type": "Big Box"
  },
  "264": {
    "name": "COLUMBIA SC",
    "city": "Columbia",
    "state": "SC",
    "zip": "29212",
    "type": "Big Box"
  },
  "265": {
    "name": "LAUREL MD",
    "city": "Laurel",
    "state": "MD",
    "zip": "20707",
    "type": "Big Box"
  },
  "266": {
    "name": "BEAVERCREEK OH",
    "city": "Fairborn",
    "state": "OH",
    "zip": "45324",
    "type": "Big Box"
  },
  "268": {
    "name": "CONCORD MILLS NC",
    "city": "Concord",
    "state": "NC",
    "zip": "28027",
    "type": "Big Box"
  },
  "269": {
    "name": "SPRINGFIELD VA",
    "city": "Springfield",
    "state": "VA",
    "zip": "22150",
    "type": "Big Box"
  },
  "271": {
    "name": "MAYFIELD ROAD OH",
    "city": "Mayfield Heights",
    "state": "OH",
    "zip": "44124",
    "type": "Big Box"
  },
  "272": {
    "name": "GREENVILLE SC",
    "city": "Greenville",
    "state": "SC",
    "zip": "29607",
    "type": "Big Box"
  },
  "273": {
    "name": "FAIRLAKES VA",
    "city": "Fairfax",
    "state": "VA",
    "zip": "22033",
    "type": "Big Box"
  },
  "274": {
    "name": "DAYTON MALL OH",
    "city": "Dayton",
    "state": "OH",
    "zip": "45449",
    "type": "Big Box"
  },
  "275": {
    "name": "WEST LITTLE ROCK AR",
    "city": "Little Rock",
    "state": "AR",
    "zip": "72211",
    "type": "Big Box"
  },
  "276": {
    "name": "PENTAGON CITY VA",
    "city": "Arlington",
    "state": "VA",
    "zip": "22202",
    "type": "Big Box"
  },
  "277": {
    "name": "OVERLAND PARK KS",
    "city": "Overland Park",
    "state": "KS",
    "zip": "66210",
    "type": "Big Box"
  },
  "278": {
    "name": "CHAPEL HILL OH",
    "city": "Cuyahoga Falls",
    "state": "OH",
    "zip": "44221",
    "type": "Big Box"
  },
  "279": {
    "name": "NORTH OLMSTED OH",
    "city": "North Olmsted",
    "state": "OH",
    "zip": "44070",
    "type": "Big Box"
  },
  "280": {
    "name": "MIDLAND TX",
    "city": "Midland",
    "state": "TX",
    "zip": "79705",
    "type": "Big Box"
  },
  "281": {
    "name": "RICHFIELD MN",
    "city": "Minneapolis",
    "state": "MN",
    "zip": "55423",
    "type": "Big Box"
  },
  "283": {
    "name": "BAILEYS CROSSROAD VA",
    "city": "Falls Church",
    "state": "VA",
    "zip": "22041",
    "type": "Big Box"
  },
  "285": {
    "name": "MONTROSE OH",
    "city": "Akron",
    "state": "OH",
    "zip": "44321",
    "type": "Big Box"
  },
  "286": {
    "name": "CANTON OH",
    "city": "North Canton",
    "state": "OH",
    "zip": "44720",
    "type": "Big Box"
  },
  "287": {
    "name": "POTOMAC MILLS VA",
    "city": "Woodbridge",
    "state": "VA",
    "zip": "22192",
    "type": "Big Box"
  },
  "289": {
    "name": "MARYLAND PARKWAY NV",
    "city": "Las Vegas",
    "state": "NV",
    "zip": "89119",
    "type": "Big Box"
  },
  "290": {
    "name": "GLEN BURNIE MD",
    "city": "Glen Burnie",
    "state": "MD",
    "zip": "21061",
    "type": "Big Box"
  },
  "291": {
    "name": "GALLERIA TX",
    "city": "Houston",
    "state": "TX",
    "zip": "77056",
    "type": "Big Box"
  },
  "292": {
    "name": "REYNOLDSBURG OH",
    "city": "Reynoldsburg",
    "state": "OH",
    "zip": "43068",
    "type": "Big Box"
  },
  "293": {
    "name": "ROCKVILLE MD",
    "city": "Rockville",
    "state": "MD",
    "zip": "20852",
    "type": "Big Box"
  },
  "294": {
    "name": "SPARTANBURG SC",
    "city": "Spartanburg",
    "state": "SC",
    "zip": "29301",
    "type": "Big Box"
  },
  "295": {
    "name": "MORSE RD OH",
    "city": "Columbus",
    "state": "OH",
    "zip": "43219",
    "type": "Big Box"
  },
  "296": {
    "name": "BEL AIR MD",
    "city": "Bel Air",
    "state": "MD",
    "zip": "21014",
    "type": "Big Box"
  },
  "298": {
    "name": "ACADEMY BLVD CO",
    "city": "Colorado Springs",
    "state": "CO",
    "zip": "80920",
    "type": "Big Box"
  },
  "299": {
    "name": "CRABTREE NC",
    "city": "Raleigh",
    "state": "NC",
    "zip": "27612",
    "type": "Big Box"
  },
  "301": {
    "name": "BUTTERFIELD ROAD IL",
    "city": "Downers Grove",
    "state": "IL",
    "zip": "60515",
    "type": "Big Box"
  },
  "302": {
    "name": "SKOKIE IL",
    "city": "Skokie",
    "state": "IL",
    "zip": "60077",
    "type": "Big Box"
  },
  "303": {
    "name": "ARLINGTON HEIGHTS IL",
    "city": "Arlington Heights",
    "state": "IL",
    "zip": "60004",
    "type": "Big Box"
  },
  "304": {
    "name": "BLOOMINGDALE IL",
    "city": "Bloomingdale",
    "state": "IL",
    "zip": "60108",
    "type": "Big Box"
  },
  "305": {
    "name": "SCHAUMBURG IL",
    "city": "Schaumburg",
    "state": "IL",
    "zip": "60173",
    "type": "Big Box"
  },
  "307": {
    "name": "JOLIET IL",
    "city": "Joliet",
    "state": "IL",
    "zip": "60431",
    "type": "Big Box"
  },
  "308": {
    "name": "ORLAND PARK IL",
    "city": "Orland Park",
    "state": "IL",
    "zip": "60462",
    "type": "Big Box"
  },
  "309": {
    "name": "MERRILLVILLE IN",
    "city": "Merrillville",
    "state": "IN",
    "zip": "46410",
    "type": "Big Box"
  },
  "310": {
    "name": "AURORA IL",
    "city": "Aurora",
    "state": "IL",
    "zip": "60504",
    "type": "Big Box"
  },
  "311": {
    "name": "BURBANK IL",
    "city": "Burbank",
    "state": "IL",
    "zip": "60459",
    "type": "Big Box"
  },
  "315": {
    "name": "CRYSTAL LAKE IL",
    "city": "Crystal Lake",
    "state": "IL",
    "zip": "60014",
    "type": "Big Box"
  },
  "316": {
    "name": "75TH AND LEMONT IL",
    "city": "Downers Grove",
    "state": "IL",
    "zip": "60516",
    "type": "Big Box"
  },
  "318": {
    "name": "VERNON HILLS IL",
    "city": "Vernon Hills",
    "state": "IL",
    "zip": "60061",
    "type": "Big Box"
  },
  "319": {
    "name": "HARLEM AND IRVING IL",
    "city": "Norridge",
    "state": "IL",
    "zip": "60706",
    "type": "Big Box"
  },
  "320": {
    "name": "NORTH RIVERSIDE IL",
    "city": "North Riverside",
    "state": "IL",
    "zip": "60546",
    "type": "Big Box"
  },
  "323": {
    "name": "NORTH AVENUE IL",
    "city": "Chicago",
    "state": "IL",
    "zip": "60642",
    "type": "Big Box"
  },
  "324": {
    "name": "COUNTRYSIDE IL",
    "city": "Countryside",
    "state": "IL",
    "zip": "60525",
    "type": "Big Box"
  },
  "325": {
    "name": "SOUTH BEND IN",
    "city": "Mishawaka",
    "state": "IN",
    "zip": "46545",
    "type": "Big Box"
  },
  "327": {
    "name": "LAFAYETTE IN",
    "city": "Lafayette",
    "state": "IN",
    "zip": "47905",
    "type": "Big Box"
  },
  "329": {
    "name": "MAPLE GROVE MN",
    "city": "Maple Grove",
    "state": "MN",
    "zip": "55369",
    "type": "Big Box"
  },
  "330": {
    "name": "MANKATO MN",
    "city": "Mankato",
    "state": "MN",
    "zip": "56001",
    "type": "Big Box"
  },
  "331": {
    "name": "DANBURY CT",
    "city": "Danbury",
    "state": "CT",
    "zip": "06810",
    "type": "Big Box"
  },
  "332": {
    "name": "COLLEGE STATION TX",
    "city": "College Station",
    "state": "TX",
    "zip": "77840",
    "type": "Big Box"
  },
  "333": {
    "name": "ST MATTHEWS KY",
    "city": "Louisville",
    "state": "KY",
    "zip": "40207",
    "type": "Big Box"
  },
  "335": {
    "name": "OUTER LOOP KY",
    "city": "Louisville",
    "state": "KY",
    "zip": "40219",
    "type": "Big Box"
  },
  "337": {
    "name": "GRAND FORKS ND",
    "city": "Grand Forks",
    "state": "ND",
    "zip": "58201",
    "type": "Big Box"
  },
  "338": {
    "name": "WEST ALBUQUERQUE NM",
    "city": "Albuquerque",
    "state": "NM",
    "zip": "87114",
    "type": "Big Box"
  },
  "339": {
    "name": "LANCASTER OH",
    "city": "Lancaster",
    "state": "OH",
    "zip": "43130",
    "type": "Big Box"
  },
  "340": {
    "name": "MOBILE AL",
    "city": "Mobile",
    "state": "AL",
    "zip": "36606",
    "type": "Big Box"
  },
  "341": {
    "name": "SCRANTON PA",
    "city": "Dickson City",
    "state": "PA",
    "zip": "18519",
    "type": "Big Box"
  },
  "342": {
    "name": "WILKES BARRE PA",
    "city": "Wilkes Barre",
    "state": "PA",
    "zip": "18702",
    "type": "Big Box"
  },
  "343": {
    "name": "NORTH DARTMOUTH MA",
    "city": "North Dartmouth",
    "state": "MA",
    "zip": "02747",
    "type": "Big Box"
  },
  "344": {
    "name": "PARAMUS NJ",
    "city": "Paramus",
    "state": "NJ",
    "zip": "07652",
    "type": "Big Box"
  },
  "345": {
    "name": "HUNTINGTN STATION NY",
    "city": "Huntington Station",
    "state": "NY",
    "zip": "11746",
    "type": "Big Box"
  },
  "346": {
    "name": "JOPLIN MO",
    "city": "Joplin",
    "state": "MO",
    "zip": "64801",
    "type": "Big Box"
  },
  "347": {
    "name": "LAFAYETTE LA",
    "city": "Lafayette",
    "state": "LA",
    "zip": "70503",
    "type": "Big Box"
  },
  "349": {
    "name": "ELK GROVE CA",
    "city": "Elk Grove",
    "state": "CA",
    "zip": "95758",
    "type": "Big Box"
  },
  "350": {
    "name": "THE AVENUES FL",
    "city": "Jacksonville",
    "state": "FL",
    "zip": "32256",
    "type": "Big Box"
  },
  "351": {
    "name": "FAYETTEVILLE AR",
    "city": "Fayetteville",
    "state": "AR",
    "zip": "72703",
    "type": "Big Box"
  },
  "352": {
    "name": "MIRA MESA CA",
    "city": "San Diego",
    "state": "CA",
    "zip": "92126",
    "type": "Big Box"
  },
  "353": {
    "name": "BROWNSVILLE TX",
    "city": "Brownsville",
    "state": "TX",
    "zip": "78526",
    "type": "Big Box"
  },
  "354": {
    "name": "FRY ROAD TX",
    "city": "Katy",
    "state": "TX",
    "zip": "77449",
    "type": "Big Box"
  },
  "355": {
    "name": "SPOKANE VALLEY WA",
    "city": "Spokane Valley",
    "state": "WA",
    "zip": "99216",
    "type": "Big Box"
  },
  "357": {
    "name": "PASADENA TX",
    "city": "Pasadena",
    "state": "TX",
    "zip": "77505",
    "type": "Big Box"
  },
  "358": {
    "name": "HENDERSON NV",
    "city": "Henderson",
    "state": "NV",
    "zip": "89014",
    "type": "Big Box"
  },
  "359": {
    "name": "BELLINGHAM WA",
    "city": "Bellingham",
    "state": "WA",
    "zip": "98226",
    "type": "Big Box"
  },
  "360": {
    "name": "WILLISTON VT",
    "city": "Williston",
    "state": "VT",
    "zip": "05495",
    "type": "Big Box"
  },
  "362": {
    "name": "SPOKANE NORTH WA",
    "city": "Spokane",
    "state": "WA",
    "zip": "99218",
    "type": "Big Box"
  },
  "363": {
    "name": "SHREVEPORT LA",
    "city": "Shreveport",
    "state": "LA",
    "zip": "71105",
    "type": "Big Box"
  },
  "364": {
    "name": "CITRUS HEIGHTS CA",
    "city": "Citrus Heights",
    "state": "CA",
    "zip": "95610",
    "type": "Big Box"
  },
  "365": {
    "name": "MACON GA",
    "city": "Macon",
    "state": "GA",
    "zip": "31206",
    "type": "Big Box"
  },
  "366": {
    "name": "PUYALLUP  WA",
    "city": "Puyallup",
    "state": "WA",
    "zip": "98373",
    "type": "Big Box"
  },
  "368": {
    "name": "APPLE GLEN CROSS IN",
    "city": "Fort Wayne",
    "state": "IN",
    "zip": "46804",
    "type": "Big Box"
  },
  "369": {
    "name": "STATE COLLEGE PA",
    "city": "State College",
    "state": "PA",
    "zip": "16803",
    "type": "Big Box"
  },
  "370": {
    "name": "LEES SUMMIT MO",
    "city": "Lees Summit",
    "state": "MO",
    "zip": "64081",
    "type": "Big Box"
  },
  "371": {
    "name": "KOKOMO IN",
    "city": "Kokomo",
    "state": "IN",
    "zip": "46902",
    "type": "Big Box"
  },
  "372": {
    "name": "FEDERAL WAY WA",
    "city": "Federal Way",
    "state": "WA",
    "zip": "98003",
    "type": "Big Box"
  },
  "373": {
    "name": "WEST BANK LA",
    "city": "Harvey",
    "state": "LA",
    "zip": "70058",
    "type": "Big Box"
  },
  "374": {
    "name": "YONKERS NY",
    "city": "Yonkers",
    "state": "NY",
    "zip": "10710",
    "type": "Big Box"
  },
  "375": {
    "name": "SANTA FE NM",
    "city": "Santa Fe",
    "state": "NM",
    "zip": "87507",
    "type": "Big Box"
  },
  "376": {
    "name": "BENTON HARBOR MI",
    "city": "Benton Harbor",
    "state": "MI",
    "zip": "49022",
    "type": "Big Box"
  },
  "377": {
    "name": "PRESCOTT AZ",
    "city": "Prescott",
    "state": "AZ",
    "zip": "86303",
    "type": "Big Box"
  },
  "378": {
    "name": "WILMINGTON NC",
    "city": "Wilmington",
    "state": "NC",
    "zip": "28403",
    "type": "Big Box"
  },
  "379": {
    "name": "WATERLOO IA",
    "city": "Waterloo",
    "state": "IA",
    "zip": "50702",
    "type": "Big Box"
  },
  "380": {
    "name": "SLIDELL LA",
    "city": "Slidell",
    "state": "LA",
    "zip": "70458",
    "type": "Big Box"
  },
  "381": {
    "name": "WEST HARTFORD CT",
    "city": "West Hartford",
    "state": "CT",
    "zip": "06110",
    "type": "Big Box"
  },
  "382": {
    "name": "DENVER WEST CO",
    "city": "Golden",
    "state": "CO",
    "zip": "80401",
    "type": "Big Box"
  },
  "383": {
    "name": "BIRMINGHAM AL",
    "city": "Birmingham",
    "state": "AL",
    "zip": "35242",
    "type": "Big Box"
  },
  "384": {
    "name": "ITHACA NY",
    "city": "Ithaca",
    "state": "NY",
    "zip": "14850",
    "type": "Big Box"
  },
  "385": {
    "name": "PLYMOUTH MA",
    "city": "Plymouth",
    "state": "MA",
    "zip": "02360",
    "type": "Big Box"
  },
  "386": {
    "name": "GREENVILLE NC",
    "city": "Greenville",
    "state": "NC",
    "zip": "27834",
    "type": "Big Box"
  },
  "387": {
    "name": "RANDALL ROAD IL",
    "city": "Geneva",
    "state": "IL",
    "zip": "60134",
    "type": "Big Box"
  },
  "388": {
    "name": "MANALAPAN NJ",
    "city": "Manalapan",
    "state": "NJ",
    "zip": "07726",
    "type": "Big Box"
  },
  "389": {
    "name": "CONYERS GA",
    "city": "Conyers",
    "state": "GA",
    "zip": "30013",
    "type": "Big Box"
  },
  "390": {
    "name": "MANSFIELD OH",
    "city": "Mansfield",
    "state": "OH",
    "zip": "44903",
    "type": "Big Box"
  },
  "391": {
    "name": "TRACY CA",
    "city": "Tracy",
    "state": "CA",
    "zip": "95304",
    "type": "Big Box"
  },
  "392": {
    "name": "MORENO VALLEY CA",
    "city": "Riverside",
    "state": "CA",
    "zip": "92507",
    "type": "Big Box"
  },
  "393": {
    "name": "WEST HOLLYWOOD CA",
    "city": "West Hollywood",
    "state": "CA",
    "zip": "90038",
    "type": "Big Box"
  },
  "395": {
    "name": "PENSACOLA FL",
    "city": "Pensacola",
    "state": "FL",
    "zip": "32504",
    "type": "Big Box"
  },
  "396": {
    "name": "SAN LUIS OBISPO CA",
    "city": "San Luis Obispo",
    "state": "CA",
    "zip": "93405",
    "type": "Big Box"
  },
  "397": {
    "name": "TYSONS CORNER VA",
    "city": "Vienna",
    "state": "VA",
    "zip": "22182",
    "type": "Big Box"
  },
  "398": {
    "name": "SILVERDALE WA",
    "city": "Silverdale",
    "state": "WA",
    "zip": "98383",
    "type": "Big Box"
  },
  "399": {
    "name": "WAUSAU WI",
    "city": "Wausau",
    "state": "WI",
    "zip": "54401",
    "type": "Big Box"
  },
  "400": {
    "name": "HOLMDEL NJ",
    "city": "Holmdel",
    "state": "NJ",
    "zip": "07733",
    "type": "Big Box"
  },
  "401": {
    "name": "SOUTHLAND CENTER MI",
    "city": "Taylor",
    "state": "MI",
    "zip": "48180",
    "type": "Big Box"
  },
  "402": {
    "name": "UTICA MI",
    "city": "Utica",
    "state": "MI",
    "zip": "48315",
    "type": "Big Box"
  },
  "403": {
    "name": "WESTLAND MI",
    "city": "Westland",
    "state": "MI",
    "zip": "48185",
    "type": "Big Box"
  },
  "404": {
    "name": "SOUTHFIELD MI",
    "city": "Southfield",
    "state": "MI",
    "zip": "48034",
    "type": "Big Box"
  },
  "405": {
    "name": "SAGINAW MI",
    "city": "Saginaw",
    "state": "MI",
    "zip": "48603",
    "type": "Big Box"
  },
  "406": {
    "name": "GRAND RAPIDS I MI",
    "city": "Grand Rapids",
    "state": "MI",
    "zip": "49546",
    "type": "Big Box"
  },
  "407": {
    "name": "GRATIOT MI",
    "city": "Roseville",
    "state": "MI",
    "zip": "48066",
    "type": "Big Box"
  },
  "408": {
    "name": "ANN ARBOR MI",
    "city": "Ann Arbor",
    "state": "MI",
    "zip": "48108",
    "type": "Big Box"
  },
  "409": {
    "name": "WALKER MI",
    "city": "Grand Rapids",
    "state": "MI",
    "zip": "49544",
    "type": "Big Box"
  },
  "410": {
    "name": "DEARBORN MI",
    "city": "Dearborn",
    "state": "MI",
    "zip": "48126",
    "type": "Big Box"
  },
  "411": {
    "name": "FLINT MI",
    "city": "Flint",
    "state": "MI",
    "zip": "48507",
    "type": "Big Box"
  },
  "413": {
    "name": "KALAMAZOO MI",
    "city": "Portage",
    "state": "MI",
    "zip": "49002",
    "type": "Big Box"
  },
  "414": {
    "name": "MADISON HGT/TROY MI",
    "city": "Madison Heights",
    "state": "MI",
    "zip": "48071",
    "type": "Big Box"
  },
  "415": {
    "name": "PORT HURON MI",
    "city": "Fort Gratiot",
    "state": "MI",
    "zip": "48059",
    "type": "Big Box"
  },
  "416": {
    "name": "EAST LANSING MI",
    "city": "Okemos",
    "state": "MI",
    "zip": "48864",
    "type": "Big Box"
  },
  "417": {
    "name": "NOVI MI",
    "city": "Novi",
    "state": "MI",
    "zip": "48375",
    "type": "Big Box"
  },
  "418": {
    "name": "HOLYOKE MALL MA",
    "city": "Holyoke",
    "state": "MA",
    "zip": "01040",
    "type": "Big Box"
  },
  "419": {
    "name": "SALEM NH",
    "city": "Salem",
    "state": "NH",
    "zip": "03079",
    "type": "Big Box"
  },
  "420": {
    "name": "VIRGINIA BEACH VA",
    "city": "Virginia Beach",
    "state": "VA",
    "zip": "23462",
    "type": "Big Box"
  },
  "421": {
    "name": "CHESAPEAKE VA",
    "city": "Chesapeake",
    "state": "VA",
    "zip": "23320",
    "type": "Big Box"
  },
  "422": {
    "name": "CHESTERFIELD VA",
    "city": "Richmond",
    "state": "VA",
    "zip": "23235",
    "type": "Big Box"
  },
  "423": {
    "name": "WEST BROAD VA",
    "city": "Glen Allen",
    "state": "VA",
    "zip": "23060",
    "type": "Big Box"
  },
  "424": {
    "name": "GAINESVILLE FL",
    "city": "Gainesville",
    "state": "FL",
    "zip": "32608",
    "type": "Big Box"
  },
  "425": {
    "name": "HICKORY NC",
    "city": "Hickory",
    "state": "NC",
    "zip": "28602",
    "type": "Big Box"
  },
  "426": {
    "name": "MALL OF GEORGIA GA",
    "city": "Buford",
    "state": "GA",
    "zip": "30519",
    "type": "Big Box"
  },
  "427": {
    "name": "FREDERICK MD",
    "city": "Frederick",
    "state": "MD",
    "zip": "21704",
    "type": "Big Box"
  },
  "428": {
    "name": "ALBANY NY",
    "city": "Albany",
    "state": "NY",
    "zip": "12203",
    "type": "Big Box"
  },
  "430": {
    "name": "ORANGE PARK FL",
    "city": "Jacksonville",
    "state": "FL",
    "zip": "32244",
    "type": "Big Box"
  },
  "431": {
    "name": "FORT MYERS FL",
    "city": "Fort Myers",
    "state": "FL",
    "zip": "33907",
    "type": "Big Box"
  },
  "432": {
    "name": "MONROEVILLE PA",
    "city": "Monroeville",
    "state": "PA",
    "zip": "15146",
    "type": "Big Box"
  },
  "433": {
    "name": "HENRIETTA NY",
    "city": "Rochester",
    "state": "NY",
    "zip": "14623",
    "type": "Big Box"
  },
  "434": {
    "name": "ROANOKE VA",
    "city": "Roanoke",
    "state": "VA",
    "zip": "24012",
    "type": "Big Box"
  },
  "435": {
    "name": "TALLAHASSEE FL",
    "city": "Tallahassee",
    "state": "FL",
    "zip": "32301",
    "type": "Big Box"
  },
  "436": {
    "name": "DEDHAM MA",
    "city": "Dedham",
    "state": "MA",
    "zip": "02026",
    "type": "Big Box"
  },
  "437": {
    "name": "OCEANSIDE CA",
    "city": "Oceanside",
    "state": "CA",
    "zip": "92054",
    "type": "Big Box"
  },
  "438": {
    "name": "MISSION VALLEY CA",
    "city": "San Diego",
    "state": "CA",
    "zip": "92108",
    "type": "Big Box"
  },
  "440": {
    "name": "BOWLING GREEN KY",
    "city": "Bowling Green",
    "state": "KY",
    "zip": "42104",
    "type": "Big Box"
  },
  "441": {
    "name": "ATTLEBORO MA",
    "city": "North Attleboro",
    "state": "MA",
    "zip": "02760",
    "type": "Big Box"
  },
  "442": {
    "name": "BAY SHORE NY",
    "city": "Bay Shore",
    "state": "NY",
    "zip": "11706",
    "type": "Big Box"
  },
  "444": {
    "name": "LYNCHBURG VA",
    "city": "Lynchburg",
    "state": "VA",
    "zip": "24502",
    "type": "Big Box"
  },
  "445": {
    "name": "ASHEVILLE NC",
    "city": "Asheville",
    "state": "NC",
    "zip": "28805",
    "type": "Big Box"
  },
  "446": {
    "name": "WALDORF MD",
    "city": "Waldorf",
    "state": "MD",
    "zip": "20603",
    "type": "Big Box"
  },
  "447": {
    "name": "TUKWILA WA",
    "city": "Tukwila",
    "state": "WA",
    "zip": "98188",
    "type": "Big Box"
  },
  "448": {
    "name": "PLYMOUTH MEETING PA",
    "city": "Plymouth Meeting",
    "state": "PA",
    "zip": "19462",
    "type": "Big Box"
  },
  "449": {
    "name": "AUBURN HILLS MI",
    "city": "Auburn Hills",
    "state": "MI",
    "zip": "48326",
    "type": "Big Box"
  },
  "450": {
    "name": "CASCADE STATION OR",
    "city": "Portland",
    "state": "OR",
    "zip": "97220",
    "type": "Big Box"
  },
  "451": {
    "name": "BEAVERTON OR",
    "city": "Beaverton",
    "state": "OR",
    "zip": "97005",
    "type": "Big Box"
  },
  "452": {
    "name": "CLACKAMAS OR",
    "city": "Portland",
    "state": "OR",
    "zip": "97086",
    "type": "Big Box"
  },
  "453": {
    "name": "SALEM OR",
    "city": "Salem",
    "state": "OR",
    "zip": "97301",
    "type": "Big Box"
  },
  "454": {
    "name": "WESTBURY NY",
    "city": "Westbury",
    "state": "NY",
    "zip": "11590",
    "type": "Big Box"
  },
  "455": {
    "name": "WEST NYACK NY",
    "city": "West Nyack",
    "state": "NY",
    "zip": "10994",
    "type": "Big Box"
  },
  "456": {
    "name": "WOODBRIDGE NJ",
    "city": "Iselin",
    "state": "NJ",
    "zip": "08830",
    "type": "Big Box"
  },
  "457": {
    "name": "ROCKAWAY NJ",
    "city": "Rockaway",
    "state": "NJ",
    "zip": "07866",
    "type": "Big Box"
  },
  "458": {
    "name": "STONY BROOK NY",
    "city": "Stony Brook",
    "state": "NY",
    "zip": "11790",
    "type": "Big Box"
  },
  "459": {
    "name": "AMHERST NY",
    "city": "Amherst",
    "state": "NY",
    "zip": "14228",
    "type": "Big Box"
  },
  "460": {
    "name": "POUGHKEEPSIE NY",
    "city": "Poughkeepsie",
    "state": "NY",
    "zip": "12601",
    "type": "Big Box"
  },
  "461": {
    "name": "MIDDLETOWN NY",
    "city": "Middletown",
    "state": "NY",
    "zip": "10941",
    "type": "Big Box"
  },
  "462": {
    "name": "CITRUS PARK FL",
    "city": "Tampa",
    "state": "FL",
    "zip": "33625",
    "type": "Big Box"
  },
  "463": {
    "name": "BANGOR ME",
    "city": "Bangor",
    "state": "ME",
    "zip": "04401",
    "type": "Big Box"
  },
  "464": {
    "name": "RIVERTWN CROSSING MI",
    "city": "Wyoming",
    "state": "MI",
    "zip": "49418",
    "type": "Big Box"
  },
  "465": {
    "name": "CONCORD PIKE DE",
    "city": "Wilmington",
    "state": "DE",
    "zip": "19803",
    "type": "Big Box"
  },
  "467": {
    "name": "LEVITTOWN NY",
    "city": "Levittown",
    "state": "NY",
    "zip": "11756",
    "type": "Big Box"
  },
  "468": {
    "name": "WEST PATERSON NJ",
    "city": "Woodland Park",
    "state": "NJ",
    "zip": "07424",
    "type": "Big Box"
  },
  "469": {
    "name": "STATEN ISLAND NY",
    "city": "Staten Island",
    "state": "NY",
    "zip": "10314",
    "type": "Big Box"
  },
  "470": {
    "name": "NORTHGATE WA",
    "city": "Seattle",
    "state": "WA",
    "zip": "98125",
    "type": "Big Box"
  },
  "471": {
    "name": "MOUNT VERNON NY",
    "city": "Mount Vernon",
    "state": "NY",
    "zip": "10550",
    "type": "Big Box"
  },
  "472": {
    "name": "UNION NJ",
    "city": "Union",
    "state": "NJ",
    "zip": "07083",
    "type": "Big Box"
  },
  "473": {
    "name": "EAST HANOVER NJ",
    "city": "East Hanover",
    "state": "NJ",
    "zip": "07936",
    "type": "Big Box"
  },
  "474": {
    "name": "SECAUCUS NJ",
    "city": "Secaucus",
    "state": "NJ",
    "zip": "07094",
    "type": "Big Box"
  },
  "475": {
    "name": "BRICK NJ",
    "city": "Brick",
    "state": "NJ",
    "zip": "08723",
    "type": "Big Box"
  },
  "476": {
    "name": "JACKSON MI",
    "city": "Jackson",
    "state": "MI",
    "zip": "49202",
    "type": "Big Box"
  },
  "477": {
    "name": "LYNNWOOD WA",
    "city": "Lynnwood",
    "state": "WA",
    "zip": "98036",
    "type": "Big Box"
  },
  "478": {
    "name": "LONG ISLAND CITY NY",
    "city": "Long Island City",
    "state": "NY",
    "zip": "11101",
    "type": "Big Box"
  },
  "479": {
    "name": "NEWPORT NEWS VA",
    "city": "Newport News",
    "state": "VA",
    "zip": "23602",
    "type": "Big Box"
  },
  "480": {
    "name": "MUSKEGON MI",
    "city": "Muskegon",
    "state": "MI",
    "zip": "49444",
    "type": "Big Box"
  },
  "482": {
    "name": "23RD AND 6TH  NY",
    "city": "New York",
    "state": "NY",
    "zip": "10010",
    "type": "Big Box"
  },
  "483": {
    "name": "REGO PARK NY",
    "city": "Rego Park",
    "state": "NY",
    "zip": "11374",
    "type": "Big Box"
  },
  "484": {
    "name": "MANCHESTER CT",
    "city": "Manchester",
    "state": "CT",
    "zip": "06042",
    "type": "Big Box"
  },
  "485": {
    "name": "GOODYEAR AZ",
    "city": "Goodyear",
    "state": "AZ",
    "zip": "85395",
    "type": "Big Box"
  },
  "487": {
    "name": "NEWINGTON CT",
    "city": "Newington",
    "state": "CT",
    "zip": "06111",
    "type": "Big Box"
  },
  "488": {
    "name": "CHATTANOOGA TN",
    "city": "Chattanooga",
    "state": "TN",
    "zip": "37421",
    "type": "Big Box"
  },
  "489": {
    "name": "AVON IN",
    "city": "Avon",
    "state": "IN",
    "zip": "46123",
    "type": "Big Box"
  },
  "490": {
    "name": "WESTFIELD IN",
    "city": "Carmel",
    "state": "IN",
    "zip": "46032",
    "type": "Big Box"
  },
  "491": {
    "name": "MUNCIE IN",
    "city": "Muncie",
    "state": "IN",
    "zip": "47304",
    "type": "Big Box"
  },
  "493": {
    "name": "POTOMAC YARD VA",
    "city": "Alexandria",
    "state": "VA",
    "zip": "22305",
    "type": "Big Box"
  },
  "494": {
    "name": "FIELDS ERTEL OH",
    "city": "Cincinnati",
    "state": "OH",
    "zip": "45249",
    "type": "Big Box"
  },
  "495": {
    "name": "BATON ROUGE LA",
    "city": "Baton Rouge",
    "state": "LA",
    "zip": "70836",
    "type": "Big Box"
  },
  "496": {
    "name": "RIVERDALE UT",
    "city": "Ogden",
    "state": "UT",
    "zip": "84405",
    "type": "Big Box"
  },
  "497": {
    "name": "SANDY UT",
    "city": "Sandy",
    "state": "UT",
    "zip": "84070",
    "type": "Big Box"
  },
  "498": {
    "name": "BELLEVUE WA",
    "city": "Bellevue",
    "state": "WA",
    "zip": "98005",
    "type": "Big Box"
  },
  "499": {
    "name": "EMERYVILLE CA",
    "city": "Oakland",
    "state": "CA",
    "zip": "94608",
    "type": "Big Box"
  },
  "500": {
    "name": "TRAVERSE CITY MI",
    "city": "Traverse City",
    "state": "MI",
    "zip": "49684",
    "type": "Big Box"
  },
  "501": {
    "name": "KENNESAW GA",
    "city": "Kennesaw",
    "state": "GA",
    "zip": "30144",
    "type": "Big Box"
  },
  "502": {
    "name": "SMYRNA GA",
    "city": "Smyrna",
    "state": "GA",
    "zip": "30080",
    "type": "Big Box"
  },
  "503": {
    "name": "PERIMETER GA",
    "city": "Dunwoody",
    "state": "GA",
    "zip": "30346",
    "type": "Big Box"
  },
  "504": {
    "name": "GWINNETT GA",
    "city": "Duluth",
    "state": "GA",
    "zip": "30096",
    "type": "Big Box"
  },
  "505": {
    "name": "SOUTHLAKE GA",
    "city": "Morrow",
    "state": "GA",
    "zip": "30260",
    "type": "Big Box"
  },
  "507": {
    "name": "AUGUSTA GA",
    "city": "Augusta",
    "state": "GA",
    "zip": "30909",
    "type": "Big Box"
  },
  "508": {
    "name": "SAVANNAH GA",
    "city": "Savannah",
    "state": "GA",
    "zip": "31406",
    "type": "Big Box"
  },
  "509": {
    "name": "ALTAMONTE SPRINGS FL",
    "city": "Altamonte Springs",
    "state": "FL",
    "zip": "32714",
    "type": "Big Box"
  },
  "510": {
    "name": "FLORIDA MALL FL",
    "city": "Orlando",
    "state": "FL",
    "zip": "32809",
    "type": "Big Box"
  },
  "511": {
    "name": "ATHENS GA",
    "city": "Athens",
    "state": "GA",
    "zip": "30606",
    "type": "Big Box"
  },
  "512": {
    "name": "MELBOURNE FL",
    "city": "Melbourne",
    "state": "FL",
    "zip": "32904",
    "type": "Big Box"
  },
  "513": {
    "name": "NORTHLAKE GA",
    "city": "Tucker",
    "state": "GA",
    "zip": "30084",
    "type": "Big Box"
  },
  "514": {
    "name": "HUNTSVILLE AL",
    "city": "Huntsville",
    "state": "AL",
    "zip": "35806",
    "type": "Big Box"
  },
  "515": {
    "name": "DAYTONA BEACH FL",
    "city": "Daytona Beach",
    "state": "FL",
    "zip": "32114",
    "type": "Big Box"
  },
  "516": {
    "name": "ALPHARETTA GA",
    "city": "Alpharetta",
    "state": "GA",
    "zip": "30022",
    "type": "Big Box"
  },
  "517": {
    "name": "CHARLESTON SC",
    "city": "North Charleston",
    "state": "SC",
    "zip": "29406",
    "type": "Big Box"
  },
  "519": {
    "name": "DOUGLASVILLE GA",
    "city": "Douglasville",
    "state": "GA",
    "zip": "30135",
    "type": "Big Box"
  },
  "520": {
    "name": "ANDERSON SC",
    "city": "Anderson",
    "state": "SC",
    "zip": "29621",
    "type": "Big Box"
  },
  "522": {
    "name": "BAXTER MN",
    "city": "Baxter",
    "state": "MN",
    "zip": "56425",
    "type": "Big Box"
  },
  "523": {
    "name": "CAPE GIRARDEAU MO",
    "city": "Cape Girardeau",
    "state": "MO",
    "zip": "63703",
    "type": "Big Box"
  },
  "524": {
    "name": "NAPLES FL",
    "city": "Naples",
    "state": "FL",
    "zip": "34109",
    "type": "Big Box"
  },
  "525": {
    "name": "MONTGOMERYVILLE  PA",
    "city": "North Wales",
    "state": "PA",
    "zip": "19454",
    "type": "Big Box"
  },
  "526": {
    "name": "BOISE ID",
    "city": "Boise",
    "state": "ID",
    "zip": "83709",
    "type": "Big Box"
  },
  "527": {
    "name": "S SALT LAKE CITY UT",
    "city": "Salt Lake City",
    "state": "UT",
    "zip": "84115",
    "type": "Big Box"
  },
  "528": {
    "name": "STOCKTON CA",
    "city": "Stockton",
    "state": "CA",
    "zip": "95207",
    "type": "Big Box"
  },
  "529": {
    "name": "VISALIA CA",
    "city": "Visalia",
    "state": "CA",
    "zip": "93277",
    "type": "Big Box"
  },
  "530": {
    "name": "BRAINTREE MA",
    "city": "Braintree",
    "state": "MA",
    "zip": "02184",
    "type": "Big Box"
  },
  "531": {
    "name": "PORTLAND ME",
    "city": "South Portland",
    "state": "ME",
    "zip": "04106",
    "type": "Big Box"
  },
  "532": {
    "name": "FRAMINGHAM MA",
    "city": "Framingham",
    "state": "MA",
    "zip": "01701",
    "type": "Big Box"
  },
  "533": {
    "name": "DANVERS MA",
    "city": "Danvers",
    "state": "MA",
    "zip": "01923",
    "type": "Big Box"
  },
  "534": {
    "name": "NASHUA NH",
    "city": "Nashua",
    "state": "NH",
    "zip": "03060",
    "type": "Big Box"
  },
  "535": {
    "name": "PORTSMOUTH NH",
    "city": "Newington",
    "state": "NH",
    "zip": "03801",
    "type": "Big Box"
  },
  "536": {
    "name": "MANCHESTER NH",
    "city": "Manchester",
    "state": "NH",
    "zip": "03103",
    "type": "Big Box"
  },
  "539": {
    "name": "ANCHORAGE AK",
    "city": "Anchorage",
    "state": "AK",
    "zip": "99515",
    "type": "Big Box"
  },
  "540": {
    "name": "COON RAPIDS MN",
    "city": "Coon Rapids",
    "state": "MN",
    "zip": "55448",
    "type": "Big Box"
  },
  "541": {
    "name": "SARATOGA SPRINGS NY",
    "city": "Saratoga Springs",
    "state": "NY",
    "zip": "12866",
    "type": "Big Box"
  },
  "542": {
    "name": "SUMMERLIN NV",
    "city": "Las Vegas",
    "state": "NV",
    "zip": "89135",
    "type": "Big Box"
  },
  "543": {
    "name": "FORT LAUDERDALE FL",
    "city": "Fort Lauderdale",
    "state": "FL",
    "zip": "33305",
    "type": "Big Box"
  },
  "544": {
    "name": "BRIDGEWATER NJ",
    "city": "Bridgewater",
    "state": "NJ",
    "zip": "08807",
    "type": "Big Box"
  },
  "545": {
    "name": "NEW HARTFORD NY",
    "city": "New Hartford",
    "state": "NY",
    "zip": "13413",
    "type": "Big Box"
  },
  "547": {
    "name": "HARRISBURG EAST PA",
    "city": "Harrisburg",
    "state": "PA",
    "zip": "17112",
    "type": "Big Box"
  },
  "549": {
    "name": "WATERFORD CT",
    "city": "Waterford",
    "state": "CT",
    "zip": "06385",
    "type": "Big Box"
  },
  "550": {
    "name": "WEST PALM BEACH FL",
    "city": "West Palm Beach",
    "state": "FL",
    "zip": "33401",
    "type": "Big Box"
  },
  "551": {
    "name": "SAWGRASS FL",
    "city": "Plantation",
    "state": "FL",
    "zip": "33323",
    "type": "Big Box"
  },
  "552": {
    "name": "WEST KENDALL FL",
    "city": "Miami",
    "state": "FL",
    "zip": "33186",
    "type": "Big Box"
  },
  "553": {
    "name": "TROPICAIRE FL",
    "city": "Miami",
    "state": "FL",
    "zip": "33155",
    "type": "Big Box"
  },
  "554": {
    "name": "BOCA RATON FL",
    "city": "Boca Raton",
    "state": "FL",
    "zip": "33498",
    "type": "Big Box"
  },
  "555": {
    "name": "HIALEAH FL",
    "city": "Hialeah",
    "state": "FL",
    "zip": "33012",
    "type": "Big Box"
  },
  "557": {
    "name": "DADELAND FL",
    "city": "Miami",
    "state": "FL",
    "zip": "33143",
    "type": "Big Box"
  },
  "558": {
    "name": "AVENTURA FL",
    "city": "Aventura",
    "state": "FL",
    "zip": "33180",
    "type": "Big Box"
  },
  "559": {
    "name": "PEMBROKE PINES FL",
    "city": "Pembroke Pines",
    "state": "FL",
    "zip": "33026",
    "type": "Big Box"
  },
  "560": {
    "name": "BRANDON FL",
    "city": "Brandon",
    "state": "FL",
    "zip": "33510",
    "type": "Big Box"
  },
  "561": {
    "name": "SOUTH TAMPA FL",
    "city": "Tampa",
    "state": "FL",
    "zip": "33607",
    "type": "Big Box"
  },
  "562": {
    "name": "SARASOTA FL",
    "city": "Sarasota",
    "state": "FL",
    "zip": "34231",
    "type": "Big Box"
  },
  "563": {
    "name": "LAKELAND FL",
    "city": "Lakeland",
    "state": "FL",
    "zip": "33809",
    "type": "Big Box"
  },
  "564": {
    "name": "CLEARWATER FL",
    "city": "Clearwater",
    "state": "FL",
    "zip": "33765",
    "type": "Big Box"
  },
  "565": {
    "name": "ST PETERSBURG FL",
    "city": "Saint Petersburg",
    "state": "FL",
    "zip": "33710",
    "type": "Big Box"
  },
  "566": {
    "name": "EVERETT WA",
    "city": "Everett",
    "state": "WA",
    "zip": "98208",
    "type": "Big Box"
  },
  "568": {
    "name": "CAPE COD MA",
    "city": "Hyannis",
    "state": "MA",
    "zip": "02601",
    "type": "Big Box"
  },
  "569": {
    "name": "WARWICK RI",
    "city": "Warwick",
    "state": "RI",
    "zip": "02886",
    "type": "Big Box"
  },
  "570": {
    "name": "POLARIS OH",
    "city": "Columbus",
    "state": "OH",
    "zip": "43240",
    "type": "Big Box"
  },
  "571": {
    "name": "WATERFORD LAKES FL",
    "city": "Orlando",
    "state": "FL",
    "zip": "32828",
    "type": "Big Box"
  },
  "572": {
    "name": "VETERANS BLVD LA",
    "city": "Metairie",
    "state": "LA",
    "zip": "70003",
    "type": "Big Box"
  },
  "573": {
    "name": "HUNTINGTON WV",
    "city": "Barboursville",
    "state": "WV",
    "zip": "25504",
    "type": "Big Box"
  },
  "574": {
    "name": "GARNER NC",
    "city": "Garner",
    "state": "NC",
    "zip": "27529",
    "type": "Big Box"
  },
  "576": {
    "name": "WILLOW GROVE PA",
    "city": "Willow Grove",
    "state": "PA",
    "zip": "19090",
    "type": "Big Box"
  },
  "577": {
    "name": "OXFORD VALLEY PA",
    "city": "Fairless Hills",
    "state": "PA",
    "zip": "19030",
    "type": "Big Box"
  },
  "578": {
    "name": "PRINCETON NJ",
    "city": "Princeton",
    "state": "NJ",
    "zip": "08540",
    "type": "Big Box"
  },
  "579": {
    "name": "DEPTFORD NJ",
    "city": "Deptford",
    "state": "NJ",
    "zip": "08096",
    "type": "Big Box"
  },
  "580": {
    "name": "READING PA",
    "city": "Wyomissing",
    "state": "PA",
    "zip": "19610",
    "type": "Big Box"
  },
  "581": {
    "name": "MAYS LANDING NJ",
    "city": "Mays Landing",
    "state": "NJ",
    "zip": "08330",
    "type": "Big Box"
  },
  "582": {
    "name": "SPRINGFIELD PA",
    "city": "Springfield",
    "state": "PA",
    "zip": "19064",
    "type": "Big Box"
  },
  "583": {
    "name": "MOUNT LAUREL NJ",
    "city": "Mount Laurel",
    "state": "NJ",
    "zip": "08054",
    "type": "Big Box"
  },
  "584": {
    "name": "NORTH FAYETTE PA",
    "city": "Pittsburgh",
    "state": "PA",
    "zip": "15275",
    "type": "Big Box"
  },
  "585": {
    "name": "NORTH HILLS PA",
    "city": "Pittsburgh",
    "state": "PA",
    "zip": "15237",
    "type": "Big Box"
  },
  "586": {
    "name": "SOUTH HILLS PA",
    "city": "Bethel Park",
    "state": "PA",
    "zip": "15102",
    "type": "Big Box"
  },
  "587": {
    "name": "WHITEHALL PA",
    "city": "Whitehall",
    "state": "PA",
    "zip": "18052",
    "type": "Big Box"
  },
  "588": {
    "name": "CENTURY III PA",
    "city": "Pittsburgh",
    "state": "PA",
    "zip": "15236",
    "type": "Big Box"
  },
  "589": {
    "name": "NE PHILADELPHIA PA",
    "city": "Philadelphia",
    "state": "PA",
    "zip": "19114",
    "type": "Big Box"
  },
  "590": {
    "name": "KENNEWICK WA",
    "city": "Kennewick",
    "state": "WA",
    "zip": "99336",
    "type": "Big Box"
  },
  "591": {
    "name": "CONCORD NH",
    "city": "Concord",
    "state": "NH",
    "zip": "03301",
    "type": "Big Box"
  },
  "592": {
    "name": "BILLINGS MT",
    "city": "Billings",
    "state": "MT",
    "zip": "59102",
    "type": "Big Box"
  },
  "593": {
    "name": "MISSOULA MT",
    "city": "Missoula",
    "state": "MT",
    "zip": "59808",
    "type": "Big Box"
  },
  "594": {
    "name": "LONGVIEW TX",
    "city": "Longview",
    "state": "TX",
    "zip": "75605",
    "type": "Big Box"
  },
  "595": {
    "name": "GREENSBURG PA",
    "city": "Greensburg",
    "state": "PA",
    "zip": "15601",
    "type": "Big Box"
  },
  "596": {
    "name": "WATERTOWN MA",
    "city": "Watertown",
    "state": "MA",
    "zip": "02472",
    "type": "Big Box"
  },
  "597": {
    "name": "ERIE PA",
    "city": "Erie",
    "state": "PA",
    "zip": "16509",
    "type": "Big Box"
  },
  "598": {
    "name": "EAST BRUNSWICK NJ",
    "city": "East Brunswick",
    "state": "NJ",
    "zip": "08816",
    "type": "Big Box"
  },
  "599": {
    "name": "BAY PKWY BROOKLYN NY",
    "city": "Brooklyn",
    "state": "NY",
    "zip": "11214",
    "type": "Big Box"
  },
  "600": {
    "name": "SPRINGFIELD OR",
    "city": "Springfield",
    "state": "OR",
    "zip": "97477",
    "type": "Big Box"
  },
  "601": {
    "name": "ABERDEEN NC",
    "city": "Aberdeen",
    "state": "NC",
    "zip": "28315",
    "type": "Big Box"
  },
  "602": {
    "name": "COLUMBIA MO",
    "city": "Columbia",
    "state": "MO",
    "zip": "65203",
    "type": "Big Box"
  },
  "603": {
    "name": "VICTORIA TX",
    "city": "Victoria",
    "state": "TX",
    "zip": "77904",
    "type": "Big Box"
  },
  "605": {
    "name": "TEXARKANA TX",
    "city": "Texarkana",
    "state": "TX",
    "zip": "75503",
    "type": "Big Box"
  },
  "606": {
    "name": "FORSYTH IL",
    "city": "Forsyth",
    "state": "IL",
    "zip": "62535",
    "type": "Big Box"
  },
  "607": {
    "name": "SOUTH ELGIN IL",
    "city": "South Elgin",
    "state": "IL",
    "zip": "60177",
    "type": "Big Box"
  },
  "608": {
    "name": "SANFORD FL",
    "city": "Sanford",
    "state": "FL",
    "zip": "32771",
    "type": "Big Box"
  },
  "610": {
    "name": "SVC",
    "city": "Bolingbrook",
    "state": "IL",
    "zip": "60490",
    "type": "Repair Depot"
  },
  "611": {
    "name": "EDEN PRAIRIE MN",
    "city": "Eden Prairie",
    "state": "MN",
    "zip": "55344",
    "type": "Big Box"
  },
  "612": {
    "name": "COVINGTON LA",
    "city": "Covington",
    "state": "LA",
    "zip": "70433",
    "type": "Big Box"
  },
  "615": {
    "name": "NEW YORK SERVICE",
    "city": "Piscataway",
    "state": "NJ",
    "zip": "08854",
    "type": "Repair Depot"
  },
  "617": {
    "name": "FAIRFIELD TWNSHP OH",
    "city": "Hamilton",
    "state": "OH",
    "zip": "45011",
    "type": "Big Box"
  },
  "618": {
    "name": "SVC",
    "city": "Buford",
    "state": "GA",
    "zip": "30518",
    "type": "Repair Depot"
  },
  "622": {
    "name": "SVC",
    "city": "Curtis Bay",
    "state": "MD",
    "zip": "21226",
    "type": "Repair Depot"
  },
  "623": {
    "name": "SVC",
    "city": "Richfield",
    "state": "OH",
    "zip": "44286",
    "type": "Repair Depot"
  },
  "624": {
    "name": "SVC",
    "city": "Ontario",
    "state": "CA",
    "zip": "91764",
    "type": "Repair Depot"
  },
  "627": {
    "name": "SAN FRANCISCO SVC",
    "city": "Tracy",
    "state": "CA",
    "zip": "95377",
    "type": "Repair Depot"
  },
  "628": {
    "name": "SVC",
    "city": "Miami",
    "state": "FL",
    "zip": "33178",
    "type": "Repair Depot"
  },
  "629": {
    "name": "SVC",
    "city": "Bellingham",
    "state": "MA",
    "zip": "02019",
    "type": "Repair Depot"
  },
  "630": {
    "name": "SEATTLE SERVICE",
    "city": "Spanaway",
    "state": "WA",
    "zip": "98387",
    "type": "Repair Depot"
  },
  "646": {
    "name": "QUAIL SPRINGS OK",
    "city": "Oklahoma City",
    "state": "OK",
    "zip": "73134",
    "type": "Big Box"
  },
  "648": {
    "name": "BURLINGTON NC",
    "city": "Burlington",
    "state": "NC",
    "zip": "27215",
    "type": "Big Box"
  },
  "649": {
    "name": "SIMI VALLEY CA",
    "city": "Simi Valley",
    "state": "CA",
    "zip": "93065",
    "type": "Big Box"
  },
  "654": {
    "name": "FOX POINT WI",
    "city": "Fox Point",
    "state": "WI",
    "zip": "53217",
    "type": "Big Box"
  },
  "655": {
    "name": "COEUR D ALENE ID",
    "city": "Coeur D Alene",
    "state": "ID",
    "zip": "83815",
    "type": "Big Box"
  },
  "660": {
    "name": "NATOMAS CA",
    "city": "Sacramento",
    "state": "CA",
    "zip": "95834",
    "type": "Big Box"
  },
  "661": {
    "name": "HATTIESBURG MS",
    "city": "Hattiesburg",
    "state": "MS",
    "zip": "39402",
    "type": "Big Box"
  },
  "662": {
    "name": "AUBURN AL",
    "city": "Opelika",
    "state": "AL",
    "zip": "36801",
    "type": "Big Box"
  },
  "663": {
    "name": "CLARKSVILLE TN",
    "city": "Clarksville",
    "state": "TN",
    "zip": "37040",
    "type": "Big Box"
  },
  "664": {
    "name": "BLUFFTON SC",
    "city": "Bluffton",
    "state": "SC",
    "zip": "29910",
    "type": "Big Box"
  },
  "665": {
    "name": "BURLESON TX",
    "city": "Burleson",
    "state": "TX",
    "zip": "76028",
    "type": "Big Box"
  },
  "667": {
    "name": "DELAFIELD WI",
    "city": "Delafield",
    "state": "WI",
    "zip": "53018",
    "type": "Big Box"
  },
  "668": {
    "name": "MCDONOUGH GA",
    "city": "McDonough",
    "state": "GA",
    "zip": "30253",
    "type": "Big Box"
  },
  "678": {
    "name": "SPANISH FORT AL",
    "city": "Spanish Fort",
    "state": "AL",
    "zip": "36527",
    "type": "Big Box"
  },
  "685": {
    "name": "EL CAMINO REAL CA",
    "city": "Mountain View",
    "state": "CA",
    "zip": "94040",
    "type": "Big Box"
  },
  "688": {
    "name": "NORTH PALM BEACH FL",
    "city": "Palm Beach Gardens",
    "state": "FL",
    "zip": "33410",
    "type": "Big Box"
  },
  "691": {
    "name": "GEORGETOWN TX",
    "city": "Georgetown",
    "state": "TX",
    "zip": "78628",
    "type": "Big Box"
  },
  "692": {
    "name": "VINELAND NJ",
    "city": "Vineland",
    "state": "NJ",
    "zip": "08360",
    "type": "Big Box"
  },
  "693": {
    "name": "LOVELAND CO",
    "city": "Loveland",
    "state": "CO",
    "zip": "80538",
    "type": "Big Box"
  },
  "710": {
    "name": "DDC-CHICAGO",
    "city": "Bolingbrook",
    "state": "IL",
    "zip": "60490",
    "type": null
  },
  "715": {
    "name": "DDC-NEW YORK",
    "city": "Piscataway",
    "state": "NJ",
    "zip": "08854",
    "type": null
  },
  "718": {
    "name": "DDC-ATLANTA",
    "city": "Buford",
    "state": "GA",
    "zip": "30518",
    "type": null
  },
  "722": {
    "name": "DDC-BALTIMORE",
    "city": "Curtis Bay",
    "state": "MD",
    "zip": "21226",
    "type": null
  },
  "723": {
    "name": "DDC-CLEVELAND",
    "city": "Richfield",
    "state": "OH",
    "zip": "44286",
    "type": null
  },
  "724": {
    "name": "DDC-ONTARIO",
    "city": "Ontario",
    "state": "CA",
    "zip": "91764",
    "type": null
  },
  "726": {
    "name": "DDC-BOSTON",
    "city": "Bellingham",
    "state": "MA",
    "zip": "02019",
    "type": null
  },
  "728": {
    "name": "DDC-ORLANDO",
    "city": "Polk City",
    "state": "FL",
    "zip": "33868",
    "type": null
  },
  "729": {
    "name": "DDC-SAN FRANCISCO",
    "city": "Tracy",
    "state": "CA",
    "zip": "95377",
    "type": null
  },
  "734": {
    "name": "DDC-SEATTLE",
    "city": "Spanaway",
    "state": "WA",
    "zip": "98387",
    "type": null
  },
  "757": {
    "name": "MENOMONEE FALLS WI",
    "city": "Menomonee Falls",
    "state": "WI",
    "zip": "53051",
    "type": "Big Box"
  },
  "758": {
    "name": "MACEDONIA OH",
    "city": "Macedonia",
    "state": "OH",
    "zip": "44056",
    "type": "Big Box"
  },
  "762": {
    "name": "TULSA MIDTOWN OK",
    "city": "Tulsa",
    "state": "OK",
    "zip": "74135",
    "type": "Big Box"
  },
  "763": {
    "name": "HONOLULU HI",
    "city": "Honolulu",
    "state": "HI",
    "zip": "96817",
    "type": "Big Box"
  },
  "764": {
    "name": "SHERMAN OAKS CA",
    "city": "Sherman Oaks",
    "state": "CA",
    "zip": "91403",
    "type": "Big Box"
  },
  "766": {
    "name": "CHESAPEAKE SQUARE VA",
    "city": "Chesapeake",
    "state": "VA",
    "zip": "23321",
    "type": "Big Box"
  },
  "767": {
    "name": "COCONUT POINT FL",
    "city": "Estero",
    "state": "FL",
    "zip": "33928",
    "type": "Big Box"
  },
  "768": {
    "name": "LIBERTY MO",
    "city": "Kansas City",
    "state": "MO",
    "zip": "64157",
    "type": "Big Box"
  },
  "772": {
    "name": "SALISBURY MD",
    "city": "Salisbury",
    "state": "MD",
    "zip": "21804",
    "type": "Big Box"
  },
  "773": {
    "name": "OREM UT",
    "city": "Orem",
    "state": "UT",
    "zip": "84058",
    "type": "Big Box"
  },
  "774": {
    "name": "TUSTIN CA",
    "city": "Tustin",
    "state": "CA",
    "zip": "92782",
    "type": "Big Box"
  },
  "775": {
    "name": "EASTVALE CA",
    "city": "Eastvale",
    "state": "CA",
    "zip": "91752",
    "type": "Big Box"
  },
  "776": {
    "name": "SNELLVILLE GA",
    "city": "Snellville",
    "state": "GA",
    "zip": "30078",
    "type": "Big Box"
  },
  "778": {
    "name": "TUPELO MS",
    "city": "Tupelo",
    "state": "MS",
    "zip": "38804",
    "type": "Big Box"
  },
  "787": {
    "name": "SURPRISE AZ",
    "city": "Surprise",
    "state": "AZ",
    "zip": "85374",
    "type": "Big Box"
  },
  "788": {
    "name": "COLONIAL HEIGHTS VA",
    "city": "Colonial Heights",
    "state": "VA",
    "zip": "23834",
    "type": "Big Box"
  },
  "789": {
    "name": "VALDOSTA GA",
    "city": "Valdosta",
    "state": "GA",
    "zip": "31601",
    "type": "Big Box"
  },
  "790": {
    "name": "SPRINGFIELD OH",
    "city": "Springfield",
    "state": "OH",
    "zip": "45504",
    "type": "Big Box"
  },
  "791": {
    "name": "ELIZABETHTOWN KY",
    "city": "Elizabethtown",
    "state": "KY",
    "zip": "42701",
    "type": "Big Box"
  },
  "792": {
    "name": "SIOUX CITY IA",
    "city": "Sioux City",
    "state": "IA",
    "zip": "51106",
    "type": "Big Box"
  },
  "793": {
    "name": "DOTHAN AL",
    "city": "Dothan",
    "state": "AL",
    "zip": "36303",
    "type": "Big Box"
  },
  "795": {
    "name": "FINDLAY OH",
    "city": "Findlay",
    "state": "OH",
    "zip": "45840",
    "type": "Big Box"
  },
  "796": {
    "name": "JORDAN CREEK IA",
    "city": "West Des Moines",
    "state": "IA",
    "zip": "50266",
    "type": "Big Box"
  },
  "797": {
    "name": "SOQUEL CA",
    "city": "Soquel",
    "state": "CA",
    "zip": "95073",
    "type": "Big Box"
  },
  "798": {
    "name": "BURLINGTON WA",
    "city": "Burlington",
    "state": "WA",
    "zip": "98233",
    "type": "Big Box"
  },
  "799": {
    "name": "DESTIN FL",
    "city": "Destin",
    "state": "FL",
    "zip": "32541",
    "type": "Big Box"
  },
  "802": {
    "name": "LAS CRUCES NM",
    "city": "Las Cruces",
    "state": "NM",
    "zip": "88001",
    "type": "Big Box"
  },
  "803": {
    "name": "LANSING MI",
    "city": "Lansing",
    "state": "MI",
    "zip": "48917",
    "type": "Big Box"
  },
  "805": {
    "name": "JACKSONVILLE NC",
    "city": "Jacksonville",
    "state": "NC",
    "zip": "28546",
    "type": "Big Box"
  },
  "806": {
    "name": "SEEKONK MA",
    "city": "Seekonk",
    "state": "MA",
    "zip": "02771",
    "type": "Big Box"
  },
  "807": {
    "name": "HOOVER AL",
    "city": "Hoover",
    "state": "AL",
    "zip": "35244",
    "type": "Big Box"
  },
  "808": {
    "name": "BOYNTON BEACH FL",
    "city": "Boynton Beach",
    "state": "FL",
    "zip": "33426",
    "type": "Big Box"
  },
  "809": {
    "name": "RIVERHEAD NY",
    "city": "Riverhead",
    "state": "NY",
    "zip": "11901",
    "type": "Big Box"
  },
  "812": {
    "name": "AMES IA",
    "city": "Ames",
    "state": "IA",
    "zip": "50010",
    "type": "Big Box"
  },
  "813": {
    "name": "BOLINGBROOK IL",
    "city": "Bolingbrook",
    "state": "IL",
    "zip": "60490",
    "type": "Big Box"
  },
  "814": {
    "name": "BUCKTOWN IL",
    "city": "Chicago",
    "state": "IL",
    "zip": "60614",
    "type": "Big Box"
  },
  "816": {
    "name": "VERO BEACH FL",
    "city": "Vero Beach",
    "state": "FL",
    "zip": "32966",
    "type": "Big Box"
  },
  "817": {
    "name": "PADUCAH KY",
    "city": "Paducah",
    "state": "KY",
    "zip": "42001",
    "type": "Big Box"
  },
  "818": {
    "name": "SAUGUS MA",
    "city": "Saugus",
    "state": "MA",
    "zip": "01906",
    "type": "Big Box"
  },
  "819": {
    "name": "GERMANTOWN MD",
    "city": "Germantown",
    "state": "MD",
    "zip": "20876",
    "type": "Big Box"
  },
  "820": {
    "name": "MARLBOROUGH MA",
    "city": "Marlborough",
    "state": "MA",
    "zip": "01752",
    "type": "Big Box"
  },
  "821": {
    "name": "RALEIGH NC",
    "city": "Raleigh",
    "state": "NC",
    "zip": "27616",
    "type": "Big Box"
  },
  "824": {
    "name": "PATCHOGUE NY",
    "city": "Patchogue",
    "state": "NY",
    "zip": "11772",
    "type": "Big Box"
  },
  "825": {
    "name": "CRANBERRY PA",
    "city": "Cranberry Township",
    "state": "PA",
    "zip": "16066",
    "type": "Big Box"
  },
  "826": {
    "name": "FLORENCE SC",
    "city": "Florence",
    "state": "SC",
    "zip": "29501",
    "type": "Big Box"
  },
  "827": {
    "name": "DENTON TX",
    "city": "Denton",
    "state": "TX",
    "zip": "76205",
    "type": "Big Box"
  },
  "828": {
    "name": "SAN MARCOS TX",
    "city": "San Marcos",
    "state": "TX",
    "zip": "78666",
    "type": "Big Box"
  },
  "829": {
    "name": "WEST EL PASO TX",
    "city": "El Paso",
    "state": "TX",
    "zip": "79912",
    "type": "Big Box"
  },
  "830": {
    "name": "TACOMA WA",
    "city": "Tacoma",
    "state": "WA",
    "zip": "98409",
    "type": "Big Box"
  },
  "831": {
    "name": "YAKIMA WA",
    "city": "Yakima",
    "state": "WA",
    "zip": "98903",
    "type": "Big Box"
  },
  "832": {
    "name": "MORGANTOWN WV",
    "city": "Morgantown",
    "state": "WV",
    "zip": "26501",
    "type": "Big Box"
  },
  "833": {
    "name": "BRENTWOOD MO",
    "city": "Saint Louis",
    "state": "MO",
    "zip": "63144",
    "type": "Big Box"
  },
  "834": {
    "name": "NILES OH",
    "city": "Niles",
    "state": "OH",
    "zip": "44446",
    "type": "Big Box"
  },
  "835": {
    "name": "86TH AND LEXINGTN NY",
    "city": "New York",
    "state": "NY",
    "zip": "10028",
    "type": "Big Box"
  },
  "836": {
    "name": "MONTGOMERY AL",
    "city": "Montgomery",
    "state": "AL",
    "zip": "36117",
    "type": "Big Box"
  },
  "837": {
    "name": "LAWRENCE KS",
    "city": "Lawrence",
    "state": "KS",
    "zip": "66046",
    "type": "Big Box"
  },
  "838": {
    "name": "REDDING CA",
    "city": "Redding",
    "state": "CA",
    "zip": "96003",
    "type": "Big Box"
  },
  "839": {
    "name": "OLYMPIA WA",
    "city": "Olympia",
    "state": "WA",
    "zip": "98502",
    "type": "Big Box"
  },
  "840": {
    "name": "BATTLE CREEK MI",
    "city": "Battle Creek",
    "state": "MI",
    "zip": "49014",
    "type": "Big Box"
  },
  "841": {
    "name": "BRIGHTON MI",
    "city": "Brighton",
    "state": "MI",
    "zip": "48116",
    "type": "Big Box"
  },
  "842": {
    "name": "DOVER DE",
    "city": "Dover",
    "state": "DE",
    "zip": "19901",
    "type": "Big Box"
  },
  "843": {
    "name": "COLUMBUS GA",
    "city": "Columbus",
    "state": "GA",
    "zip": "31909",
    "type": "Big Box"
  },
  "845": {
    "name": "FOLSOM CA",
    "city": "Folsom",
    "state": "CA",
    "zip": "95630",
    "type": "Big Box"
  },
  "846": {
    "name": "CHINO CA",
    "city": "Chino",
    "state": "CA",
    "zip": "91710",
    "type": "Big Box"
  },
  "847": {
    "name": "CORONA CA",
    "city": "Corona",
    "state": "CA",
    "zip": "92881",
    "type": "Big Box"
  },
  "849": {
    "name": "GURNEE IL",
    "city": "Gurnee",
    "state": "IL",
    "zip": "60031",
    "type": "Big Box"
  },
  "850": {
    "name": "CARSON VALLEY NV",
    "city": "Carson City",
    "state": "NV",
    "zip": "89705",
    "type": "Big Box"
  },
  "851": {
    "name": "SANTANA ROW CA",
    "city": "San Jose",
    "state": "CA",
    "zip": "95128",
    "type": "Big Box"
  },
  "852": {
    "name": "AIEA HI",
    "city": "Aiea",
    "state": "HI",
    "zip": "96701",
    "type": "Big Box"
  },
  "853": {
    "name": "JACKSON TN",
    "city": "Jackson",
    "state": "TN",
    "zip": "38305",
    "type": "Big Box"
  },
  "854": {
    "name": "IRVINE CA",
    "city": "Irvine",
    "state": "CA",
    "zip": "92618",
    "type": "Big Box"
  },
  "855": {
    "name": "MYRTLE BEACH SC",
    "city": "Myrtle Beach",
    "state": "SC",
    "zip": "29577",
    "type": "Big Box"
  },
  "856": {
    "name": "BAKERSFIELD CA",
    "city": "Bakersfield",
    "state": "CA",
    "zip": "93312",
    "type": "Big Box"
  },
  "857": {
    "name": "PANAMA CITY FL",
    "city": "Panama City",
    "state": "FL",
    "zip": "32405",
    "type": "Big Box"
  },
  "858": {
    "name": "BLOOMINGTON IN",
    "city": "Bloomington",
    "state": "IN",
    "zip": "47401",
    "type": "Big Box"
  },
  "859": {
    "name": "ROUND ROCK TX",
    "city": "Round Rock",
    "state": "TX",
    "zip": "78664",
    "type": "Big Box"
  },
  "860": {
    "name": "CHARLOTTESVILLE VA",
    "city": "Charlottesville",
    "state": "VA",
    "zip": "22901",
    "type": "Big Box"
  },
  "861": {
    "name": "RAPID CITY SD",
    "city": "Rapid City",
    "state": "SD",
    "zip": "57701",
    "type": "Big Box"
  },
  "862": {
    "name": "OCALA FL",
    "city": "Ocala",
    "state": "FL",
    "zip": "34471",
    "type": "Big Box"
  },
  "863": {
    "name": "BEND OR",
    "city": "Bend",
    "state": "OR",
    "zip": "97703",
    "type": "Big Box"
  },
  "864": {
    "name": "NORTH RIM TX",
    "city": "San Antonio",
    "state": "TX",
    "zip": "78257",
    "type": "Big Box"
  },
  "865": {
    "name": "CONROE TX",
    "city": "Conroe",
    "state": "TX",
    "zip": "77304",
    "type": "Big Box"
  },
  "866": {
    "name": "FARMINGTON NM",
    "city": "Farmington",
    "state": "NM",
    "zip": "87402",
    "type": "Big Box"
  },
  "868": {
    "name": "WEST LEBANON NH",
    "city": "West Lebanon",
    "state": "NH",
    "zip": "03784",
    "type": "Big Box"
  },
  "869": {
    "name": "CHANDLER AZ",
    "city": "Chandler",
    "state": "AZ",
    "zip": "85226",
    "type": "Big Box"
  },
  "870": {
    "name": "NORTH SCOTTSDALE AZ",
    "city": "Scottsdale",
    "state": "AZ",
    "zip": "85260",
    "type": "Big Box"
  },
  "871": {
    "name": "SAN MARCOS CA",
    "city": "San Marcos",
    "state": "CA",
    "zip": "92078",
    "type": "Big Box"
  },
  "872": {
    "name": "DOWNEY CA",
    "city": "Downey",
    "state": "CA",
    "zip": "90242",
    "type": "Big Box"
  },
  "873": {
    "name": "COLMA CA",
    "city": "Colma",
    "state": "CA",
    "zip": "94014",
    "type": "Big Box"
  },
  "874": {
    "name": "TWIN FALLS ID",
    "city": "Twin Falls",
    "state": "ID",
    "zip": "83301",
    "type": "Big Box"
  },
  "875": {
    "name": "NORMAN OK",
    "city": "Norman",
    "state": "OK",
    "zip": "73069",
    "type": "Big Box"
  },
  "876": {
    "name": "COPPERFIELD TX",
    "city": "Houston",
    "state": "TX",
    "zip": "77095",
    "type": "Big Box"
  },
  "878": {
    "name": "DUBUQUE IA",
    "city": "Dubuque",
    "state": "IA",
    "zip": "52002",
    "type": "Big Box"
  },
  "879": {
    "name": "SANDUSKY OH",
    "city": "Sandusky",
    "state": "OH",
    "zip": "44870",
    "type": "Big Box"
  },
  "881": {
    "name": "JENSEN BEACH FL",
    "city": "Stuart",
    "state": "FL",
    "zip": "34994",
    "type": "Big Box"
  },
  "883": {
    "name": "HOLLAND MI",
    "city": "Holland",
    "state": "MI",
    "zip": "49424",
    "type": "Big Box"
  },
  "884": {
    "name": "GILROY CA",
    "city": "Gilroy",
    "state": "CA",
    "zip": "95020",
    "type": "Big Box"
  },
  "885": {
    "name": "PORT RICHEY FL",
    "city": "Port Richey",
    "state": "FL",
    "zip": "34668",
    "type": "Big Box"
  },
  "886": {
    "name": "NORWALK CT",
    "city": "Norwalk",
    "state": "CT",
    "zip": "06854",
    "type": "Big Box"
  },
  "887": {
    "name": "BERGEN TWN CENTER NJ",
    "city": "Paramus",
    "state": "NJ",
    "zip": "07652",
    "type": "Big Box"
  },
  "890": {
    "name": "BUCKHEAD GA",
    "city": "Atlanta",
    "state": "GA",
    "zip": "30324",
    "type": "Big Box"
  },
  "891": {
    "name": "WASHINGTON UT",
    "city": "Washington",
    "state": "UT",
    "zip": "84780",
    "type": "Big Box"
  },
  "892": {
    "name": "JANESVILLE WI",
    "city": "Janesville",
    "state": "WI",
    "zip": "53546",
    "type": "Big Box"
  },
  "893": {
    "name": "DEKALB IL",
    "city": "Dekalb",
    "state": "IL",
    "zip": "60115",
    "type": "Big Box"
  },
  "894": {
    "name": "ROCK HILL SC",
    "city": "Rock Hill",
    "state": "SC",
    "zip": "29730",
    "type": "Big Box"
  },
  "895": {
    "name": "YUMA AZ",
    "city": "Yuma",
    "state": "AZ",
    "zip": "85365",
    "type": "Big Box"
  },
  "896": {
    "name": "EDGEWOOD GA",
    "city": "Atlanta",
    "state": "GA",
    "zip": "30307",
    "type": "Big Box"
  },
  "898": {
    "name": "S PHILADELPHIA PA",
    "city": "Philadelphia",
    "state": "PA",
    "zip": "19148",
    "type": "Big Box"
  },
  "899": {
    "name": "JOHNSON CITY TN",
    "city": "Johnson City",
    "state": "TN",
    "zip": "37604",
    "type": "Big Box"
  },
  "932": {
    "name": "VE W2 .com",
    "city": "Minneapolis",
    "state": "MN",
    "zip": "55438",
    "type": "Virtual Experience"
  },
  "933": {
    "name": "VE India Voice .com",
    "city": "Richfield",
    "state": "MN",
    "zip": "55423",
    "type": "Virtual Experience"
  },
  "934": {
    "name": "VE India Chat .com",
    "city": "Richfield",
    "state": "MN",
    "zip": "55423",
    "type": "Virtual Experience"
  },
  "935": {
    "name": "VE Alorica Pnma .com",
    "city": "Richfield",
    "state": "MN",
    "zip": "55423",
    "type": "Virtual Experience"
  },
  "936": {
    "name": "VE TP Philipnes .com",
    "city": "Richfield",
    "state": "MN",
    "zip": "55423",
    "type": "Virtual Experience"
  },
  "937": {
    "name": "VIR Sales CCI Durban",
    "city": "Richfield",
    "state": "MN",
    "zip": "55423",
    "type": "Virtual Experience"
  },
  "938": {
    "name": "FLOWOOD MS",
    "city": "Flowood",
    "state": "MS",
    "zip": "39232",
    "type": "Big Box"
  },
  "940": {
    "name": "ABILENE TX",
    "city": "Abilene",
    "state": "TX",
    "zip": "79606",
    "type": "Big Box"
  },
  "943": {
    "name": "HOUMA LA",
    "city": "Houma",
    "state": "LA",
    "zip": "70360",
    "type": "Big Box"
  },
  "944": {
    "name": "IDAHO FALLS ID",
    "city": "Idaho Falls",
    "state": "ID",
    "zip": "83404",
    "type": "Big Box"
  },
  "945": {
    "name": "LOGAN UT",
    "city": "Logan",
    "state": "UT",
    "zip": "84341",
    "type": "Big Box"
  },
  "947": {
    "name": "ORANGE CA",
    "city": "Orange",
    "state": "CA",
    "zip": "92868",
    "type": "Big Box"
  },
  "948": {
    "name": "PEARLAND TX",
    "city": "Pearland",
    "state": "TX",
    "zip": "77584",
    "type": "Big Box"
  },
  "950": {
    "name": "VALLEY STREAM NY",
    "city": "Valley Stream",
    "state": "NY",
    "zip": "11581",
    "type": "Big Box"
  },
  "951": {
    "name": "VALPARAISO IN",
    "city": "Valparaiso",
    "state": "IN",
    "zip": "46383",
    "type": "Big Box"
  },
  "952": {
    "name": "BAYTOWN TX",
    "city": "Baytown",
    "state": "TX",
    "zip": "77521",
    "type": "Big Box"
  },
  "953": {
    "name": "ASHEVILLE SOUTH NC",
    "city": "Arden",
    "state": "NC",
    "zip": "28704",
    "type": "Big Box"
  },
  "954": {
    "name": "SAFEWAY GIFT CARD",
    "city": "RICHFIELD",
    "state": "MN",
    "zip": "55423",
    "type": "Not Used"
  },
  "960": {
    "name": "BESTBUY.COM",
    "city": "RICHFIELD",
    "state": "MN",
    "zip": "55423",
    "type": "Dotcom Locations"
  },
  "989": {
    "name": "GIFT CARD REBATES",
    "city": "EDEN PRAIRIE",
    "state": "MN",
    "zip": "55344",
    "type": "Not Used"
  },
  "990": {
    "name": "GC FULLFILLMENT",
    "city": "RICHFIELD",
    "state": "MN",
    "zip": "55423",
    "type": "Not Used"
  },
  "992": {
    "name": "GIFT CERTIFICATE CTR",
    "city": "EDEN PRAIRIE",
    "state": "MN",
    "zip": "55344",
    "type": "Not Used"
  },
  "1002": {
    "name": "TEMPE AZ",
    "city": "Tempe",
    "state": "AZ",
    "zip": "85281",
    "type": "Big Box"
  },
  "1003": {
    "name": "LEXINGTON PARK MD",
    "city": "California",
    "state": "MD",
    "zip": "20619",
    "type": "Big Box"
  },
  "1004": {
    "name": "TRUSSVILLE AL",
    "city": "Birmingham",
    "state": "AL",
    "zip": "35235",
    "type": "Big Box"
  },
  "1008": {
    "name": "VACAVILLE CA",
    "city": "Vacaville",
    "state": "CA",
    "zip": "95688",
    "type": "Big Box"
  },
  "1010": {
    "name": "CLARKSVILLE IN",
    "city": "Clarksville",
    "state": "IN",
    "zip": "47129",
    "type": "Big Box"
  },
  "1012": {
    "name": "BISMARCK ND",
    "city": "Bismarck",
    "state": "ND",
    "zip": "58503",
    "type": "Big Box"
  },
  "1013": {
    "name": "GLEN ALLEN VA",
    "city": "Glen Allen",
    "state": "VA",
    "zip": "23059",
    "type": "Big Box"
  },
  "1014": {
    "name": "SPARKS NV",
    "city": "Sparks",
    "state": "NV",
    "zip": "89436",
    "type": "Big Box"
  },
  "1015": {
    "name": "ALTOONA PA",
    "city": "Altoona",
    "state": "PA",
    "zip": "16602",
    "type": "Big Box"
  },
  "1016": {
    "name": "KALISPELL MT",
    "city": "Kalispell",
    "state": "MT",
    "zip": "59901",
    "type": "Big Box"
  },
  "1017": {
    "name": "SAN ANGELO TX",
    "city": "San Angelo",
    "state": "TX",
    "zip": "76901",
    "type": "Big Box"
  },
  "1018": {
    "name": "GLENDORA CA",
    "city": "Glendora",
    "state": "CA",
    "zip": "91740",
    "type": "Big Box"
  },
  "1019": {
    "name": "SALINAS CA",
    "city": "Salinas",
    "state": "CA",
    "zip": "93906",
    "type": "Big Box"
  },
  "1020": {
    "name": "LA QUINTA CA",
    "city": "La Quinta",
    "state": "CA",
    "zip": "92253",
    "type": "Big Box"
  },
  "1021": {
    "name": "SAN RAFAEL CA",
    "city": "San Rafael",
    "state": "CA",
    "zip": "94901",
    "type": "Big Box"
  },
  "1022": {
    "name": "LEESBURG VA",
    "city": "Leesburg",
    "state": "VA",
    "zip": "20176",
    "type": "Big Box"
  },
  "1023": {
    "name": "SHERMAN TX",
    "city": "Sherman",
    "state": "TX",
    "zip": "75092",
    "type": "Big Box"
  },
  "1024": {
    "name": "WEATHERFORD TX",
    "city": "Weatherford",
    "state": "TX",
    "zip": "76087",
    "type": "Big Box"
  },
  "1025": {
    "name": "NOBLESVILLE IN",
    "city": "Noblesville",
    "state": "IN",
    "zip": "46060",
    "type": "Big Box"
  },
  "1027": {
    "name": "LAKE WORTH TX",
    "city": "Fort Worth",
    "state": "TX",
    "zip": "76135",
    "type": "Big Box"
  },
  "1028": {
    "name": "44TH AND 5TH  NY",
    "city": "New York",
    "state": "NY",
    "zip": "10017",
    "type": "Big Box"
  },
  "1029": {
    "name": "CORTLANDT NY",
    "city": "Mohegan Lake",
    "state": "NY",
    "zip": "10547",
    "type": "Big Box"
  },
  "1030": {
    "name": "PUEBLO CO",
    "city": "Pueblo",
    "state": "CO",
    "zip": "81008",
    "type": "Big Box"
  },
  "1031": {
    "name": "BOULDER CO",
    "city": "Boulder",
    "state": "CO",
    "zip": "80301",
    "type": "Big Box"
  },
  "1034": {
    "name": "GRAND ISLAND NE",
    "city": "Grand Island",
    "state": "NE",
    "zip": "68803",
    "type": "Big Box"
  },
  "1035": {
    "name": "MANSFIELD TX",
    "city": "Mansfield",
    "state": "TX",
    "zip": "76063",
    "type": "Big Box"
  },
  "1036": {
    "name": "BIG FLATS NY",
    "city": "Elmira",
    "state": "NY",
    "zip": "14903",
    "type": "Big Box"
  },
  "1037": {
    "name": "NEWNAN GA",
    "city": "Newnan",
    "state": "GA",
    "zip": "30265",
    "type": "Big Box"
  },
  "1038": {
    "name": "FLOWER MOUND TX",
    "city": "Flower Mound",
    "state": "TX",
    "zip": "75028",
    "type": "Big Box"
  },
  "1044": {
    "name": "SW LAS VEGAS NV",
    "city": "Las Vegas",
    "state": "NV",
    "zip": "89113",
    "type": "Big Box"
  },
  "1046": {
    "name": "SLATTEN RANCH CA",
    "city": "Antioch",
    "state": "CA",
    "zip": "94531",
    "type": "Big Box"
  },
  "1048": {
    "name": "HOMEWOOD IL",
    "city": "Homewood",
    "state": "IL",
    "zip": "60430",
    "type": "Big Box"
  },
  "1049": {
    "name": "PEACHTREE CITY GA",
    "city": "Peachtree City",
    "state": "GA",
    "zip": "30269",
    "type": "Big Box"
  },
  "1050": {
    "name": "AVON OH",
    "city": "Avon",
    "state": "OH",
    "zip": "44011",
    "type": "Big Box"
  },
  "1051": {
    "name": "DURHAM SOUTHPOINT NC",
    "city": "Durham",
    "state": "NC",
    "zip": "27713",
    "type": "Big Box"
  },
  "1052": {
    "name": "STEVENS POINT WI",
    "city": "Plover",
    "state": "WI",
    "zip": "54467",
    "type": "Big Box"
  },
  "1055": {
    "name": "EAGAN MN",
    "city": "Eagan",
    "state": "MN",
    "zip": "55123",
    "type": "Big Box"
  },
  "1058": {
    "name": "GRESHAM OR",
    "city": "Gresham",
    "state": "OR",
    "zip": "97030",
    "type": "Big Box"
  },
  "1061": {
    "name": "MARINA CA",
    "city": "Marina",
    "state": "CA",
    "zip": "93933",
    "type": "Big Box"
  },
  "1063": {
    "name": "MINOT ND",
    "city": "Minot",
    "state": "ND",
    "zip": "58701",
    "type": "Big Box"
  },
  "1064": {
    "name": "MT JULIET TN",
    "city": "Mount Juliet",
    "state": "TN",
    "zip": "37122",
    "type": "Big Box"
  },
  "1066": {
    "name": "TINLEY PARK IL",
    "city": "Tinley Park",
    "state": "IL",
    "zip": "60487",
    "type": "Big Box"
  },
  "1067": {
    "name": "TRUMBULL CT",
    "city": "Trumbull",
    "state": "CT",
    "zip": "06611",
    "type": "Big Box"
  },
  "1071": {
    "name": "GAINESVILLE GA",
    "city": "Gainesville",
    "state": "GA",
    "zip": "30501",
    "type": "Big Box"
  },
  "1072": {
    "name": "SPRING TX",
    "city": "Spring",
    "state": "TX",
    "zip": "77388",
    "type": "Big Box"
  },
  "1077": {
    "name": "SIERRA VISTA AZ",
    "city": "Sierra Vista",
    "state": "AZ",
    "zip": "85635",
    "type": "Big Box"
  },
  "1078": {
    "name": "NAMPA ID",
    "city": "Nampa",
    "state": "ID",
    "zip": "83687",
    "type": "Big Box"
  },
  "1079": {
    "name": "LONGMONT CO",
    "city": "Longmont",
    "state": "CO",
    "zip": "80501",
    "type": "Big Box"
  },
  "1080": {
    "name": "LAKE CHARLES LA",
    "city": "Lake Charles",
    "state": "LA",
    "zip": "70601",
    "type": "Big Box"
  },
  "1081": {
    "name": "CITY BASE TX",
    "city": "San Antonio",
    "state": "TX",
    "zip": "78223",
    "type": "Big Box"
  },
  "1082": {
    "name": "LEGACY TX",
    "city": "San Antonio",
    "state": "TX",
    "zip": "78232",
    "type": "Big Box"
  },
  "1083": {
    "name": "BEE CAVE TX",
    "city": "Bee Cave",
    "state": "TX",
    "zip": "78738",
    "type": "Big Box"
  },
  "1084": {
    "name": "FLAGSTAFF AZ",
    "city": "Flagstaff",
    "state": "AZ",
    "zip": "86004",
    "type": "Big Box"
  },
  "1085": {
    "name": "THE PINNACLE TN",
    "city": "Bristol",
    "state": "TN",
    "zip": "37620",
    "type": "Big Box"
  },
  "1086": {
    "name": "WINCHESTER VA",
    "city": "Winchester",
    "state": "VA",
    "zip": "22601",
    "type": "Big Box"
  },
  "1087": {
    "name": "YORK PA",
    "city": "York",
    "state": "PA",
    "zip": "17402",
    "type": "Big Box"
  },
  "1088": {
    "name": "EVERETT MA",
    "city": "Everett",
    "state": "MA",
    "zip": "02149",
    "type": "Big Box"
  },
  "1089": {
    "name": "WATERTOWN NY",
    "city": "Watertown",
    "state": "NY",
    "zip": "13601",
    "type": "Big Box"
  },
  "1090": {
    "name": "RIO HONDO PR",
    "city": "Bayamon",
    "state": "PR",
    "zip": "00961",
    "type": "Big Box"
  },
  "1092": {
    "name": "COLUMBIA HEIGHTS DC",
    "city": "Washington",
    "state": "DC",
    "zip": "20010",
    "type": "Big Box"
  },
  "1094": {
    "name": "WEST CARMEL IN",
    "city": "Carmel",
    "state": "IN",
    "zip": "46032",
    "type": "Big Box"
  },
  "1095": {
    "name": "CHESTERFIELD MI",
    "city": "Chesterfield",
    "state": "MI",
    "zip": "48051",
    "type": "Big Box"
  },
  "1096": {
    "name": "GROVE CITY OH",
    "city": "Grove City",
    "state": "OH",
    "zip": "43123",
    "type": "Big Box"
  },
  "1097": {
    "name": "OXFORD AL",
    "city": "Oxford",
    "state": "AL",
    "zip": "36203",
    "type": "Big Box"
  },
  "1098": {
    "name": "CHERRY HILL NJ",
    "city": "Cherry Hill",
    "state": "NJ",
    "zip": "08002",
    "type": "Big Box"
  },
  "1099": {
    "name": "STRONGSVILLE OH",
    "city": "Strongsville",
    "state": "OH",
    "zip": "44136",
    "type": "Big Box"
  },
  "1101": {
    "name": "MANHATTAN KS",
    "city": "Manhattan",
    "state": "KS",
    "zip": "66502",
    "type": "Big Box"
  },
  "1104": {
    "name": "JANTZEN BEACH OR",
    "city": "Portland",
    "state": "OR",
    "zip": "97217",
    "type": "Big Box"
  },
  "1107": {
    "name": "CHARLOTTE RIVRGTE NC",
    "city": "Charlotte",
    "state": "NC",
    "zip": "28273",
    "type": "Big Box"
  },
  "1108": {
    "name": "MIDTOWN CHARLOTTE NC",
    "city": "Charlotte",
    "state": "NC",
    "zip": "28204",
    "type": "Big Box"
  },
  "1109": {
    "name": "AVONDALE AZ",
    "city": "Avondale",
    "state": "AZ",
    "zip": "85392",
    "type": "Big Box"
  },
  "1112": {
    "name": "SW TUCSON AZ",
    "city": "Tucson",
    "state": "AZ",
    "zip": "85706",
    "type": "Big Box"
  },
  "1113": {
    "name": "EL CENTRO CA",
    "city": "El Centro",
    "state": "CA",
    "zip": "92243",
    "type": "Big Box"
  },
  "1118": {
    "name": "HATO REY PR",
    "city": "San Juan",
    "state": "PR",
    "zip": "00918",
    "type": "Big Box"
  },
  "1119": {
    "name": "SIGNAL HILL CA",
    "city": "Signal Hill",
    "state": "CA",
    "zip": "90755",
    "type": "Big Box"
  },
  "1120": {
    "name": "WEST ASHLEY SC",
    "city": "Charleston",
    "state": "SC",
    "zip": "29407",
    "type": "Big Box"
  },
  "1121": {
    "name": "OWENSBORO KY",
    "city": "Owensboro",
    "state": "KY",
    "zip": "42301",
    "type": "Big Box"
  },
  "1123": {
    "name": "KANKAKEE IL",
    "city": "Bourbonnais",
    "state": "IL",
    "zip": "60914",
    "type": "Big Box"
  },
  "1124": {
    "name": "GRAND JUNCTION CO",
    "city": "Grand Junction",
    "state": "CO",
    "zip": "81505",
    "type": "Big Box"
  },
  "1126": {
    "name": "SOUTH BAY MA",
    "city": "Dorchester",
    "state": "MA",
    "zip": "02125",
    "type": "Big Box"
  },
  "1127": {
    "name": "DEWITT NY",
    "city": "Dewitt",
    "state": "NY",
    "zip": "13214",
    "type": "Big Box"
  },
  "1128": {
    "name": "VALLEJO CA",
    "city": "Vallejo",
    "state": "CA",
    "zip": "94591",
    "type": "Big Box"
  },
  "1129": {
    "name": "WHEATON MD",
    "city": "Wheaton",
    "state": "MD",
    "zip": "20902",
    "type": "Big Box"
  },
  "1130": {
    "name": "NASHVILLE WEST TN",
    "city": "Nashville",
    "state": "TN",
    "zip": "37209",
    "type": "Big Box"
  },
  "1131": {
    "name": "HAMBURG NY",
    "city": "Buffalo",
    "state": "NY",
    "zip": "14219",
    "type": "Big Box"
  },
  "1133": {
    "name": "MOORESVILLE NC",
    "city": "Mooresville",
    "state": "NC",
    "zip": "28117",
    "type": "Big Box"
  },
  "1134": {
    "name": "I-70 AND TOWER RD CO",
    "city": "Aurora",
    "state": "CO",
    "zip": "80011",
    "type": "Big Box"
  },
  "1136": {
    "name": "CORAL SPRINGS FL",
    "city": "Coral Springs",
    "state": "FL",
    "zip": "33071",
    "type": "Big Box"
  },
  "1140": {
    "name": "MANSFIELD MA",
    "city": "Mansfield",
    "state": "MA",
    "zip": "02048",
    "type": "Big Box"
  },
  "1141": {
    "name": "BRADENTON FL",
    "city": "Bradenton",
    "state": "FL",
    "zip": "34205",
    "type": "Big Box"
  },
  "1142": {
    "name": "SOUTH LOOP IL",
    "city": "Chicago",
    "state": "IL",
    "zip": "60607",
    "type": "Big Box"
  },
  "1146": {
    "name": "JORDAN LANDING UT",
    "city": "West Jordan",
    "state": "UT",
    "zip": "84084",
    "type": "Big Box"
  },
  "1147": {
    "name": "KOHLER WI",
    "city": "Kohler",
    "state": "WI",
    "zip": "53044",
    "type": "Big Box"
  },
  "1148": {
    "name": "ROGERS AR",
    "city": "Rogers",
    "state": "AR",
    "zip": "72758",
    "type": "Big Box"
  },
  "1149": {
    "name": "CHRISTIANSBURG VA",
    "city": "Christiansburg",
    "state": "VA",
    "zip": "24073",
    "type": "Big Box"
  },
  "1152": {
    "name": "WALDEN GALLERIA NY",
    "city": "Cheektowaga",
    "state": "NY",
    "zip": "14225",
    "type": "Big Box"
  },
  "1153": {
    "name": "MUELLER AIRPORT TX",
    "city": "Austin",
    "state": "TX",
    "zip": "78723",
    "type": "Big Box"
  },
  "1155": {
    "name": "CHARLOTTE N LAKE NC",
    "city": "Charlotte",
    "state": "NC",
    "zip": "28216",
    "type": "Big Box"
  },
  "1156": {
    "name": "WINTER GARDEN FL",
    "city": "Winter Garden",
    "state": "FL",
    "zip": "34787",
    "type": "Big Box"
  },
  "1157": {
    "name": "MILLERVILLE LA",
    "city": "Baton Rouge",
    "state": "LA",
    "zip": "70816",
    "type": "Big Box"
  },
  "1168": {
    "name": "WELLINGTON FL",
    "city": "Wellington",
    "state": "FL",
    "zip": "33414",
    "type": "Big Box"
  },
  "1170": {
    "name": "OSWEGO IL",
    "city": "Oswego",
    "state": "IL",
    "zip": "60543",
    "type": "Big Box"
  },
  "1172": {
    "name": "BRONX TERMINAL NY",
    "city": "Bronx",
    "state": "NY",
    "zip": "10451",
    "type": "Big Box"
  },
  "1174": {
    "name": "GULFPORT MS",
    "city": "Gulfport",
    "state": "MS",
    "zip": "39503",
    "type": "Big Box"
  },
  "1177": {
    "name": "MANAHAWKIN NJ",
    "city": "Manahawkin",
    "state": "NJ",
    "zip": "08050",
    "type": "Big Box"
  },
  "1178": {
    "name": "FLORIDA CITY FL",
    "city": "Florida City",
    "state": "FL",
    "zip": "33034",
    "type": "Big Box"
  },
  "1180": {
    "name": "NORTHRIDGE CA",
    "city": "Northridge",
    "state": "CA",
    "zip": "91324",
    "type": "Big Box"
  },
  "1184": {
    "name": "DAVENPORT FL",
    "city": "Davenport",
    "state": "FL",
    "zip": "33837",
    "type": "Big Box"
  },
  "1185": {
    "name": "WARNER ROBINS GA",
    "city": "Warner Robins",
    "state": "GA",
    "zip": "31093",
    "type": "Big Box"
  },
  "1186": {
    "name": "CANTON GA",
    "city": "Canton",
    "state": "GA",
    "zip": "30115",
    "type": "Big Box"
  },
  "1187": {
    "name": "ENCINITAS RANCH CA",
    "city": "Encinitas",
    "state": "CA",
    "zip": "92024",
    "type": "Big Box"
  },
  "1188": {
    "name": "CLOVIS CA",
    "city": "Clovis",
    "state": "CA",
    "zip": "93612",
    "type": "Big Box"
  },
  "1189": {
    "name": "GILBERT AZ",
    "city": "Gilbert",
    "state": "AZ",
    "zip": "85295",
    "type": "Big Box"
  },
  "1190": {
    "name": "AUBURN CA",
    "city": "Auburn",
    "state": "CA",
    "zip": "95603",
    "type": "Big Box"
  },
  "1191": {
    "name": "KENOSHA WI",
    "city": "Kenosha",
    "state": "WI",
    "zip": "53142",
    "type": "Big Box"
  },
  "1193": {
    "name": "COLLEGEVILLE PA",
    "city": "Collegeville",
    "state": "PA",
    "zip": "19426",
    "type": "Big Box"
  },
  "1194": {
    "name": "GREELEY CO",
    "city": "Greeley",
    "state": "CO",
    "zip": "80634",
    "type": "Big Box"
  },
  "1197": {
    "name": "LANCASTER PA",
    "city": "Lancaster",
    "state": "PA",
    "zip": "17601",
    "type": "Big Box"
  },
  "1205": {
    "name": "USO CO UT",
    "city": "LONE TREE",
    "state": "CO",
    "zip": "80124",
    "type": "Pooled Labor"
  },
  "1217": {
    "name": "AMERICAN DREAM NJ",
    "city": "East Rutherford",
    "state": "NJ",
    "zip": "07073",
    "type": "Big Box"
  },
  "1220": {
    "name": "ISSAQUAH WA",
    "city": "Issaquah",
    "state": "WA",
    "zip": "98029",
    "type": "Big Box"
  },
  "1224": {
    "name": "BELMAR CO",
    "city": "Lakewood",
    "state": "CO",
    "zip": "80226",
    "type": "Big Box"
  },
  "1228": {
    "name": "GSCC CHICAGO",
    "city": "BOLINGBROOK",
    "state": "IL",
    "zip": "60490",
    "type": "Geek Squad Call Center"
  },
  "1229": {
    "name": "GSCC DAVENPORT",
    "city": "DAVENPORT",
    "state": "FL",
    "zip": "33897",
    "type": "Geek Squad Call Center"
  },
  "1230": {
    "name": "GSCC ONTARIO",
    "city": "ONTARIO",
    "state": "CA",
    "zip": "91464",
    "type": "Geek Squad Call Center"
  },
  "1242": {
    "name": "SEATTLE SALE EVENT",
    "city": "Spanaway",
    "state": "WA",
    "zip": "98387",
    "type": "Warehouse Sale"
  },
  "1252": {
    "name": "RICHMOND IN",
    "city": "Richmond",
    "state": "IN",
    "zip": "47374",
    "type": "Big Box"
  },
  "1255": {
    "name": "HOUSTON SALE EVENT",
    "city": "Missouri City",
    "state": "TX",
    "zip": "77489",
    "type": "Warehouse Sale"
  },
  "1258": {
    "name": "DAVIE FL",
    "city": "Davie",
    "state": "FL",
    "zip": "33324",
    "type": "Big Box"
  },
  "1260": {
    "name": "MERCED CA",
    "city": "Merced",
    "state": "CA",
    "zip": "95348",
    "type": "Big Box"
  },
  "1261": {
    "name": "BRONX RIVERDALE",
    "city": "Bronx",
    "state": "NY",
    "zip": "10463",
    "type": "Big Box"
  },
  "1264": {
    "name": "BOZEMAN MT",
    "city": "Bozeman",
    "state": "MT",
    "zip": "59718",
    "type": "Big Box"
  },
  "1265": {
    "name": "BARRYWOODS CRSSNG MO",
    "city": "Kansas City",
    "state": "MO",
    "zip": "64151",
    "type": "Big Box"
  },
  "1266": {
    "name": "CHARLESTON WV",
    "city": "Charleston",
    "state": "WV",
    "zip": "25309",
    "type": "Big Box"
  },
  "1267": {
    "name": "JOHNSTOWN PA",
    "city": "Johnstown",
    "state": "PA",
    "zip": "15904",
    "type": "Big Box"
  },
  "1269": {
    "name": "PARKERSBURG WV",
    "city": "Parkersburg",
    "state": "WV",
    "zip": "26105",
    "type": "Big Box"
  },
  "1306": {
    "name": "DRC ACTIVATIONS",
    "city": "RICHFIELD",
    "state": "MN",
    "zip": "55423",
    "type": "Not Used"
  },
  "1307": {
    "name": "DRC SETTLEMENTS",
    "city": "RICHFIELD",
    "state": "MN",
    "zip": "55423",
    "type": "Not Used"
  },
  "1308": {
    "name": "GOV ED SETTLEMENTS",
    "city": "RICHFIELD",
    "state": "MN",
    "zip": "55423",
    "type": "Not Used"
  },
  "1309": {
    "name": "GOV ED ACTIVATIONS",
    "city": "RICHFIELD",
    "state": "MN",
    "zip": "55423",
    "type": "Not Used"
  },
  "1320": {
    "name": "LOUISVILLE SVC CTR",
    "city": "Brooks",
    "state": "KY",
    "zip": "40109",
    "type": "Repair Depot"
  },
  "1321": {
    "name": "GEEKSQUAD",
    "city": "Brooks",
    "state": "KY",
    "zip": "40109",
    "type": "Repair Depot"
  },
  "1322": {
    "name": "DAVENPORT SERVICE",
    "city": "Polk City",
    "state": "FL",
    "zip": "33868",
    "type": "Repair Depot"
  },
  "1324": {
    "name": "ECC NCO JOPLIN #1324",
    "city": "Richfield",
    "state": "MN",
    "zip": "55423",
    "type": "Geek Squad Call Center"
  },
  "1343": {
    "name": "DEALTREE GIFTCARD",
    "city": "Irvine",
    "state": "CA",
    "zip": "92606",
    "type": "Not Used"
  },
  "1345": {
    "name": "INCOMM FREDS",
    "city": "RICHFIELD",
    "state": "MN",
    "zip": "55423",
    "type": "Not Used"
  },
  "1346": {
    "name": "INCOMM HEB",
    "city": "RICHFIELD",
    "state": "MN",
    "zip": "55423",
    "type": "Not Used"
  },
  "1347": {
    "name": "WALGREENS",
    "city": "RICHFIELD",
    "state": "MN",
    "zip": "55423",
    "type": "Not Used"
  },
  "1358": {
    "name": "PUERTO RICO SRV CTR",
    "city": "CAGUAS",
    "state": "PR",
    "zip": "00725",
    "type": "Repair Depot"
  },
  "1380": {
    "name": "VESTAL NY",
    "city": "Vestal",
    "state": "NY",
    "zip": "13850",
    "type": "Big Box"
  },
  "1383": {
    "name": "SPRING HILL FL",
    "city": "Spring Hill",
    "state": "FL",
    "zip": "34607",
    "type": "Big Box"
  },
  "1385": {
    "name": "WAYNESVILLE NC",
    "city": "Waynesville",
    "state": "NC",
    "zip": "28786",
    "type": "Big Box"
  },
  "1387": {
    "name": "NEW BRAUNFELS TX",
    "city": "New Braunfels",
    "state": "TX",
    "zip": "78130",
    "type": "Big Box"
  },
  "1388": {
    "name": "HAMMOND LA",
    "city": "Hammond",
    "state": "LA",
    "zip": "70403",
    "type": "Big Box"
  },
  "1391": {
    "name": "GOLETA CA",
    "city": "Goleta",
    "state": "CA",
    "zip": "93117",
    "type": "Big Box"
  },
  "1395": {
    "name": "QUAKERTOWN PA",
    "city": "Quakertown",
    "state": "PA",
    "zip": "18951",
    "type": "Big Box"
  },
  "1396": {
    "name": "WOODLAND CA",
    "city": "Woodland",
    "state": "CA",
    "zip": "95776",
    "type": "Big Box"
  },
  "1397": {
    "name": "ATASCOCITA TX",
    "city": "Humble",
    "state": "TX",
    "zip": "77346",
    "type": "Big Box"
  },
  "1399": {
    "name": "POPLAR AVE TN",
    "city": "Memphis",
    "state": "TN",
    "zip": "38119",
    "type": "Big Box"
  },
  "1400": {
    "name": "GREECE NY",
    "city": "Rochester",
    "state": "NY",
    "zip": "14626",
    "type": "Big Box"
  },
  "1401": {
    "name": "OWASSO OK",
    "city": "Owasso",
    "state": "OK",
    "zip": "74055",
    "type": "Big Box"
  },
  "1402": {
    "name": "AMERICAN FORK UT",
    "city": "American Fork",
    "state": "UT",
    "zip": "84003",
    "type": "Big Box"
  },
  "1403": {
    "name": "BETHLEHEM PA",
    "city": "Easton",
    "state": "PA",
    "zip": "18045",
    "type": "Big Box"
  },
  "1405": {
    "name": "WESLEY CHAPEL FL",
    "city": "Wesley Chapel",
    "state": "FL",
    "zip": "33544",
    "type": "Big Box"
  },
  "1408": {
    "name": "CUMMING GA",
    "city": "Cumming",
    "state": "GA",
    "zip": "30041",
    "type": "Big Box"
  },
  "1409": {
    "name": "MENIFEE CA",
    "city": "Menifee",
    "state": "CA",
    "zip": "92584",
    "type": "Big Box"
  },
  "1410": {
    "name": "PARKER CO",
    "city": "Parker",
    "state": "CO",
    "zip": "80138",
    "type": "Big Box"
  },
  "1411": {
    "name": "KISSIMMEE FL",
    "city": "Kissimmee",
    "state": "FL",
    "zip": "34741",
    "type": "Big Box"
  },
  "1412": {
    "name": "N GARLAND TX",
    "city": "Garland",
    "state": "TX",
    "zip": "75040",
    "type": "Big Box"
  },
  "1413": {
    "name": "CYPRESS TX",
    "city": "Cypress",
    "state": "TX",
    "zip": "77429",
    "type": "Big Box"
  },
  "1415": {
    "name": "MARYSVILLE WA",
    "city": "Marysville",
    "state": "WA",
    "zip": "98271",
    "type": "Big Box"
  },
  "1416": {
    "name": "NORTHGLENN CO",
    "city": "Denver",
    "state": "CO",
    "zip": "80234",
    "type": "Big Box"
  },
  "1417": {
    "name": "ROCKWALL TX",
    "city": "Rockwall",
    "state": "TX",
    "zip": "75087",
    "type": "Big Box"
  },
  "1419": {
    "name": "OKLAHOMA CITY W OK",
    "city": "Oklahoma City",
    "state": "OK",
    "zip": "73128",
    "type": "Big Box"
  },
  "1421": {
    "name": "CENTENNIAL NV",
    "city": "Las Vegas",
    "state": "NV",
    "zip": "89131",
    "type": "Big Box"
  },
  "1422": {
    "name": "TUALATIN OR",
    "city": "Tualatin",
    "state": "OR",
    "zip": "97062",
    "type": "Big Box"
  },
  "1423": {
    "name": "THE PLANT CA",
    "city": "San Jose",
    "state": "CA",
    "zip": "95125",
    "type": "Big Box"
  },
  "1425": {
    "name": "MURFREESBORO TN",
    "city": "Murfreesboro",
    "state": "TN",
    "zip": "37129",
    "type": "Big Box"
  },
  "1426": {
    "name": "EDWARDSVILLE IL",
    "city": "Edwardsville",
    "state": "IL",
    "zip": "62025",
    "type": "Big Box"
  },
  "1427": {
    "name": "MIDWEST CITY OK",
    "city": "Midwest City",
    "state": "OK",
    "zip": "73110",
    "type": "Big Box"
  },
  "1428": {
    "name": "SUMMERVILLE SC",
    "city": "Summerville",
    "state": "SC",
    "zip": "29483",
    "type": "Big Box"
  },
  "1432": {
    "name": "COMPTON CA",
    "city": "Compton",
    "state": "CA",
    "zip": "90220",
    "type": "Big Box"
  },
  "1433": {
    "name": "LEOMINSTER MA",
    "city": "Leominster",
    "state": "MA",
    "zip": "01453",
    "type": "Big Box"
  },
  "1436": {
    "name": "OWINGS MILLS MD",
    "city": "Owings Mills",
    "state": "MD",
    "zip": "21117",
    "type": "Big Box"
  },
  "1438": {
    "name": "CONWAY AR",
    "city": "Conway",
    "state": "AR",
    "zip": "72032",
    "type": "Big Box"
  },
  "1441": {
    "name": "BEAUMONT CA",
    "city": "Beaumont",
    "state": "CA",
    "zip": "92223",
    "type": "Big Box"
  },
  "1442": {
    "name": "STROUDSBURG PA",
    "city": "Stroudsburg",
    "state": "PA",
    "zip": "18360",
    "type": "Big Box"
  },
  "1444": {
    "name": "WILLIAMSBURG VA",
    "city": "Williamsburg",
    "state": "VA",
    "zip": "23185",
    "type": "Big Box"
  },
  "1445": {
    "name": "HAGERSTOWN MD",
    "city": "Hagerstown",
    "state": "MD",
    "zip": "21740",
    "type": "Big Box"
  },
  "1447": {
    "name": "SOUTHAVEN MS",
    "city": "Southaven",
    "state": "MS",
    "zip": "38671",
    "type": "Big Box"
  },
  "1449": {
    "name": "GAINESVILLE VA",
    "city": "Gainesville",
    "state": "VA",
    "zip": "20155",
    "type": "Big Box"
  },
  "1451": {
    "name": "MOREHEAD CITY NC",
    "city": "Morehead City",
    "state": "NC",
    "zip": "28557",
    "type": "Big Box"
  },
  "1452": {
    "name": "UNIVERSITY TWN CR FL",
    "city": "Sarasota",
    "state": "FL",
    "zip": "34243",
    "type": "Big Box"
  },
  "1456": {
    "name": "HARAHAN LA",
    "city": "New Orleans",
    "state": "LA",
    "zip": "70123",
    "type": "Big Box"
  },
  "1457": {
    "name": "TEMPLE TX",
    "city": "Temple",
    "state": "TX",
    "zip": "76504",
    "type": "Big Box"
  },
  "1458": {
    "name": "LAKE JACKSON TX",
    "city": "Lake Jackson",
    "state": "TX",
    "zip": "77566",
    "type": "Big Box"
  },
  "1459": {
    "name": "ALAMO RANCH TX",
    "city": "San Antonio",
    "state": "TX",
    "zip": "78253",
    "type": "Big Box"
  },
  "1460": {
    "name": "PRINCESS ANNE VA",
    "city": "Virginia Beach",
    "state": "VA",
    "zip": "23456",
    "type": "Big Box"
  },
  "1462": {
    "name": "BOSSIER CITY LA",
    "city": "Bossier City",
    "state": "LA",
    "zip": "71111",
    "type": "Big Box"
  },
  "1464": {
    "name": "AUGUSTA ME",
    "city": "Augusta",
    "state": "ME",
    "zip": "04330",
    "type": "Big Box"
  },
  "1466": {
    "name": "LEXINGTON SC",
    "city": "Lexington",
    "state": "SC",
    "zip": "29072",
    "type": "Big Box"
  },
  "1467": {
    "name": "BALDWIN NY",
    "city": "Baldwin",
    "state": "NY",
    "zip": "11510",
    "type": "Big Box"
  },
  "1468": {
    "name": "WEST SIMSBURY CT",
    "city": "West Simsbury",
    "state": "CT",
    "zip": "06092",
    "type": "Big Box"
  },
  "1469": {
    "name": "VICTORY LAKES TX",
    "city": "League City",
    "state": "TX",
    "zip": "77573",
    "type": "Big Box"
  },
  "1470": {
    "name": "EAST EL PASO TX",
    "city": "El Paso",
    "state": "TX",
    "zip": "79936",
    "type": "Big Box"
  },
  "1473": {
    "name": "NORTH MCALLEN TX",
    "city": "McAllen",
    "state": "TX",
    "zip": "78504",
    "type": "Big Box"
  },
  "1474": {
    "name": "COLERAIN OH",
    "city": "Cincinnati",
    "state": "OH",
    "zip": "45251",
    "type": "Big Box"
  },
  "1475": {
    "name": "JACKSONVILLE N FL",
    "city": "Jacksonville",
    "state": "FL",
    "zip": "32218",
    "type": "Big Box"
  },
  "1477": {
    "name": "HAMBURG PAVILION KY",
    "city": "Lexington",
    "state": "KY",
    "zip": "40509",
    "type": "Big Box"
  },
  "1478": {
    "name": "MECHANICSBURG PA",
    "city": "Mechanicsburg",
    "state": "PA",
    "zip": "17050",
    "type": "Big Box"
  },
  "1480": {
    "name": "CHRISTIANA DE",
    "city": "Newark",
    "state": "DE",
    "zip": "19702",
    "type": "Big Box"
  },
  "1482": {
    "name": "APPLE VALLEY CA",
    "city": "Apple Valley",
    "state": "CA",
    "zip": "92308",
    "type": "Big Box"
  },
  "1486": {
    "name": "HIRAM GA",
    "city": "Hiram",
    "state": "GA",
    "zip": "30141",
    "type": "Big Box"
  },
  "1488": {
    "name": "NORTH HAVEN CT",
    "city": "North Haven",
    "state": "CT",
    "zip": "06473",
    "type": "Big Box"
  },
  "1489": {
    "name": "LAKE GENEVA WI",
    "city": "Lake Geneva",
    "state": "WI",
    "zip": "53147",
    "type": "Big Box"
  },
  "1491": {
    "name": "TANASBOURNE OR",
    "city": "Hillsboro",
    "state": "OR",
    "zip": "97006",
    "type": "Big Box"
  },
  "1492": {
    "name": "KNIGHTDALE NC",
    "city": "Knightdale",
    "state": "NC",
    "zip": "27545",
    "type": "Big Box"
  },
  "1494": {
    "name": "HERITAGE TRACE TX",
    "city": "Fort Worth",
    "state": "TX",
    "zip": "76177",
    "type": "Big Box"
  },
  "1498": {
    "name": "MIAMI BEACH FL",
    "city": "Miami Beach",
    "state": "FL",
    "zip": "33139",
    "type": "Big Box"
  },
  "1499": {
    "name": "TULSA HILLS OK",
    "city": "Tulsa",
    "state": "OK",
    "zip": "74132",
    "type": "Big Box"
  },
  "1502": {
    "name": "SWEETWATER FL",
    "city": "Sweetwater",
    "state": "FL",
    "zip": "33172",
    "type": "Big Box"
  },
  "1507": {
    "name": "MONROE LA",
    "city": "Monroe",
    "state": "LA",
    "zip": "71203",
    "type": "Big Box"
  },
  "1510": {
    "name": "CLVR CITY WSTFLD CA",
    "city": "Culver City",
    "state": "CA",
    "zip": "90230",
    "type": "Big Box"
  },
  "1511": {
    "name": "PACOIMA CA",
    "city": "Pacoima",
    "state": "CA",
    "zip": "91331",
    "type": "Big Box"
  },
  "1512": {
    "name": "ANKENY IA",
    "city": "Ankeny",
    "state": "IA",
    "zip": "50021",
    "type": "Big Box"
  },
  "1513": {
    "name": "NORTHWEST WICHITA KS",
    "city": "Wichita",
    "state": "KS",
    "zip": "67205",
    "type": "Big Box"
  },
  "1515": {
    "name": "SPRING VALLEY SC",
    "city": "Columbia",
    "state": "SC",
    "zip": "29229",
    "type": "Big Box"
  },
  "1516": {
    "name": "BASTROP TX",
    "city": "Bastrop",
    "state": "TX",
    "zip": "78602",
    "type": "Big Box"
  },
  "1517": {
    "name": "GRAND PKY TX",
    "city": "Richmond",
    "state": "TX",
    "zip": "77406",
    "type": "Big Box"
  },
  "1519": {
    "name": "MADISON MS",
    "city": "Madison",
    "state": "MS",
    "zip": "39110",
    "type": "Big Box"
  },
  "1526": {
    "name": "ODESSA TX",
    "city": "Odessa",
    "state": "TX",
    "zip": "79762",
    "type": "Big Box"
  },
  "1527": {
    "name": "CASPER WY",
    "city": "Casper",
    "state": "WY",
    "zip": "82609",
    "type": "Big Box"
  },
  "1528": {
    "name": "MARTINSBURG WV",
    "city": "Martinsburg",
    "state": "WV",
    "zip": "25403",
    "type": "Big Box"
  },
  "1530": {
    "name": "MILLENIA MALL FL",
    "city": "Orlando",
    "state": "FL",
    "zip": "32839",
    "type": "Big Box"
  },
  "1531": {
    "name": "UNION SQUARE NY",
    "city": "New York",
    "state": "NY",
    "zip": "10003",
    "type": "Big Box"
  },
  "1532": {
    "name": "BURLINGTON MA",
    "city": "Burlington",
    "state": "MA",
    "zip": "01803",
    "type": "Big Box"
  },
  "1533": {
    "name": "CARMEL MOUNTAIN CA",
    "city": "San Diego",
    "state": "CA",
    "zip": "92128",
    "type": "Big Box"
  },
  "1534": {
    "name": "HARRISONBURG VA",
    "city": "Harrisonburg",
    "state": "VA",
    "zip": "22801",
    "type": "Big Box"
  },
  "1535": {
    "name": "JERSEY CITY NJ",
    "city": "Jersey City",
    "state": "NJ",
    "zip": "07310",
    "type": "Big Box"
  },
  "1537": {
    "name": "MONTEBELLO CA",
    "city": "Montebello",
    "state": "CA",
    "zip": "90640",
    "type": "Big Box"
  },
  "1539": {
    "name": "PORT CHARLOTTE FL",
    "city": "Port Charlotte",
    "state": "FL",
    "zip": "33954",
    "type": "Big Box"
  },
  "1540": {
    "name": "TUSCALOOSA AL",
    "city": "Tuscaloosa",
    "state": "AL",
    "zip": "35404",
    "type": "Big Box"
  },
  "1541": {
    "name": "VICTOR NY",
    "city": "Victor",
    "state": "NY",
    "zip": "14564",
    "type": "Big Box"
  },
  "1545": {
    "name": "PORT ARTHUR TX",
    "city": "Port Arthur",
    "state": "TX",
    "zip": "77640",
    "type": "Big Box"
  },
  "1549": {
    "name": "INCOMM RITE AID",
    "city": "RICHFIELD",
    "state": "MN",
    "zip": "55423",
    "type": "Not Used"
  },
  "1550": {
    "name": "INCOMM CVS",
    "city": "RICHFIELD",
    "state": "MN",
    "zip": "55423",
    "type": "Not Used"
  },
  "1551": {
    "name": "INCOMM DUANE READE",
    "city": "RICHFIELD",
    "state": "MN",
    "zip": "55423",
    "type": "Not Used"
  },
  "1552": {
    "name": "INCOMM MARCS PHARMCY",
    "city": "RICHFIELD",
    "state": "MN",
    "zip": "55423",
    "type": "Not Used"
  },
  "1556": {
    "name": "INCOMM DSCT DRUG MRT",
    "city": "RICHFIELD",
    "state": "MN",
    "zip": "55423",
    "type": "Not Used"
  },
  "1558": {
    "name": "E GIFT CARDS",
    "city": "RICHFIELD",
    "state": "MN",
    "zip": "55423",
    "type": "Not Used"
  },
  "1563": {
    "name": "Marketplace Comm Rev",
    "city": "RICHFIELD",
    "state": "MN",
    "zip": "55423",
    "type": "Dotcom Locations"
  },
  "1575": {
    "name": "B2B E CARDS",
    "city": "RICHFIELD",
    "state": "MN",
    "zip": "55423",
    "type": "Not Used"
  },
  "1576": {
    "name": "FDC GFT CRD ISSUANCE",
    "city": "RICHFIELD",
    "state": "MN",
    "zip": "55423",
    "type": "Not Used"
  },
  "1585": {
    "name": "INCOMM SAVE MART",
    "city": "RICHFIELD",
    "state": "MN",
    "zip": "55423",
    "type": "Not Used"
  },
  "1588": {
    "name": "INCOMM ASSOC FOODS",
    "city": "RICHFIELD",
    "state": "MN",
    "zip": "55423",
    "type": "Not Used"
  },
  "1589": {
    "name": "INCOMM KERR DRUG",
    "city": "RICHFIELD",
    "state": "MN",
    "zip": "55423",
    "type": "Not Used"
  },
  "1590": {
    "name": "INCOMM KINNEY GIFT",
    "city": "RICHFIELD",
    "state": "MN",
    "zip": "55423",
    "type": "Not Used"
  },
  "1592": {
    "name": "INCOMM LORIS GIFTS",
    "city": "RICHFIELD",
    "state": "MN",
    "zip": "55423",
    "type": "Not Used"
  },
  "1593": {
    "name": "INCOMM WINN DIXIE",
    "city": "RICHFIELD",
    "state": "MN",
    "zip": "55423",
    "type": "Not Used"
  },
  "1635": {
    "name": "SAN DIEGO POOLED LBR",
    "city": "POWAY",
    "state": "CA",
    "zip": "92064",
    "type": "Pooled Labor"
  },
  "1636": {
    "name": "DALLAS POOLED LBR",
    "city": "DALLAS",
    "state": "TX",
    "zip": "75244",
    "type": "Pooled Labor"
  },
  "1637": {
    "name": "MSP LABOR POOL 1",
    "city": "RICHFIELD",
    "state": "MN",
    "zip": "55423",
    "type": "Pooled Labor"
  },
  "1638": {
    "name": "GEEK SQUAD STORE",
    "city": "Minneapolis",
    "state": "MN",
    "zip": "55423",
    "type": "Repair Depot"
  },
  "1639": {
    "name": "INDPLS POOLED LBR",
    "city": "INDIANAPOLIS",
    "state": "IN",
    "zip": "46229",
    "type": "Pooled Labor"
  },
  "1655": {
    "name": "INCOMM SPARTAN",
    "city": "RICHFIELD",
    "state": "MN",
    "zip": "55423",
    "type": "Not Used"
  },
  "1657": {
    "name": "CHINO REFURB FIN GDS",
    "city": "CHINO",
    "state": "CA",
    "zip": "91710",
    "type": "Refurb Open Box FFL"
  },
  "1701": {
    "name": "BREA",
    "city": "Brea",
    "state": "CA",
    "zip": "92821",
    "type": "PAC Standalone Store"
  },
  "1704": {
    "name": "IRVINE",
    "city": "Irvine",
    "state": "CA",
    "zip": "92614",
    "type": "PAC Standalone Store"
  },
  "1705": {
    "name": "RANCHO MIRAGE",
    "city": "Rancho Mirage",
    "state": "CA",
    "zip": "92270",
    "type": "PAC Standalone Store"
  },
  "1706": {
    "name": "SAN JUAN CAPISTRANO",
    "city": "San Juan Capistrano",
    "state": "CA",
    "zip": "92675",
    "type": "PAC Standalone Store"
  },
  "1707": {
    "name": "TORRANCE",
    "city": "Torrance",
    "state": "CA",
    "zip": "90505",
    "type": "PAC Standalone Store"
  },
  "1709": {
    "name": "BURBANK",
    "city": "Burbank",
    "state": "CA",
    "zip": "91502",
    "type": "PAC Standalone Store"
  },
  "1710": {
    "name": "CARLSBAD",
    "city": "Carlsbad",
    "state": "CA",
    "zip": "92011",
    "type": "PAC Standalone Store"
  },
  "1711": {
    "name": "CORONA",
    "city": "Corona",
    "state": "CA",
    "zip": "92881",
    "type": "PAC Standalone Store"
  },
  "1712": {
    "name": "ESCONDIDO",
    "city": "Escondido",
    "state": "CA",
    "zip": "92025",
    "type": "PAC Standalone Store"
  },
  "1713": {
    "name": "SAN DIMAS",
    "city": "San Dimas",
    "state": "CA",
    "zip": "91773",
    "type": "PAC Standalone Store"
  },
  "1714": {
    "name": "TEMECULA",
    "city": "Temecula",
    "state": "CA",
    "zip": "92591",
    "type": "PAC Standalone Store"
  },
  "1715": {
    "name": "WOODLAND HILLS",
    "city": "Woodland Hills",
    "state": "CA",
    "zip": "91367",
    "type": "PAC Standalone Store"
  },
  "1716": {
    "name": "ONTARIO",
    "city": "Ontario",
    "state": "CA",
    "zip": "91764",
    "type": "PAC Standalone Store"
  },
  "1717": {
    "name": "HUNTINGTON BEACH",
    "city": "Huntington Beach",
    "state": "CA",
    "zip": "92649",
    "type": "PAC Standalone Store"
  },
  "1718": {
    "name": "LA JOLLA",
    "city": "San Diego",
    "state": "CA",
    "zip": "92121",
    "type": "PAC Standalone Store"
  },
  "1720": {
    "name": "THOUSAND OAKS",
    "city": "Thousand Oaks",
    "state": "CA",
    "zip": "91320",
    "type": "PAC Standalone Store"
  },
  "1721": {
    "name": "VALENCIA",
    "city": "Valencia",
    "state": "CA",
    "zip": "91355",
    "type": "PAC Standalone Store"
  },
  "1722": {
    "name": "MISSION VALLEY",
    "city": "San Diego",
    "state": "CA",
    "zip": "92110",
    "type": "PAC Standalone Store"
  },
  "1724": {
    "name": "CHATSWORTH",
    "city": "Chatsworth",
    "state": "CA",
    "zip": "91311",
    "type": "PAC Standalone Store"
  },
  "1737": {
    "name": "PASADENA",
    "city": "Pasadena",
    "state": "CA",
    "zip": "91101",
    "type": "PAC Standalone Store"
  },
  "1760": {
    "name": "NORTH ANCHORAGE AK",
    "city": "Anchorage",
    "state": "AK",
    "zip": "99504",
    "type": "Big Box"
  },
  "1763": {
    "name": "LADY LAKE FL",
    "city": "Lady Lake",
    "state": "FL",
    "zip": "32159",
    "type": "Big Box"
  },
  "1764": {
    "name": "DOWNINGTOWN PA",
    "city": "Downingtown",
    "state": "PA",
    "zip": "19335",
    "type": "Big Box"
  },
  "1767": {
    "name": "BLAKENEY NC",
    "city": "Charlotte",
    "state": "NC",
    "zip": "28277",
    "type": "Big Box"
  },
  "1768": {
    "name": "EAST HOUSTON TX",
    "city": "Houston",
    "state": "TX",
    "zip": "77049",
    "type": "Big Box"
  },
  "1769": {
    "name": "OTAY RANCH CA",
    "city": "Chula Vista",
    "state": "CA",
    "zip": "91915",
    "type": "Big Box"
  },
  "1773": {
    "name": "ELDORADO PKWY TX",
    "city": "Frisco",
    "state": "TX",
    "zip": "75033",
    "type": "Big Box"
  },
  "1774": {
    "name": "HIGHLAND IN",
    "city": "Highland",
    "state": "IN",
    "zip": "46322",
    "type": "Big Box"
  },
  "1776": {
    "name": "WOODMORE TWNE CTR MD",
    "city": "Lanham",
    "state": "MD",
    "zip": "20706",
    "type": "Big Box"
  },
  "1780": {
    "name": "ALLEN TX",
    "city": "Allen",
    "state": "TX",
    "zip": "75002",
    "type": "Big Box"
  },
  "1781": {
    "name": "DIBERVILLE MS",
    "city": "Diberville",
    "state": "MS",
    "zip": "39540",
    "type": "Big Box"
  },
  "1784": {
    "name": "WEST MCALLEN TX",
    "city": "McAllen",
    "state": "TX",
    "zip": "78501",
    "type": "Big Box"
  },
  "1787": {
    "name": "MOORE OK",
    "city": "Moore",
    "state": "OK",
    "zip": "73160",
    "type": "Big Box"
  },
  "1790": {
    "name": "SAINT JOHNS FL",
    "city": "Jacksonville",
    "state": "FL",
    "zip": "32246",
    "type": "Big Box"
  },
  "1793": {
    "name": "BRANSON MO",
    "city": "Branson",
    "state": "MO",
    "zip": "65616",
    "type": "Big Box"
  },
  "1794": {
    "name": "SELINSGROVE PA",
    "city": "Selinsgrove",
    "state": "PA",
    "zip": "17870",
    "type": "Big Box"
  },
  "1798": {
    "name": "WHEELING WV",
    "city": "Triadelphia",
    "state": "WV",
    "zip": "26059",
    "type": "Big Box"
  },
  "1800": {
    "name": "HOT SPRINGS AR",
    "city": "Hot Springs",
    "state": "AR",
    "zip": "71913",
    "type": "Big Box"
  },
  "1802": {
    "name": "USO SOUTH NV",
    "city": "LAS VEGAS",
    "state": "NV",
    "zip": "89108",
    "type": "Pooled Labor"
  },
  "1804": {
    "name": "OKL CTY POOLED LABOR",
    "city": "TULSA",
    "state": "OK",
    "zip": "74133",
    "type": "Pooled Labor"
  },
  "1805": {
    "name": "SAN ANT POOLED LABOR",
    "city": "SAN ANTONIO",
    "state": "TX",
    "zip": "78216",
    "type": "Pooled Labor"
  },
  "1806": {
    "name": "USO SCRMNTO RENO",
    "city": "CITRUS HEIGHTS",
    "state": "CA",
    "zip": "95610",
    "type": "Pooled Labor"
  },
  "1807": {
    "name": "USO PORTLAND SALEM",
    "city": "BEAVERTON",
    "state": "OR",
    "zip": "97005",
    "type": "Pooled Labor"
  },
  "1809": {
    "name": "DC BLT Z1 2 POLD LBR",
    "city": "FREDERICKSBURG",
    "state": "VA",
    "zip": "22401",
    "type": "Pooled Labor"
  },
  "1810": {
    "name": "USO DC BALTIMORE",
    "city": "LAUREL",
    "state": "MD",
    "zip": "20707",
    "type": "Pooled Labor"
  },
  "1811": {
    "name": "USO RICHMOND VA BCH",
    "city": "Greenville",
    "state": "SC",
    "zip": "29607",
    "type": "Pooled Labor"
  },
  "1812": {
    "name": "PITTSBURGH POOLD LBR",
    "city": "CRANBERRY TOWNSHIP",
    "state": "PA",
    "zip": "16066",
    "type": "Pooled Labor"
  },
  "1814": {
    "name": "TEXARKANA POOLED LBR",
    "city": "LUBBOCK",
    "state": "TX",
    "zip": "79407",
    "type": "Pooled Labor"
  },
  "1816": {
    "name": "USO CHARLOTTE RLEIGH",
    "city": "Greenville",
    "state": "SC",
    "zip": "29607",
    "type": "Pooled Labor"
  },
  "1817": {
    "name": "CLEVELAND POOLED LBR",
    "city": "CLEVELAND",
    "state": "OH",
    "zip": "44129",
    "type": "Pooled Labor"
  },
  "1818": {
    "name": "USO ID MT WY",
    "city": "Boise",
    "state": "ID",
    "zip": "83709",
    "type": "Pooled Labor"
  },
  "1819": {
    "name": "USO SEATTLE",
    "city": "SPANAWAY",
    "state": "WA",
    "zip": "98387",
    "type": "Pooled Labor"
  },
  "1820": {
    "name": "USO NORTH BAY CA",
    "city": "Pinole",
    "state": "CA",
    "zip": "94564",
    "type": "Pooled Labor"
  },
  "1822": {
    "name": "HAWAII POOLED LABOR",
    "city": "Kapolei",
    "state": "HI",
    "zip": "96707",
    "type": "Pooled Labor"
  },
  "1823": {
    "name": "USO SAN FRANCISCO",
    "city": "Pinole",
    "state": "CA",
    "zip": "94564",
    "type": "Pooled Labor"
  },
  "1824": {
    "name": "PHOENIX POOLED LABOR",
    "city": "PHOENIX",
    "state": "AZ",
    "zip": "85016",
    "type": "Pooled Labor"
  },
  "1825": {
    "name": "USO BKRSFLD FRSNO",
    "city": "BAKERSFIELD",
    "state": "CA",
    "zip": "93312",
    "type": "Pooled Labor"
  },
  "1826": {
    "name": "USO LOS ANGELES",
    "city": "FULLERTON",
    "state": "CA",
    "zip": "92835",
    "type": "Pooled Labor"
  },
  "1830": {
    "name": "DETROIT POOLED LABOR",
    "city": "WYOMING",
    "state": "MI",
    "zip": "49418",
    "type": "Pooled Labor"
  },
  "1831": {
    "name": "USO CHICAGO",
    "city": "DOWNERS GROVE",
    "state": "IL",
    "zip": "60515",
    "type": "Pooled Labor"
  },
  "1836": {
    "name": "USO EAST WA NW MT",
    "city": "SPRINGFIELD",
    "state": "OR",
    "zip": "97477",
    "type": "Pooled Labor"
  },
  "1837": {
    "name": "USO HARRISBURG",
    "city": "Lancaster",
    "state": "PA",
    "zip": "17601",
    "type": "Pooled Labor"
  },
  "1838": {
    "name": "USO PHILADELPHIA",
    "city": "WILLOW GROVE",
    "state": "PA",
    "zip": "19090",
    "type": "Pooled Labor"
  },
  "1840": {
    "name": "USO NEW YORK CITY",
    "city": "WESTBURY",
    "state": "NY",
    "zip": "11590",
    "type": "Pooled Labor"
  },
  "1843": {
    "name": "NY Z4 POOLED LBR",
    "city": "NEWINGTON",
    "state": "NH",
    "zip": "03801",
    "type": "Pooled Labor"
  },
  "1844": {
    "name": "USO DANBURY",
    "city": "HARTSDALE",
    "state": "NY",
    "zip": "10530",
    "type": "Pooled Labor"
  },
  "1850": {
    "name": "USO MILWAUKEE",
    "city": "Downers Grove",
    "state": "IL",
    "zip": "60515",
    "type": "Pooled Labor"
  },
  "1851": {
    "name": "ALBUQUERQUE PLD LBR",
    "city": "EL PASO",
    "state": "TX",
    "zip": "79936",
    "type": "Pooled Labor"
  },
  "1852": {
    "name": "ST LOUIS POOLED LBR",
    "city": "Saint Louis",
    "state": "MO",
    "zip": "63144",
    "type": "Pooled Labor"
  },
  "1857": {
    "name": "TAMPA POOLED LBR",
    "city": "ORLANDO",
    "state": "FL",
    "zip": "32803",
    "type": "Pooled Labor"
  },
  "1858": {
    "name": "MIAMI POOLED LBR",
    "city": "PLANTATION",
    "state": "FL",
    "zip": "33323",
    "type": "Pooled Labor"
  },
  "1859": {
    "name": "NASHVILLE POOLED LBR",
    "city": "Hoover",
    "state": "AL",
    "zip": "35244",
    "type": "Pooled Labor"
  },
  "1860": {
    "name": "ATLANTA POOLED LBR",
    "city": "Snellville",
    "state": "GA",
    "zip": "30078",
    "type": "Pooled Labor"
  },
  "1861": {
    "name": "NEW ORLEANS PLD LBR",
    "city": "COVINGTON",
    "state": "LA",
    "zip": "70433",
    "type": "Pooled Labor"
  },
  "1863": {
    "name": "HOUSTON POOLED LABOR",
    "city": "THW WOODLANDS",
    "state": "TX",
    "zip": "77380",
    "type": "Pooled Labor"
  },
  "1870": {
    "name": "SYRACUSE POOLED LBR",
    "city": "SYRACUSE",
    "state": "NY",
    "zip": "13290",
    "type": "Pooled Labor"
  },
  "1874": {
    "name": "USO BOSTON",
    "city": "FRAMINGHAM",
    "state": "MA",
    "zip": "01701",
    "type": "Pooled Labor"
  },
  "1875": {
    "name": "PUERTO RICO PLD LBR",
    "city": "HATO REY",
    "state": "PR",
    "zip": "00917",
    "type": "Pooled Labor"
  },
  "1878": {
    "name": "USO ALASKA",
    "city": "ANCHORAGE",
    "state": "AK",
    "zip": "99515",
    "type": "Pooled Labor"
  },
  "1886": {
    "name": "GATEWAY BROOKLYN NY",
    "city": "Brooklyn",
    "state": "NY",
    "zip": "11239",
    "type": "Big Box"
  },
  "1887": {
    "name": "FARMINGTON UT",
    "city": "Farmington",
    "state": "UT",
    "zip": "84025",
    "type": "Big Box"
  },
  "1889": {
    "name": "WAXAHACHIE TX",
    "city": "Waxahachie",
    "state": "TX",
    "zip": "75165",
    "type": "Big Box"
  },
  "1890": {
    "name": "OSHKOSH WI",
    "city": "Oshkosh",
    "state": "WI",
    "zip": "54902",
    "type": "Big Box"
  },
  "1892": {
    "name": "WILSON NC",
    "city": "Wilson",
    "state": "NC",
    "zip": "27896",
    "type": "Big Box"
  },
  "1895": {
    "name": "EATONTOWN NJ",
    "city": "Eatontown",
    "state": "NJ",
    "zip": "07724",
    "type": "Big Box"
  },
  "2172": {
    "name": "YB St Louis Park, MN",
    "city": "St Louis Park",
    "state": "MN",
    "zip": "55426",
    "type": "Yardbird Showroom"
  },
  "2173": {
    "name": "YB Lone Tree CO",
    "city": "Lone Tree",
    "state": "CO",
    "zip": "80124",
    "type": "Yardbird Showroom"
  },
  "2174": {
    "name": "YB Overland Park KS",
    "city": "Overland Park",
    "state": "KS",
    "zip": "66209",
    "type": "Yardbird Showroom"
  },
  "2175": {
    "name": "YB Royal Oak MI",
    "city": "Royal Oak",
    "state": "MI",
    "zip": "48073",
    "type": "Yardbird Showroom"
  },
  "2176": {
    "name": "YB North Bethesda MD",
    "city": "Rockville",
    "state": "MD",
    "zip": "20852",
    "type": "Yardbird Showroom"
  },
  "2177": {
    "name": "YB Tysons VA",
    "city": "Vienna",
    "state": "VA",
    "zip": "22182",
    "type": "Yardbird Showroom"
  },
  "2178": {
    "name": "YB King o Prussia PA",
    "city": "King of Prussia",
    "state": "PA",
    "zip": "19406",
    "type": "Yardbird Showroom"
  },
  "2179": {
    "name": "YB Highland Park IL",
    "city": "Highland Park",
    "state": "IL",
    "zip": "60035",
    "type": "Yardbird Showroom"
  },
  "2180": {
    "name": "YB Oakbrook IL",
    "city": "Oakbrook Terrace",
    "state": "IL",
    "zip": "60181",
    "type": "Yardbird Showroom"
  },
  "2181": {
    "name": "YB Scottsdale AZ",
    "city": "Scottsdale",
    "state": "AZ",
    "zip": "85254",
    "type": "Yardbird Showroom"
  },
  "2183": {
    "name": "YB Bellevue WA",
    "city": "Bellevue",
    "state": "WA",
    "zip": "98004",
    "type": "Yardbird Showroom"
  },
  "2184": {
    "name": "YB Framingham MA",
    "city": "Framingham",
    "state": "MA",
    "zip": "01702",
    "type": "Yardbird Showroom"
  },
  "2185": {
    "name": "YB Austin TX",
    "city": "Austin",
    "state": "TX",
    "zip": "78759",
    "type": "Yardbird Showroom"
  },
  "2186": {
    "name": "YB National Sales",
    "city": "Minneapolis",
    "state": "MN",
    "zip": "55401",
    "type": "Yardbird Showroom"
  },
  "2188": {
    "name": "YB Walnut Creek CA",
    "city": "Walnut Creek",
    "state": "CA",
    "zip": "94596",
    "type": "Yardbird Showroom"
  },
  "2191": {
    "name": "RaiseRight",
    "city": "Richfield",
    "state": "MN",
    "zip": "55423",
    "type": "Not Used"
  },
  "2280": {
    "name": "GSCC DALLAS",
    "city": "FLOWER MOUND",
    "state": "TX",
    "zip": "75028",
    "type": "Geek Squad Call Center"
  },
  "2281": {
    "name": "GSCC PERTH",
    "city": "Piscataway",
    "state": "NJ",
    "zip": "08854",
    "type": "Geek Squad Call Center"
  },
  "2320": {
    "name": "AMAZON MARKETPLACE",
    "city": "RICHFIELD",
    "state": "MN",
    "zip": "55423",
    "type": "Marketplace Seller"
  },
  "2354": {
    "name": "GOOGLE EXPRESS",
    "city": "RICHFIELD",
    "state": "MN",
    "zip": "55423",
    "type": "Marketplace Seller"
  },
  "2355": {
    "name": "EBAY MARKETPLACE",
    "city": "RICHFIELD",
    "state": "MN",
    "zip": "55423",
    "type": "Marketplace Seller"
  },
  "2356": {
    "name": "DDC-SHEPHERDSVILLE",
    "city": "SHEPHERDSVILLE",
    "state": "KY",
    "zip": "40165",
    "type": null
  },
  "2358": {
    "name": "DDC-CHARLOTTE",
    "city": "Charlotte",
    "state": "NC",
    "zip": "28214",
    "type": null
  },
  "2369": {
    "name": "YB Frisco TX",
    "city": "Frisco",
    "state": "TX",
    "zip": "75034",
    "type": "Yardbird Showroom"
  },
  "2447": {
    "name": "BURBANK OUTLET",
    "city": "Burbank",
    "state": "IL",
    "zip": "60459",
    "type": "Outlet Center"
  },
  "2450": {
    "name": "INCOMM BKS A MILLION",
    "city": "RICHFIELD",
    "state": "MN",
    "zip": "55423",
    "type": "Not Used"
  },
  "2451": {
    "name": "INCOMM CUMBERLAND FM",
    "city": "RICHFIELD",
    "state": "MN",
    "zip": "55423",
    "type": "Not Used"
  },
  "2452": {
    "name": "INCOMM DOLLAR GNRL",
    "city": "RICHFIELD",
    "state": "MN",
    "zip": "55423",
    "type": "Not Used"
  },
  "2453": {
    "name": "INCOMM FASMART",
    "city": "RICHFIELD",
    "state": "MN",
    "zip": "55423",
    "type": "Not Used"
  },
  "2454": {
    "name": "INCOMM VALERO",
    "city": "RICHFIELD",
    "state": "MN",
    "zip": "55423",
    "type": "Not Used"
  },
  "2455": {
    "name": "IDS E-CARD ACTIVITY",
    "city": "RICHFIELD",
    "state": "MN",
    "zip": "55423",
    "type": "Not Used"
  },
  "2456": {
    "name": "BHN E-CARD ACTIVITY",
    "city": "RICHFIELD",
    "state": "MN",
    "zip": "55423",
    "type": "Not Used"
  },
  "2457": {
    "name": "TW E-CARD ACTIVITY",
    "city": "RICHFIELD",
    "state": "MN",
    "zip": "55423",
    "type": "Not Used"
  },
  "2458": {
    "name": "CONNEXIONS ACTIVITY",
    "city": "RICHFIELD",
    "state": "MN",
    "zip": "55423",
    "type": "Not Used"
  },
  "2459": {
    "name": "NATIONAL GIFT CARD",
    "city": "RICHFIELD",
    "state": "MN",
    "zip": "55423",
    "type": "Not Used"
  },
  "2462": {
    "name": "INCOMM FOOD 4 LESS",
    "city": "RICHFIELD",
    "state": "MN",
    "zip": "55423",
    "type": "Not Used"
  },
  "2463": {
    "name": "INCOMM AAA",
    "city": "RICHFIELD",
    "state": "MN",
    "zip": "55423",
    "type": "Not Used"
  },
  "2464": {
    "name": "SHEP ONLINE RTN STR",
    "city": "SHEPHERDSVILLE",
    "state": "KY",
    "zip": "40165",
    "type": "Online Return Center"
  },
  "2465": {
    "name": "SHEP ECOM OPN BX FFL",
    "city": "Shepherdsville",
    "state": "KY",
    "zip": "40165",
    "type": "Refurb Open Box FFL"
  },
  "2466": {
    "name": "INCOMM HALLMARK",
    "city": "RICHFIELD",
    "state": "MN",
    "zip": "55423",
    "type": "Not Used"
  },
  "2467": {
    "name": "INCOMM KVAT",
    "city": "RICHFIELD",
    "state": "MN",
    "zip": "55423",
    "type": "Not Used"
  },
  "2477": {
    "name": "INCOMM SMID",
    "city": "RICHFIELD",
    "state": "MN",
    "zip": "55423",
    "type": "Not Used"
  },
  "2482": {
    "name": "3RD PRTY FULLFILLMNT",
    "city": "RICHFIELD",
    "state": "MN",
    "zip": "55423",
    "type": "Not Used"
  },
  "2486": {
    "name": "COMPTON REPAIR DEPOT",
    "city": "Los Angeles",
    "state": "CA",
    "zip": "90059",
    "type": "Repair Depot"
  },
  "2488": {
    "name": "E CARDS",
    "city": "RICHFIELD",
    "state": "MN",
    "zip": "55423",
    "type": "Not Used"
  },
  "2501": {
    "name": "TERRE HAUTE IN",
    "city": "Terre Haute",
    "state": "IN",
    "zip": "47802",
    "type": "Big Box"
  },
  "2503": {
    "name": "STILLWATER OK",
    "city": "Stillwater",
    "state": "OK",
    "zip": "74075",
    "type": "Big Box"
  },
  "2506": {
    "name": "MILLBURY MA",
    "city": "Millbury",
    "state": "MA",
    "zip": "01527",
    "type": "Big Box"
  },
  "2507": {
    "name": "ALEXANDRIA LA",
    "city": "Alexandria",
    "state": "LA",
    "zip": "71301",
    "type": "Big Box"
  },
  "2509": {
    "name": "RIVERDALE NJ",
    "city": "Riverdale",
    "state": "NJ",
    "zip": "07457",
    "type": "Big Box"
  },
  "2512": {
    "name": "COLUMBUS IN",
    "city": "Columbus",
    "state": "IN",
    "zip": "47201",
    "type": "Big Box"
  },
  "2514": {
    "name": "ANAHEIM CA",
    "city": "Fullerton",
    "state": "CA",
    "zip": "92832",
    "type": "Big Box"
  },
  "2516": {
    "name": "SOUTHPARK MEADOWS TX",
    "city": "Austin",
    "state": "TX",
    "zip": "78748",
    "type": "Big Box"
  },
  "2517": {
    "name": "MEDFORD OR",
    "city": "Medford",
    "state": "OR",
    "zip": "97504",
    "type": "Big Box"
  },
  "2518": {
    "name": "ATLANTIC CENTER NY",
    "city": "Brooklyn",
    "state": "NY",
    "zip": "11217",
    "type": "Big Box"
  },
  "2552": {
    "name": "ARLINGTON OUTLET",
    "city": "Arlington",
    "state": "TX",
    "zip": "76015",
    "type": "Outlet Center"
  },
  "2598": {
    "name": "VE TP Philippines",
    "city": "Richfield",
    "state": "MN",
    "zip": "55423",
    "type": "Virtual Experience"
  },
  "2599": {
    "name": "VE Alorica Panama",
    "city": "Richfield",
    "state": "MN",
    "zip": "55423",
    "type": "Virtual Experience"
  },
  "2600": {
    "name": "GSC REFURB FIN GDS",
    "city": "Brooks",
    "state": "KY",
    "zip": "40109",
    "type": "Refurb Open Box FFL"
  },
  "2605": {
    "name": "DDC-COMPTON",
    "city": "Los Angeles",
    "state": "CA",
    "zip": "90059",
    "type": null
  },
  "2606": {
    "name": "XDOCK-HAWAII",
    "city": "Kapolei",
    "state": "HI",
    "zip": "96707",
    "type": null
  },
  "2607": {
    "name": "DDC-HOUSTON",
    "city": "Missouri City",
    "state": "TX",
    "zip": "77489",
    "type": null
  },
  "2608": {
    "name": "DDC-PHOENIX",
    "city": "Goodyear",
    "state": "AZ",
    "zip": "85395",
    "type": null
  },
  "2609": {
    "name": "DDC-LANCASTER",
    "city": "Lancaster",
    "state": "TX",
    "zip": "75134",
    "type": null
  },
  "2614": {
    "name": "WATERVLIET AUTO BAY",
    "city": "Watervliet",
    "state": "NY",
    "zip": "12189",
    "type": "Auto Tech Bay"
  },
  "2628": {
    "name": "PINEVILLE SERVICE",
    "city": "Pineville",
    "state": "NC",
    "zip": "28134",
    "type": "Repair Depot"
  },
  "2629": {
    "name": "PHOENIX SERVICE",
    "city": "Goodyear",
    "state": "AZ",
    "zip": "85395",
    "type": "Repair Depot"
  },
  "2630": {
    "name": "CHARLOTTE SERVICE",
    "city": "Charlotte",
    "state": "NC",
    "zip": "28214",
    "type": "Repair Depot"
  },
  "2633": {
    "name": "FARMERS BRNCH OUTLET",
    "city": "Farmers Branch",
    "state": "TX",
    "zip": "75244",
    "type": "Outlet Center"
  },
  "2636": {
    "name": "MAGNOLIA GIFT CARD",
    "city": "RICHFIELD",
    "state": "MN",
    "zip": "55423",
    "type": "Not Used"
  },
  "2640": {
    "name": "BRIDGETON OUTLET",
    "city": "Bridgeton",
    "state": "MO",
    "zip": "63044",
    "type": "Outlet Center"
  },
  "2641": {
    "name": "KENNESAW OUTLET",
    "city": "Kennesaw",
    "state": "GA",
    "zip": "30144",
    "type": "Outlet Center"
  },
  "2642": {
    "name": "OCOEE OUTLET",
    "city": "Ocoee",
    "state": "FL",
    "zip": "34761",
    "type": "Outlet Center"
  },
  "2643": {
    "name": "HOUSTON OUTLET",
    "city": "Houston",
    "state": "TX",
    "zip": "77064",
    "type": "Outlet Center"
  },
  "2644": {
    "name": "EDEN PRAIRIE OUTLET",
    "city": "Eden Prairie",
    "state": "MN",
    "zip": "55344",
    "type": "Outlet Center"
  },
  "2646": {
    "name": "GSC BUSINESS FULFILL",
    "city": "Brooks",
    "state": "KY",
    "zip": "40109",
    "type": "Refurb Open Box FFL"
  },
  "2647": {
    "name": "B2B EGIFT CARD",
    "city": "RICHFIELD",
    "state": "MN",
    "zip": "55423",
    "type": "Not Used"
  },
  "2648": {
    "name": "B2B GC",
    "city": "RICHFIELD",
    "state": "MN",
    "zip": "55423",
    "type": "Not Used"
  },
  "2650": {
    "name": "MONTCLAIR OUTLET",
    "city": "Montclair",
    "state": "CA",
    "zip": "91763",
    "type": "Outlet Center"
  },
  "2651": {
    "name": "MARLTON OUTLET",
    "city": "Marlton",
    "state": "NJ",
    "zip": "08053",
    "type": "Outlet Center"
  },
  "2652": {
    "name": "BROCKTON OUTLET",
    "city": "Brockton",
    "state": "MA",
    "zip": "02301",
    "type": "Outlet Center"
  },
  "2653": {
    "name": "PINEVILLE OUTLET",
    "city": "Pineville",
    "state": "NC",
    "zip": "28134",
    "type": "Outlet Center"
  },
  "2655": {
    "name": "MANASSAS OUTLET",
    "city": "Manassas",
    "state": "VA",
    "zip": "20109",
    "type": "Outlet Center"
  },
  "2659": {
    "name": "BELLFLOWER OUTLET",
    "city": "Bellflower",
    "state": "CA",
    "zip": "90706",
    "type": "Outlet Center"
  },
  "2660": {
    "name": "CCI Durban",
    "city": "Richfield",
    "state": "MN",
    "zip": "55423",
    "type": "Virtual Experience"
  },
  "2662": {
    "name": "BBCC Sitel",
    "city": "RICHFIELD",
    "state": "MN",
    "zip": "55423",
    "type": "Geek Squad Call Center"
  },
  "2667": {
    "name": "VIRTUAL EXPERIENCE",
    "city": "Minneapolis",
    "state": "MN",
    "zip": "55438",
    "type": "Virtual Experience"
  },
  "2670": {
    "name": "ORC WEST",
    "city": "CHINO",
    "state": "CA",
    "zip": "91710",
    "type": "Online Return Center"
  },
  "2673": {
    "name": "SHEPHERDSVILLE SVC",
    "city": "Shepherdsville",
    "state": "KY",
    "zip": "40165",
    "type": "Repair Depot"
  },
  "2674": {
    "name": "BBCC Sales Chat",
    "city": "Richfield",
    "state": "MN",
    "zip": "55423",
    "type": "Geek Squad Call Center"
  },
  "2675": {
    "name": "BBCC Care Chat",
    "city": "Richfield",
    "state": "MN",
    "zip": "55423",
    "type": "Geek Squad Call Center"
  },
  "2676": {
    "name": "VE 247 India Voice",
    "city": "Richfield",
    "state": "MN",
    "zip": "55423",
    "type": "Virtual Experience"
  },
  "2677": {
    "name": "VE 247 India Chat",
    "city": "Richfield",
    "state": "MN",
    "zip": "55423",
    "type": "Virtual Experience"
  },
  "2678": {
    "name": "YB Tampa FL",
    "city": "Tampa",
    "state": "FL",
    "zip": "33609",
    "type": "Yardbird Showroom"
  },
  "2679": {
    "name": "SVC",
    "city": "Lancaster",
    "state": "TX",
    "zip": "75134",
    "type": "Repair Depot"
  },
  "2680": {
    "name": "YB Charlotte NC",
    "city": "Charlotte",
    "state": "NC",
    "zip": "28211",
    "type": "Yardbird Showroom"
  },
  "2681": {
    "name": "GSC Business Sol",
    "city": "Brooks",
    "state": "KY",
    "zip": "40109",
    "type": "Geek Squad Call Center"
  },
  "2685": {
    "name": "YB Cincinnati OH",
    "city": "Cincinnati",
    "state": "OH",
    "zip": "45236",
    "type": "Yardbird Showroom"
  },
  "2686": {
    "name": "YB Palm Beach Grd FL",
    "city": "Palm Beach Gardens",
    "state": "FL",
    "zip": "33410",
    "type": "Yardbird Showroom"
  },
  "2687": {
    "name": "YB Garden City NY",
    "city": "Carle Place",
    "state": "NY",
    "zip": "11514",
    "type": "Yardbird Showroom"
  },
  "2689": {
    "name": "YB Wauwatosa WI",
    "city": "Milwaukee",
    "state": "WI",
    "zip": "53226",
    "type": "Yardbird Showroom"
  },
  "2691": {
    "name": "BROOKFIELD OUTLET",
    "city": "Brookfield",
    "state": "WI",
    "zip": "53005",
    "type": "Outlet Center"
  },
  "2692": {
    "name": "SPRINGDALE OUTLET",
    "city": "Springdale",
    "state": "OH",
    "zip": "45246",
    "type": "Outlet Center"
  },
  "2693": {
    "name": "SAN ANTONIO OUTLET",
    "city": "San Antonio",
    "state": "TX",
    "zip": "78230",
    "type": "Outlet Center"
  },
  "2698": {
    "name": "AUBURN OUTLET",
    "city": "Auburn",
    "state": "WA",
    "zip": "98001",
    "type": "Outlet Center"
  },
  "6501": {
    "name": "RHODE ISLAND CUSTOM",
    "city": "Warwick",
    "state": "RI",
    "zip": "02886",
    "type": "Custom"
  },
  "6502": {
    "name": "COLUMBUS CUSTOM",
    "city": "Dublin",
    "state": "OH",
    "zip": "43016",
    "type": "Custom"
  },
  "6503": {
    "name": "DETROIT CUSTOM",
    "city": "Novi",
    "state": "MI",
    "zip": "48375",
    "type": "Custom"
  },
  "6504": {
    "name": "CLEVELAND CUSTOM",
    "city": "Akron",
    "state": "OH",
    "zip": "44321",
    "type": "Custom"
  },
  "6505": {
    "name": "LOUISVILLE CUSTOM",
    "city": "Louisville",
    "state": "KY",
    "zip": "40207",
    "type": "Custom"
  },
  "6506": {
    "name": "ST LOUIS CUSTOM",
    "city": "Saint Louis",
    "state": "MO",
    "zip": "63144",
    "type": "Custom"
  },
  "6507": {
    "name": "CHARLOTTE CUSTOM",
    "city": "Charlotte",
    "state": "NC",
    "zip": "28216",
    "type": "Custom"
  },
  "6508": {
    "name": "ORLANDO CUSTOM",
    "city": "Winter Garden",
    "state": "FL",
    "zip": "34787",
    "type": "Custom"
  },
  "6509": {
    "name": "JACKSONVILLE CUSTOM",
    "city": "Jacksonville",
    "state": "FL",
    "zip": "32246",
    "type": "Custom"
  },
  "6510": {
    "name": "MODESTO CUSTOM",
    "city": "Modesto",
    "state": "CA",
    "zip": "95356",
    "type": "Custom"
  },
  "6511": {
    "name": "SALT LAKE CUSTOM",
    "city": "Salt Lake City",
    "state": "UT",
    "zip": "84115",
    "type": "Custom"
  },
  "6512": {
    "name": "MEMPHIS CUSTOM",
    "city": "Memphis",
    "state": "TN",
    "zip": "38133",
    "type": "Custom"
  },
  "6513": {
    "name": "SPOKANE CUSTOM",
    "city": "Spokane",
    "state": "WA",
    "zip": "99216",
    "type": "Custom"
  },
  "6514": {
    "name": "PORTLAND CUSTOM",
    "city": "Portland",
    "state": "OR",
    "zip": "97220",
    "type": "Custom"
  },
  "6517": {
    "name": "LAS VEGAS CUSTOM",
    "city": "Henderson",
    "state": "NV",
    "zip": "89014",
    "type": "Custom"
  },
  "6518": {
    "name": "MILWAUKEE CUSTOM",
    "city": "Greenfield",
    "state": "WI",
    "zip": "53220",
    "type": "Custom"
  },
  "6519": {
    "name": "APPLETON CUSTOM",
    "city": "Appleton",
    "state": "WI",
    "zip": "54913",
    "type": "Custom"
  },
  "6520": {
    "name": "SPRINGFIELD CUSTOM",
    "city": "Springfield",
    "state": "MO",
    "zip": "65804",
    "type": "Custom"
  },
  "6521": {
    "name": "GRAND RAPIDS CUSTOM",
    "city": "Grand Rapids",
    "state": "MI",
    "zip": "49546",
    "type": "Custom"
  },
  "6522": {
    "name": "BUFFALO CUSTOM",
    "city": "Amherst",
    "state": "NY",
    "zip": "14228",
    "type": "Custom"
  },
  "6524": {
    "name": "SYRACUSE CUSTOM",
    "city": "Dewitt",
    "state": "NY",
    "zip": "13214",
    "type": "Custom"
  },
  "6528": {
    "name": "LOS ANGELES S CUSTOM",
    "city": "Downey",
    "state": "CA",
    "zip": "90242",
    "type": "Custom"
  },
  "6529": {
    "name": "DUBLIN CUSTOM",
    "city": "Dublin",
    "state": "CA",
    "zip": "94568",
    "type": "Custom"
  },
  "6530": {
    "name": "WASHINGTON CUSTOM",
    "city": "Seattle",
    "state": "WA",
    "zip": "98125",
    "type": "Custom"
  },
  "6531": {
    "name": "SAN FRANCISCO CUSTOM",
    "city": "Dublin",
    "state": "CA",
    "zip": "94568",
    "type": "Custom"
  },
  "6532": {
    "name": "LOS ANGELES CUSTOM",
    "city": "Los Angeles",
    "state": "CA",
    "zip": "90064",
    "type": "Custom"
  },
  "6533": {
    "name": "ILLINOIS CUSTOM",
    "city": "Chicago",
    "state": "IL",
    "zip": "60614",
    "type": "Custom"
  },
  "6534": {
    "name": "MINNESOTA CUSTOM",
    "city": "Richfield",
    "state": "MN",
    "zip": "55423",
    "type": "Custom"
  },
  "6535": {
    "name": "GEORGIA CUSTOM",
    "city": "Atlanta",
    "state": "GA",
    "zip": "30346",
    "type": "Custom"
  },
  "6536": {
    "name": "DALLAS CUSTOM",
    "city": "Dallas",
    "state": "TX",
    "zip": "75231",
    "type": "Custom"
  },
  "6537": {
    "name": "HOUSTON CUSTOM",
    "city": "Houston",
    "state": "TX",
    "zip": "77056",
    "type": "Custom"
  },
  "6538": {
    "name": "AUSTIN CUSTOM",
    "city": "Austin",
    "state": "TX",
    "zip": "78735",
    "type": "Custom"
  },
  "6539": {
    "name": "SAN ANTONIO CUSTOM",
    "city": "San Antonio",
    "state": "TX",
    "zip": "78257",
    "type": "Custom"
  },
  "6541": {
    "name": "ORANGE COUNTY CUSTOM",
    "city": "Costa Mesa",
    "state": "CA",
    "zip": "92626",
    "type": "Custom"
  },
  "6542": {
    "name": "SAN DIEGO CUSTOM",
    "city": "San Diego",
    "state": "CA",
    "zip": "92108",
    "type": "Custom"
  },
  "6543": {
    "name": "MARYLAND CUSTOM",
    "city": "Elkridge",
    "state": "MD",
    "zip": "21075",
    "type": "Custom"
  },
  "6544": {
    "name": "BALTIMORE CUSTOM",
    "city": "Springfield",
    "state": "VA",
    "zip": "22150",
    "type": "Custom"
  },
  "6545": {
    "name": "ROSEVILLE CUSTOM",
    "city": "Roseville",
    "state": "CA",
    "zip": "95678",
    "type": "Custom"
  },
  "6546": {
    "name": "SANTA ROSA CUSTOM",
    "city": "Santa Rosa",
    "state": "CA",
    "zip": "95407",
    "type": "Custom"
  },
  "6547": {
    "name": "PHILADELPHIA CUSTOM",
    "city": "Plymouth Meeting",
    "state": "PA",
    "zip": "19462",
    "type": "Custom"
  },
  "6548": {
    "name": "LOUISIANA CUSTOM",
    "city": "Baton Rouge",
    "state": "LA",
    "zip": "70836",
    "type": "Custom"
  },
  "6549": {
    "name": "SW FLORIDA CUSTOM",
    "city": "Naples",
    "state": "FL",
    "zip": "34109",
    "type": "Custom"
  },
  "6551": {
    "name": "SOUTH MIAMI CUSTOM",
    "city": "Miami",
    "state": "FL",
    "zip": "33143",
    "type": "Custom"
  },
  "6552": {
    "name": "MIDLAND CUSTOM",
    "city": "Midland",
    "state": "TX",
    "zip": "79705",
    "type": "Custom"
  },
  "6553": {
    "name": "TAMPA CUSTOM",
    "city": "Tampa",
    "state": "FL",
    "zip": "33607",
    "type": "Custom"
  },
  "6554": {
    "name": "OKLAHOMA CITY CUSTOM",
    "city": "Oklahoma City",
    "state": "OK",
    "zip": "73134",
    "type": "Custom"
  },
  "6555": {
    "name": "WISCONSIN CUSTOM",
    "city": "Madison",
    "state": "WI",
    "zip": "85260",
    "type": "Custom"
  },
  "6556": {
    "name": "ARIZONA CUSTOM",
    "city": "Scottsdale",
    "state": "AZ",
    "zip": "85260",
    "type": "Custom"
  },
  "6558": {
    "name": "CONNECTICUT CUSTOM",
    "city": "Norwalk",
    "state": "CT",
    "zip": "06854",
    "type": "Custom"
  },
  "6559": {
    "name": "MANHATTAN CUSTOM",
    "city": "New York",
    "state": "NY",
    "zip": "10023",
    "type": "Custom"
  },
  "6561": {
    "name": "ALBANY CUSTOM",
    "city": "Albany",
    "state": "NY",
    "zip": "12203",
    "type": "Custom"
  },
  "6562": {
    "name": "LONG ISLAND CUSTOM",
    "city": "Westbury",
    "state": "NY",
    "zip": "11590",
    "type": "Custom"
  },
  "6563": {
    "name": "NEW JERSEY CUSTOM",
    "city": "Paramus",
    "state": "NJ",
    "zip": "07652",
    "type": "Custom"
  },
  "6564": {
    "name": "NASHVILLE CUSTOM",
    "city": "Brentwood",
    "state": "TN",
    "zip": "37027",
    "type": "Custom"
  },
  "6565": {
    "name": "KNOXVILLE CUSTOM",
    "city": "Knoxville",
    "state": "TN",
    "zip": "37923",
    "type": "Custom"
  },
  "6566": {
    "name": "KANSAS CITY CUSTOM",
    "city": "Overland Park",
    "state": "KS",
    "zip": "66210",
    "type": "Custom"
  },
  "6567": {
    "name": "BOSTON CUSTOM",
    "city": "Framingham",
    "state": "MA",
    "zip": "01701",
    "type": "Custom"
  },
  "6568": {
    "name": "NEW HAMPSHIRE CUSTOM",
    "city": "Newington",
    "state": "NH",
    "zip": "03801",
    "type": "Custom"
  },
  "6569": {
    "name": "DENVER CUSTOM",
    "city": "Lone Tree",
    "state": "CO",
    "zip": "80124",
    "type": "Custom"
  },
  "6573": {
    "name": "COLORADO SPR CUSTOM",
    "city": "Colorado Springs",
    "state": "CO",
    "zip": "80920",
    "type": "Custom"
  },
  "6574": {
    "name": "TULSA CUSTOM",
    "city": "Tulsa",
    "state": "OK",
    "zip": "74133",
    "type": "Custom"
  },
  "6575": {
    "name": "NRTH CAROLINA CUSTOM",
    "city": "Cary",
    "state": "NC",
    "zip": "27518",
    "type": "Custom"
  },
  "6576": {
    "name": "SAN JOSE CUSTOM",
    "city": "Mountain View",
    "state": "CA",
    "zip": "94040",
    "type": "Custom"
  },
  "6577": {
    "name": "NORTH MIAMI CUSTOM",
    "city": "Boca Raton",
    "state": "FL",
    "zip": "33498",
    "type": "Custom"
  },
  "6578": {
    "name": "W PALM BEACH CUSTOM",
    "city": "Palm Beach Gardens",
    "state": "FL",
    "zip": "33410",
    "type": "Custom"
  },
  "6579": {
    "name": "LAFAYETTE CUSTOM",
    "city": "Lafayette",
    "state": "LA",
    "zip": "70503",
    "type": "Custom"
  },
  "6580": {
    "name": "NEW ORLEANS CUSTOM",
    "city": "Metairie",
    "state": "LA",
    "zip": "70003",
    "type": "Custom"
  },
  "7001": {
    "name": "RP Samsung HT",
    "city": "Richfield",
    "state": "MN",
    "zip": "55423",
    "type": "Specialty Labor"
  },
  "7002": {
    "name": "RP Samsung Appliance",
    "city": "Richfield",
    "state": "MN",
    "zip": "55423",
    "type": "Specialty Labor"
  },
  "7003": {
    "name": "RP Lively",
    "city": "Richfield",
    "state": "MN",
    "zip": "55423",
    "type": "Specialty Labor"
  },
  "7004": {
    "name": "RP Car and eTran",
    "city": "Richfield",
    "state": "MN",
    "zip": "55423",
    "type": "Specialty Labor"
  },
  "7005": {
    "name": "RP Oregon",
    "city": "Richfield",
    "state": "MN",
    "zip": "55423",
    "type": "Specialty Labor"
  },
  "7006": {
    "name": "RP LA",
    "city": "Richfield",
    "state": "MN",
    "zip": "55423",
    "type": "Specialty Labor"
  },
  "7007": {
    "name": "RP San Fran",
    "city": "Richfield",
    "state": "MN",
    "zip": "55423",
    "type": "Specialty Labor"
  },
  "7008": {
    "name": "RP Chicago",
    "city": "Richfield",
    "state": "MN",
    "zip": "55423",
    "type": "Specialty Labor"
  },
  "7009": {
    "name": "RP Evanston",
    "city": "Richfield",
    "state": "MN",
    "zip": "55423",
    "type": "Specialty Labor"
  },
  "7010": {
    "name": "RP Philly",
    "city": "Richfield",
    "state": "MN",
    "zip": "55423",
    "type": "Specialty Labor"
  },
  "7011": {
    "name": "RP NYC",
    "city": "Richfield",
    "state": "MN",
    "zip": "55423",
    "type": "Specialty Labor"
  },
  "7012": {
    "name": "RP Seattle",
    "city": "Richfield",
    "state": "MN",
    "zip": "55423",
    "type": "Specialty Labor"
  },
  "7013": {
    "name": "RP Health and Well",
    "city": "Richfield",
    "state": "MN",
    "zip": "55423",
    "type": "Specialty Labor"
  },
  "7014": {
    "name": "RP TCL",
    "city": "Richfield",
    "state": "MN",
    "zip": "55423",
    "type": "Specialty Labor"
  },
  "7015": {
    "name": "RP Verizon",
    "city": "Richfield",
    "state": "MN",
    "zip": "55423",
    "type": "Specialty Labor"
  },
  "7016": {
    "name": "RP LG HT",
    "city": "Richfield",
    "state": "MN",
    "zip": "55423",
    "type": "Specialty Labor"
  },
  "7017": {
    "name": "RP LG Appliance",
    "city": "Richfield",
    "state": "MN",
    "zip": "55423",
    "type": "Specialty Labor"
  },
  "7018": {
    "name": "RP Sony HT",
    "city": "Richfield",
    "state": "MN",
    "zip": "55423",
    "type": "Specialty Labor"
  },
  "7019": {
    "name": "RP Microsoft",
    "city": "Richfield",
    "state": "MN",
    "zip": "55423",
    "type": "Specialty Labor"
  },
  "7020": {
    "name": "RP Alienware",
    "city": "Richfield",
    "state": "MN",
    "zip": "55423",
    "type": "Specialty Labor"
  },
  "7021": {
    "name": "RP Sonos Premium HT",
    "city": "Richfield",
    "state": "MN",
    "zip": "55423",
    "type": "Specialty Labor"
  },
  "7022": {
    "name": "RP Masimo Premium HT",
    "city": "Richfield",
    "state": "MN",
    "zip": "55423",
    "type": "Specialty Labor"
  },
  "7023": {
    "name": "RP JBL Premium HT",
    "city": "Richfield",
    "state": "MN",
    "zip": "55423",
    "type": "Specialty Labor"
  },
  "7024": {
    "name": "RP Apple PR",
    "city": "Richfield",
    "state": "MN",
    "zip": "55423",
    "type": "Specialty Labor"
  },
  "7025": {
    "name": "RP Digital Imaging",
    "city": "Richfield",
    "state": "MN",
    "zip": "55423",
    "type": "Specialty Labor"
  },
  "7027": {
    "name": "RP Amazon",
    "city": "Richfield",
    "state": "MN",
    "zip": "55423",
    "type": "Specialty Labor"
  },
  "7028": {
    "name": "RP Puerto Rico",
    "city": "San Juan",
    "state": "PR",
    "zip": "00918",
    "type": "Specialty Labor"
  },
  "7030": {
    "name": "RP Hisense",
    "city": "Richfield",
    "state": "MN",
    "zip": "55423",
    "type": "Specialty Labor"
  },
  "7031": {
    "name": "RP Android",
    "city": "Richfield",
    "state": "MN",
    "zip": "55423",
    "type": "Specialty Labor"
  },
  "7032": {
    "name": "RP Chromebook",
    "city": "Richfield",
    "state": "MN",
    "zip": "55423",
    "type": "Specialty Labor"
  },
  "7033": {
    "name": "RP Headphones",
    "city": "Richfield",
    "state": "MN",
    "zip": "55423",
    "type": "Specialty Labor"
  },
  "7034": {
    "name": "RP AT&T",
    "city": "Richfield",
    "state": "MN",
    "zip": "55423",
    "type": "Specialty Labor"
  },
  "7035": {
    "name": "RP Small Appliances",
    "city": "Richfield",
    "state": "MN",
    "zip": "55423",
    "type": "Specialty Labor"
  },
  "7036": {
    "name": "RP Theater District",
    "city": "Richfield",
    "state": "MN",
    "zip": "55423",
    "type": "Specialty Labor"
  },
  "9031": {
    "name": "VDDC 74 ST LOUIS",
    "city": "Saint Peters",
    "state": "MO",
    "zip": "63376",
    "type": null
  },
  "9032": {
    "name": "VDDC 75 FLOWER MOUND",
    "city": "Flower Mound",
    "state": "TX",
    "zip": "75028",
    "type": null
  },
  "9034": {
    "name": "VDDC 78 MINNEAPOLIS",
    "city": "Bloomington",
    "state": "MN",
    "zip": "55438",
    "type": null
  },
  "9035": {
    "name": "VDDC 79 DENVER",
    "city": "Aurora",
    "state": "CO",
    "zip": "80019",
    "type": null
  },
  "9037": {
    "name": "VDDC 710 CHICAGO",
    "city": "Bolingbrook",
    "state": "IL",
    "zip": "60490",
    "type": null
  },
  "9040": {
    "name": "VDDC 715 NEW YORK",
    "city": "Piscataway",
    "state": "NJ",
    "zip": "08854",
    "type": null
  },
  "9042": {
    "name": "VDDC 718 ATLANTA",
    "city": "Buford",
    "state": "GA",
    "zip": "30518",
    "type": null
  },
  "9044": {
    "name": "VDDC 722 BALTIMORE",
    "city": "Curtis Bay",
    "state": "MD",
    "zip": "21226",
    "type": null
  },
  "9045": {
    "name": "VDDC 723 CLEVELAND",
    "city": "Richfield",
    "state": "OH",
    "zip": "44286",
    "type": null
  },
  "9046": {
    "name": "VDDC 724 ONTARIO",
    "city": "Ontario",
    "state": "CA",
    "zip": "91764",
    "type": null
  },
  "9047": {
    "name": "VDDC 726 BOSTON",
    "city": "Bellingham",
    "state": "MA",
    "zip": "02019",
    "type": null
  },
  "9048": {
    "name": "VDDC 728 ORLANDO",
    "city": "Polk City",
    "state": "FL",
    "zip": "33868",
    "type": null
  },
  "9049": {
    "name": "VDDC 729 SAN FRAN",
    "city": "Tracy",
    "state": "CA",
    "zip": "95377",
    "type": null
  },
  "9051": {
    "name": "VDDC 734 SEATTLE",
    "city": "Spanaway",
    "state": "WA",
    "zip": "98387",
    "type": null
  },
  "9054": {
    "name": "VXDK 2606 HAWAII",
    "city": "Kapolei",
    "state": "HI",
    "zip": "96707",
    "type": null
  },
  "9055": {
    "name": "VDDC 2607 HOUSTON",
    "city": "Missouri City",
    "state": "TX",
    "zip": "77489",
    "type": null
  },
  "9149": {
    "name": "VDDC 2605 COMPTON",
    "city": "Los Angeles",
    "state": "CA",
    "zip": "90059",
    "type": null
  },
  "9157": {
    "name": "VDDC 2608 PHOENIX",
    "city": "Goodyear",
    "state": "AZ",
    "zip": "85395",
    "type": null
  },
  "9159": {
    "name": "VDDC 2356 SHEPHDVLLE",
    "city": "SHEPHERDSVILLE",
    "state": "KY",
    "zip": "40165",
    "type": null
  },
  "9162": {
    "name": "VDDC 2358 Charlotte",
    "city": "Charlotte",
    "state": "NC",
    "zip": "28214",
    "type": null
  },
  "9166": {
    "name": "VDDC 2609 LANCASTER",
    "city": "Lancaster",
    "state": "TX",
    "zip": "75134",
    "type": null
  },
  "9702": {
    "name": "VS DDC 74 STL PKUP",
    "city": "EARTH CITY",
    "state": "MO",
    "zip": "63045",
    "type": "Virtual Experience"
  },
  "9703": {
    "name": "VS DDC 75 DLS PKUP",
    "city": "FLOWER MOUND",
    "state": "TX",
    "zip": "75028",
    "type": "Virtual Experience"
  },
  "9704": {
    "name": "VS RDC 77 ARD PKUP",
    "city": "ARDMORE",
    "state": "OK",
    "zip": "73401",
    "type": "Virtual Experience"
  },
  "9705": {
    "name": "VS DDC 78 BLM PKUP",
    "city": "BLOOMINGTON",
    "state": "MN",
    "zip": "55438",
    "type": "Virtual Experience"
  },
  "9706": {
    "name": "VS DDC 79 DEN PKUP",
    "city": "AURORA",
    "state": "CO",
    "zip": "80019",
    "type": "Virtual Experience"
  },
  "9707": {
    "name": "VS RDC 84 STN PKUP",
    "city": "STAUNTON",
    "state": "VA",
    "zip": "24401",
    "type": "Virtual Experience"
  },
  "9708": {
    "name": "VS RDC 87 FND PKUP",
    "city": "FINDLAY",
    "state": "OH",
    "zip": "45840",
    "type": "Virtual Experience"
  },
  "9709": {
    "name": "VS DDC 710 CHG PKUP",
    "city": "CAROL STREAM",
    "state": "IL",
    "zip": "60188",
    "type": "Virtual Experience"
  },
  "9710": {
    "name": "VS DDC 715 NY PKUP",
    "city": "EDISON",
    "state": "NJ",
    "zip": "08817",
    "type": "Virtual Experience"
  },
  "9711": {
    "name": "VS RDC 717 DUB PKUP",
    "city": "DUBLIN",
    "state": "GA",
    "zip": "31021",
    "type": "Virtual Experience"
  },
  "9712": {
    "name": "VS DDC 718 ATL PKUP",
    "city": "Buford",
    "state": "GA",
    "zip": "30518",
    "type": "Virtual Experience"
  },
  "9713": {
    "name": "VS DDC 722 BAL PKUP",
    "city": "ELKRIDGE",
    "state": "MD",
    "zip": "21075",
    "type": "Virtual Experience"
  },
  "9714": {
    "name": "VS DDC 723 CLV PKUP",
    "city": "GLENWILLOW",
    "state": "OH",
    "zip": "44139",
    "type": "Virtual Experience"
  },
  "9715": {
    "name": "VS DDC 724 LA PKUP",
    "city": "Ontario",
    "state": "CA",
    "zip": "91764",
    "type": "Virtual Experience"
  },
  "9716": {
    "name": "VS RDC 725 DIN PKUP",
    "city": "DINUBA",
    "state": "CA",
    "zip": "93618",
    "type": "Virtual Experience"
  },
  "9717": {
    "name": "VS DDC 726 BOS PKUP",
    "city": "MANSFIELD",
    "state": "MA",
    "zip": "02048",
    "type": "Virtual Experience"
  },
  "9718": {
    "name": "VS DDC 728 ORL PKUP",
    "city": "WESTON",
    "state": "FL",
    "zip": "33326",
    "type": "Virtual Experience"
  },
  "9719": {
    "name": "VS DDC 729 SF PKUP",
    "city": "LIVERMORE",
    "state": "CA",
    "zip": "94551",
    "type": "Virtual Experience"
  },
  "9720": {
    "name": "VS DDC 734 SEA PKUP",
    "city": "Spanaway",
    "state": "WA",
    "zip": "98387",
    "type": "Virtual Experience"
  },
  "9722": {
    "name": "VS RDC 781 NIC PKUP",
    "city": "NICHOLS",
    "state": "NY",
    "zip": "13812",
    "type": "Virtual Experience"
  },
  "9723": {
    "name": "VS RDC 87 FIN .COM",
    "city": "FINDLAY",
    "state": "OH",
    "zip": "45840",
    "type": "Virtual Experience"
  },
  "9725": {
    "name": "VS DDC 74 STL .COM",
    "city": "EARTH CITY",
    "state": "MO",
    "zip": "63045",
    "type": "Virtual Experience"
  },
  "9726": {
    "name": "VS DDC 75 DLS .COM",
    "city": "FLOWER MOUND",
    "state": "TX",
    "zip": "75028",
    "type": "Virtual Experience"
  },
  "9727": {
    "name": "VS DDC 78 BLM .COM",
    "city": "BLOOMINGTON",
    "state": "MN",
    "zip": "55438",
    "type": "Virtual Experience"
  },
  "9728": {
    "name": "VS DDC 79 DEN .COM",
    "city": "AURORA",
    "state": "CO",
    "zip": "80019",
    "type": "Virtual Experience"
  },
  "9729": {
    "name": "VS DDC 710 CHG .COM",
    "city": "CAROL STREAM",
    "state": "IL",
    "zip": "60188",
    "type": "Virtual Experience"
  },
  "9730": {
    "name": "VS DDC 715 NY .COM",
    "city": "EDISON",
    "state": "NJ",
    "zip": "08817",
    "type": "Virtual Experience"
  },
  "9731": {
    "name": "VS DDC 718 ATL .COM",
    "city": "Buford",
    "state": "GA",
    "zip": "30518",
    "type": "Virtual Experience"
  },
  "9732": {
    "name": "VS DDC 722 BAL .COM",
    "city": "ELKRIDGE",
    "state": "MD",
    "zip": "21075",
    "type": "Virtual Experience"
  },
  "9733": {
    "name": "VS DDC 723 CLV .COM",
    "city": "GLENWILLOW",
    "state": "OH",
    "zip": "44139",
    "type": "Virtual Experience"
  },
  "9734": {
    "name": "VS DDC 724 LA .COM",
    "city": "Ontario",
    "state": "CA",
    "zip": "91764",
    "type": "Virtual Experience"
  },
  "9735": {
    "name": "VS DDC 726 BOS .COM",
    "city": "MANSFIELD",
    "state": "MA",
    "zip": "02048",
    "type": "Virtual Experience"
  },
  "9736": {
    "name": "VS DDC 728 ORL .COM",
    "city": "WESTON",
    "state": "FL",
    "zip": "33326",
    "type": "Virtual Experience"
  },
  "9737": {
    "name": "VS DDC 729 SF .COM",
    "city": "LIVERMORE",
    "state": "CA",
    "zip": "94551",
    "type": "Virtual Experience"
  },
  "9738": {
    "name": "VS DDC 734 SEA .COM",
    "city": "Spanaway",
    "state": "WA",
    "zip": "98387",
    "type": "Virtual Experience"
  },
  "9740": {
    "name": "VS DDC 74 STL DLV",
    "city": "EARTH CITY",
    "state": "MO",
    "zip": "63045",
    "type": "Virtual Experience"
  },
  "9741": {
    "name": "VS DDC 75 DLS DLV",
    "city": "FLOWER MOUND",
    "state": "TX",
    "zip": "75028",
    "type": "Virtual Experience"
  },
  "9742": {
    "name": "VS RDC 77 ARD DLV",
    "city": "ARDMORE",
    "state": "OK",
    "zip": "73401",
    "type": "Virtual Experience"
  },
  "9743": {
    "name": "VS DDC 78 BLM DLV",
    "city": "BLOOMINGTON",
    "state": "MN",
    "zip": "55438",
    "type": "Virtual Experience"
  },
  "9744": {
    "name": "VS DDC 79 DEN DLV",
    "city": "AURORA",
    "state": "CO",
    "zip": "80019",
    "type": "Virtual Experience"
  },
  "9745": {
    "name": "VS RDC 84 STN DLV",
    "city": "STAUNTON",
    "state": "VA",
    "zip": "24401",
    "type": "Virtual Experience"
  },
  "9746": {
    "name": "VS RDC 87 FND DLV",
    "city": "FINDLAY",
    "state": "OH",
    "zip": "45840",
    "type": "Virtual Experience"
  },
  "9747": {
    "name": "VS DDC 710 CHG DLV",
    "city": "CAROL STREAM",
    "state": "IL",
    "zip": "60188",
    "type": "Virtual Experience"
  },
  "9748": {
    "name": "VS DDC 715 NY DLV",
    "city": "EDISON",
    "state": "NJ",
    "zip": "08817",
    "type": "Virtual Experience"
  },
  "9749": {
    "name": "VS RDC 717 DUB DLV",
    "city": "DUBLIN",
    "state": "GA",
    "zip": "31021",
    "type": "Virtual Experience"
  },
  "9750": {
    "name": "VS DDC 718 ATL DLV",
    "city": "Buford",
    "state": "GA",
    "zip": "30518",
    "type": "Virtual Experience"
  },
  "9751": {
    "name": "VS DDC 722 BLT DLV",
    "city": "ELKRIDGE",
    "state": "MD",
    "zip": "21075",
    "type": "Virtual Experience"
  },
  "9752": {
    "name": "VS DDC 723 CLV DLV",
    "city": "GLENWILLOW",
    "state": "OH",
    "zip": "44139",
    "type": "Virtual Experience"
  },
  "9753": {
    "name": "VS DDC 724 LA DLV",
    "city": "Ontario",
    "state": "CA",
    "zip": "91764",
    "type": "Virtual Experience"
  },
  "9754": {
    "name": "VS RDC 725 DIN DLV",
    "city": "DINUBA",
    "state": "CA",
    "zip": "93618",
    "type": "Virtual Experience"
  },
  "9755": {
    "name": "VS DDC 726 BST DLV",
    "city": "MANSFIELD",
    "state": "MA",
    "zip": "02048",
    "type": "Virtual Experience"
  },
  "9756": {
    "name": "VS DDC 728 ORL DLV",
    "city": "WESTON",
    "state": "FL",
    "zip": "33326",
    "type": "Virtual Experience"
  },
  "9757": {
    "name": "VS DDC 729 SF DLV",
    "city": "LIVERMORE",
    "state": "CA",
    "zip": "94550",
    "type": "Virtual Experience"
  },
  "9758": {
    "name": "VS DDC 734 SEA DLV",
    "city": "Spanaway",
    "state": "WA",
    "zip": "98387",
    "type": "Virtual Experience"
  },
  "9760": {
    "name": "VS RDC 781 NIC DLV",
    "city": "NICHOLS",
    "state": "NY",
    "zip": "13812",
    "type": "Virtual Experience"
  },
  "9761": {
    "name": "VS Xdock 1359 PR DLV",
    "city": "CAGUAS",
    "state": "PR",
    "zip": "00725",
    "type": "Virtual Experience"
  },
  "9771": {
    "name": "VS RDC 77 ARD .COM",
    "city": "ARDMORE",
    "state": "OK",
    "zip": "73401",
    "type": "Virtual Experience"
  },
  "9772": {
    "name": "VS RDC 84 STN .COM",
    "city": "STAUNTON",
    "state": "VA",
    "zip": "24401",
    "type": "Virtual Experience"
  },
  "9773": {
    "name": "VS RDC 717 DUB .COM",
    "city": "DUBLIN",
    "state": "GA",
    "zip": "31021",
    "type": "Virtual Experience"
  },
  "9774": {
    "name": "VS RDC 725 DIN .COM",
    "city": "DINUBA",
    "state": "CA",
    "zip": "93618",
    "type": "Virtual Experience"
  },
  "9775": {
    "name": "VS RDC 781 NIC .COM",
    "city": "NICHOLS",
    "state": "NY",
    "zip": "13812",
    "type": "Virtual Experience"
  },
  "9776": {
    "name": "VS Xdock 1359 PR PKU",
    "city": "CAGUAS",
    "state": "PR",
    "zip": "00725",
    "type": "Virtual Experience"
  },
  "9778": {
    "name": "VS DDC 74 PAC",
    "city": "EARTH CITY",
    "state": "MO",
    "zip": "63045",
    "type": "Virtual Experience"
  },
  "9779": {
    "name": "VS DDC 75 PAC",
    "city": "FLOWER MOUND",
    "state": "TX",
    "zip": "75028",
    "type": "Virtual Experience"
  },
  "9780": {
    "name": "VS DDC 78 PAC",
    "city": "BLOOMINGTON",
    "state": "MN",
    "zip": "55438",
    "type": "Virtual Experience"
  },
  "9781": {
    "name": "VS DDC 79 PAC",
    "city": "AURORA",
    "state": "CO",
    "zip": "80019",
    "type": "Virtual Experience"
  },
  "9782": {
    "name": "VS DDC 710 PAC",
    "city": "CAROL STREAM",
    "state": "IL",
    "zip": "60188",
    "type": "Virtual Experience"
  },
  "9783": {
    "name": "VS DDC 715 PAC",
    "city": "EDISON",
    "state": "NJ",
    "zip": "08817",
    "type": "Virtual Experience"
  },
  "9784": {
    "name": "VS DDC 718 PAC",
    "city": "Buford",
    "state": "GA",
    "zip": "30518",
    "type": "Virtual Experience"
  },
  "9785": {
    "name": "VS DDC 722 PAC",
    "city": "ELKRIDGE",
    "state": "MD",
    "zip": "21075",
    "type": "Virtual Experience"
  },
  "9786": {
    "name": "VS DDC 723 PAC",
    "city": "GLENWILLOW",
    "state": "OH",
    "zip": "44139",
    "type": "Virtual Experience"
  },
  "9787": {
    "name": "VS DDC 724 PAC",
    "city": "Ontario",
    "state": "CA",
    "zip": "91764",
    "type": "Virtual Experience"
  },
  "9788": {
    "name": "VS DDC 726 PAC",
    "city": "MANSFIELD",
    "state": "MA",
    "zip": "02048",
    "type": "Virtual Experience"
  },
  "9789": {
    "name": "VS DDC 728 ORL PAC",
    "city": "WESTON",
    "state": "FL",
    "zip": "33326",
    "type": "Virtual Experience"
  },
  "9790": {
    "name": "VS DDC 729 PAC",
    "city": "LIVERMORE",
    "state": "CA",
    "zip": "94551",
    "type": "Virtual Experience"
  },
  "9791": {
    "name": "VS DDC 734 PAC",
    "city": "Spanaway",
    "state": "WA",
    "zip": "98387",
    "type": "Virtual Experience"
  },
  "9793": {
    "name": "VS RDC 77 PAC",
    "city": "ARDMORE",
    "state": "OK",
    "zip": "73401",
    "type": "Virtual Experience"
  },
  "9794": {
    "name": "VS RDC 84 PAC",
    "city": "STAUNTON",
    "state": "VA",
    "zip": "24401",
    "type": "Virtual Experience"
  },
  "9795": {
    "name": "VS RDC 87 PAC",
    "city": "FINDLAY",
    "state": "OH",
    "zip": "45840",
    "type": "Virtual Experience"
  },
  "9796": {
    "name": "VS RDC 717 PAC",
    "city": "DUBLIN",
    "state": "GA",
    "zip": "31021",
    "type": "Virtual Experience"
  },
  "9797": {
    "name": "VS RDC 725 PAC",
    "city": "DINUBA",
    "state": "CA",
    "zip": "93618",
    "type": "Virtual Experience"
  },
  "9798": {
    "name": "VS RDC 781 PAC",
    "city": "NICHOLS",
    "state": "NY",
    "zip": "13812",
    "type": "Virtual Experience"
  },
  "9800": {
    "name": "VS DDC 2605 CMPT PKU",
    "city": "LOS ANGELES",
    "state": "CA",
    "zip": "90059",
    "type": "Virtual Experience"
  },
  "9801": {
    "name": "VS DDC 2605 CMPT STR",
    "city": "LOS ANGELES",
    "state": "CA",
    "zip": "90059",
    "type": "Virtual Experience"
  },
  "9802": {
    "name": "VS DDC 2605 CMPT DLV",
    "city": "LOS ANGELES",
    "state": "CA",
    "zip": "90059",
    "type": "Virtual Experience"
  },
  "9803": {
    "name": "VS DDC 2605 CMPt PAC",
    "city": "LOS ANGELES",
    "state": "CA",
    "zip": "90059",
    "type": "Virtual Experience"
  },
  "9805": {
    "name": "VS DPAD 733 KC DLV",
    "city": "LENEXA",
    "state": "KS",
    "zip": "66215",
    "type": "Virtual Experience"
  },
  "9806": {
    "name": "VS DPAD 736 IND DLV",
    "city": "INDIANAPOLIS",
    "state": "IN",
    "zip": "46203",
    "type": "Virtual Experience"
  },
  "9807": {
    "name": "VS DPAD 738 SM DLV",
    "city": "SAN MARCOS",
    "state": "TX",
    "zip": "78666",
    "type": "Virtual Experience"
  },
  "9808": {
    "name": "VS DPAD 743 PITT DLV",
    "city": "LEETSDALE",
    "state": "PA",
    "zip": "15056",
    "type": "Virtual Experience"
  },
  "9809": {
    "name": "VS DPAD 744 CIN DLV",
    "city": "WEST CHESTER",
    "state": "OH",
    "zip": "45069",
    "type": "Virtual Experience"
  },
  "9811": {
    "name": "VS DPAD 747 DET DLV",
    "city": "ROMULUS",
    "state": "MI",
    "zip": "48174",
    "type": "Virtual Experience"
  },
  "9813": {
    "name": "VS DPAD 749 LV DLV",
    "city": "LAS VEGAS",
    "state": "NV",
    "zip": "89120",
    "type": "Virtual Experience"
  },
  "9814": {
    "name": "VS DPAD 750 POR DLV",
    "city": "PORTLAND",
    "state": "OR",
    "zip": "97210",
    "type": "Virtual Experience"
  },
  "9815": {
    "name": "VS DPAD 751 MIA DLV",
    "city": "MEDLEY",
    "state": "FL",
    "zip": "33178",
    "type": "Virtual Experience"
  },
  "9816": {
    "name": "VS DPAD 754 COL DLV",
    "city": "COLUMBUS",
    "state": "OH",
    "zip": "43229",
    "type": "Virtual Experience"
  },
  "9817": {
    "name": "VS DPAD NOR 1319 DLV",
    "city": "HAMMOND",
    "state": "LA",
    "zip": "70403",
    "type": "Virtual Experience"
  },
  "9818": {
    "name": "VS DPAD PHI 2448 DLV",
    "city": "BENSALEM",
    "state": "PA",
    "zip": "19020",
    "type": "Virtual Experience"
  },
  "9819": {
    "name": "VS DPAD 2602 SL DLV",
    "city": "SAN LEANDRO",
    "state": "CA",
    "zip": "94577",
    "type": "Virtual Experience"
  },
  "9820": {
    "name": "VS DPAD 2603 SD DLV",
    "city": "POWAY",
    "state": "CA",
    "zip": "92064",
    "type": "Virtual Experience"
  },
  "9821": {
    "name": "VS DPAD 2604 MIL DLV",
    "city": "WAUKESHA",
    "state": "WI",
    "zip": "53186",
    "type": "Virtual Experience"
  },
  "9822": {
    "name": "VS 2606 Xdock HI DLV",
    "city": "HONOLULU",
    "state": "HI",
    "zip": "96819",
    "type": "Virtual Experience"
  },
  "9823": {
    "name": "VS 2606 Xdock HI PKU",
    "city": "HONOLULU",
    "state": "HI",
    "zip": "96819",
    "type": "Virtual Experience"
  },
  "9825": {
    "name": "VS DDC 2607 HOU PKUP",
    "city": "Missouri City",
    "state": "TX",
    "zip": "77489",
    "type": "Virtual Experience"
  },
  "9826": {
    "name": "VS DDC 2607 HOU .COM",
    "city": "Missouri City",
    "state": "TX",
    "zip": "77489",
    "type": "Virtual Experience"
  },
  "9827": {
    "name": "VS DDC 2607 HOU DLV",
    "city": "Missouri City",
    "state": "TX",
    "zip": "77489",
    "type": "Virtual Experience"
  },
  "9828": {
    "name": "VS DDC 2607 HOU PAC",
    "city": "Missouri City",
    "state": "TX",
    "zip": "77489",
    "type": "Virtual Experience"
  },
  "9829": {
    "name": "VS DPAD 2317 CHA DLV",
    "city": "Charlotte",
    "state": "NC",
    "zip": "28273",
    "type": "Virtual Experience"
  },
  "9830": {
    "name": "VS DPAD 2316 SAC DLV",
    "city": "SACRAMENTO",
    "state": "CA",
    "zip": "95838",
    "type": "Virtual Experience"
  },
  "9831": {
    "name": "VS DPAD 2318 RAL DLV",
    "city": "DURHAM",
    "state": "NC",
    "zip": "27703",
    "type": "Virtual Experience"
  },
  "9832": {
    "name": "VS DPAD 2319 NH DLV",
    "city": "WALLINGFORD",
    "state": "CT",
    "zip": "06492",
    "type": "Virtual Experience"
  },
  "9833": {
    "name": "VS DPAD 2360 LI DLV",
    "city": "ISLANDIA",
    "state": "NY",
    "zip": "11749",
    "type": "Virtual Experience"
  },
  "9834": {
    "name": "VS MEC 909 CMT .com",
    "city": "Los Angeles",
    "state": "CA",
    "zip": "90059",
    "type": "Virtual Experience"
  },
  "9835": {
    "name": "VS MEC 914 PSC .com",
    "city": "PISCATAWAY",
    "state": "NJ",
    "zip": "08854",
    "type": "Virtual Experience"
  },
  "9836": {
    "name": "VS MEC 923 CHI .com",
    "city": "BOLINGBROOK",
    "state": "IL",
    "zip": "60490",
    "type": "Virtual Experience"
  },
  "9838": {
    "name": "VS DDC 2608 PHO PKUP",
    "city": "Goodyear",
    "state": "AZ",
    "zip": "85395",
    "type": "Virtual Experience"
  },
  "9839": {
    "name": "VS DDC 2608 PHO .COM",
    "city": "Goodyear",
    "state": "AZ",
    "zip": "85395",
    "type": "Virtual Experience"
  },
  "9840": {
    "name": "VS DDC 2608 PHO DLV",
    "city": "Goodyear",
    "state": "AZ",
    "zip": "85395",
    "type": "Virtual Experience"
  },
  "9841": {
    "name": "VS DDC 2608 PHO PAC",
    "city": "Goodyear",
    "state": "AZ",
    "zip": "85395",
    "type": "Virtual Experience"
  },
  "9842": {
    "name": "VS DPD 2364 JAX PKUP",
    "city": "Jacksonville",
    "state": "FL",
    "zip": "32219",
    "type": "Virtual Experience"
  },
  "9843": {
    "name": "VS DPD 2364 JAX .COM",
    "city": "Jacksonville",
    "state": "FL",
    "zip": "32219",
    "type": "Virtual Experience"
  },
  "9844": {
    "name": "VS DPD 2364 JAX PAC",
    "city": "Jacksonville",
    "state": "FL",
    "zip": "32219",
    "type": "Virtual Experience"
  },
  "9845": {
    "name": "VS DPD 2364 JAX DLV",
    "city": "Jacksonville",
    "state": "FL",
    "zip": "32219",
    "type": "Virtual Experience"
  },
  "9846": {
    "name": "VS DDC 2356 SHP PKUP",
    "city": "SHEPHERDSVILLE",
    "state": "KY",
    "zip": "40165",
    "type": "Virtual Experience"
  },
  "9847": {
    "name": "VS DDC 2356 SHP .COM",
    "city": "SHEPHERDSVILLE",
    "state": "KY",
    "zip": "40165",
    "type": "Virtual Experience"
  },
  "9848": {
    "name": "VS DDC 2356 SHP DLV",
    "city": "SHEPHERDSVILLE",
    "state": "KY",
    "zip": "40165",
    "type": "Virtual Experience"
  },
  "9849": {
    "name": "VS DDC 2356 SHP PAC",
    "city": "SHEPHERDSVILLE",
    "state": "KY",
    "zip": "40165",
    "type": "Virtual Experience"
  },
  "9850": {
    "name": "VS DPD 2357 SLC PKUP",
    "city": "West Valley City",
    "state": "UT",
    "zip": "84120",
    "type": "Virtual Experience"
  },
  "9851": {
    "name": "VS DPD 2357 SLC .COM",
    "city": "West Valley City",
    "state": "UT",
    "zip": "84120",
    "type": "Virtual Experience"
  },
  "9852": {
    "name": "VS DPAD 2357 SLC DLV",
    "city": "West Valley City",
    "state": "UT",
    "zip": "84120",
    "type": "Virtual Experience"
  },
  "9853": {
    "name": "VS DPAD 2357 SLC PAC",
    "city": "West Valley City",
    "state": "UT",
    "zip": "84120",
    "type": "Virtual Experience"
  },
  "9854": {
    "name": "VS DPAD 2367 ALB DLV",
    "city": "Watervliet",
    "state": "NY",
    "zip": "12189",
    "type": "Virtual Experience"
  },
  "9855": {
    "name": "VS DDC 2358 CHR PKUP",
    "city": "Charlotte",
    "state": "NC",
    "zip": "28214",
    "type": "Virtual Experience"
  },
  "9856": {
    "name": "VS DDC 2358 CHR .COM",
    "city": "Charlotte",
    "state": "NC",
    "zip": "28214",
    "type": "Virtual Experience"
  },
  "9857": {
    "name": "VS DDC 2358 CHR DLV",
    "city": "Charlotte",
    "state": "NC",
    "zip": "28214",
    "type": "Virtual Experience"
  },
  "9858": {
    "name": "VS DDC 2358 CHR PAC",
    "city": "Charlotte",
    "state": "NC",
    "zip": "28214",
    "type": "Virtual Experience"
  },
  "9859": {
    "name": "VS DPAD 2368 GR DLV",
    "city": "Caledonia",
    "state": "MI",
    "zip": "49316",
    "type": "Virtual Experience"
  },
  "9860": {
    "name": "VS DPAD 2190 NSH DLV",
    "city": "LaVergne",
    "state": "TN",
    "zip": "37086",
    "type": "Virtual Experience"
  },
  "9861": {
    "name": "VS DPAD 1262 BUF DLV",
    "city": "Amherst",
    "state": "NY",
    "zip": "14228",
    "type": "Virtual Experience"
  },
  "9862": {
    "name": "VS DDC 2609 LNCS DLV",
    "city": "Lancaster",
    "state": "TX",
    "zip": "75134",
    "type": "Virtual Experience"
  },
  "9863": {
    "name": "VS DDC 2609 LNCS PAC",
    "city": "Lancaster",
    "state": "TX",
    "zip": "75134",
    "type": "Virtual Experience"
  }
}